{"type":"FeatureCollection","features":[{"type":"Feature","geometry":{"type":"Point","coordinates":[-122.331,37.1164]},"properties":{"ptf_id":1155540,"ptf_ref":"9902008","category":"anibos","ptf_model":"land-sea mammal","country_name":"USA","country_ship":null,"country_sensor_provider":null}},{"type":"Feature","geometry":{"type":"Point","coordinates":[-122.3311,37.1164]},"properties":{"ptf_id":1155541,"ptf_ref":"9902009","category":"anibos","ptf_model":"land-sea mammal","country_name":"USA","country_ship":null,"country_sensor_provider":null}},{"type":"Feature","geometry":{"type":"Point","coordinates":[-122.331,37.1164]},"properties":{"ptf_id":1155542,"ptf_ref":"9902010","category":"anibos","ptf_model":"land-sea mammal","country_name":"USA","country_ship":null,"country_sensor_provider":null}},{"type":"Feature","geometry":{"type":"Point","coordinates":[-122.331,37.1164]},"properties":{"ptf_id":1155543,"ptf_ref":"9902011","category":"anibos","ptf_model":"land-sea mammal","country_name":"USA","country_ship":null,"country_sensor_provider":null}},{"type":"Feature","geometry":{"type":"Point","coordinates":[-122.331,37.1164]},"properties":{"ptf_id":1155544,"ptf_ref":"9902012","category":"anibos","ptf_model":"land-sea mammal","country_name":"USA","country_ship":null,"country_sensor_provider":null}},{"type":"Feature","geometry":{"type":"Point","coordinates":[-122.331,37.1164]},"properties":{"ptf_id":1155545,"ptf_ref":"9902013","category":"anibos","ptf_model":"land-sea mammal","country_name":"USA","country_ship":null,"country_sensor_provider":null}},{"type":"Feature","geometry":{"type":"Point","coordinates":[-122.3311,37.1164]},"properties":{"ptf_id":1155546,"ptf_ref":"9902014","category":"anibos","ptf_model":"land-sea mammal","country_name":"USA","country_ship":null,"country_sensor_provider":null}},{"type":"Feature","geometry":{"type":"Point","coordinates":[-122.331,37.1164]},"properties":{"ptf_id":1155547,"ptf_ref":"9902015","category":"anibos","ptf_model":"land-sea mammal","country_name":"USA","country_ship":null,"country_sensor_provider":null}},{"type":"Feature","geometry":{"type":"Point","coordinates":[-122.331,37.1164]},"properties":{"ptf_id":1155548,"ptf_ref":"9902016","category":"anibos","ptf_model":"land-sea mammal","country_name":"USA","country_ship":null,"country_sensor_provider":null}},{"type":"Feature","geometry":{"type":"Point","coordinates":[-122.331,37.1164]},"properties":{"ptf_id":1155549,"ptf_ref":"9902017","category":"anibos","ptf_model":"land-sea mammal","country_name":"USA","country_ship":null,"country_sensor_provider":null}},{"type":"Feature","geometry":{"type":"Point","coordinates":[58.52,-66.32]},"properties":{"ptf_id":1156339,"ptf_ref":"9902053","category":"anibos","ptf_model":"land-sea mammal","country_name":"AUSTRALIA","country_ship":null,"country_sensor_provider":null}},{"type":"Feature","geometry":{"type":"Point","coordinates":[57.18,-66.3]},"properties":{"ptf_id":1156348,"ptf_ref":"9902062","category":"anibos","ptf_model":"land-sea mammal","country_name":"AUSTRALIA","country_ship":null,"country_sensor_provider":null}},{"type":"Feature","geometry":{"type":"Point","coordinates":[70.16,-49.77]},"properties":{"ptf_id":1195563,"ptf_ref":"9902081","category":"anibos","ptf_model":"MEOP_tag","country_name":"FRANCE","country_ship":null,"country_sensor_provider":null}},{"type":"Feature","geometry":{"type":"Point","coordinates":[71.09,-49.48]},"properties":{"ptf_id":1195564,"ptf_ref":"9902082","category":"anibos","ptf_model":"MEOP_tag","country_name":"FRANCE","country_ship":null,"country_sensor_provider":null}},{"type":"Feature","geometry":{"type":"Point","coordinates":[77.26,-53.39]},"properties":{"ptf_id":1204708,"ptf_ref":"9902084","category":"anibos","ptf_model":"land-sea mammal","country_name":"AUSTRALIA","country_ship":null,"country_sensor_provider":null}},{"type":"Feature","geometry":{"type":"Point","coordinates":[80.36,-67.59]},"properties":{"ptf_id":1204709,"ptf_ref":"9902085","category":"anibos","ptf_model":"land-sea mammal","country_name":"AUSTRALIA","country_ship":null,"country_sensor_provider":null}},{"type":"Feature","geometry":{"type":"Point","coordinates":[79.99,-53.09]},"properties":{"ptf_id":1204710,"ptf_ref":"9902086","category":"anibos","ptf_model":"land-sea mammal","country_name":"AUSTRALIA","country_ship":null,"country_sensor_provider":null}},{"type":"Feature","geometry":{"type":"Point","coordinates":[96.02,-59.67]},"properties":{"ptf_id":1204711,"ptf_ref":"9902087","category":"anibos","ptf_model":"land-sea mammal","country_name":"AUSTRALIA","country_ship":null,"country_sensor_provider":null}},{"type":"Feature","geometry":{"type":"Point","coordinates":[54.6,-65.45]},"properties":{"ptf_id":1204712,"ptf_ref":"9902088","category":"anibos","ptf_model":"land-sea mammal","country_name":"AUSTRALIA","country_ship":null,"country_sensor_provider":null}},{"type":"Feature","geometry":{"type":"Point","coordinates":[88.82,-63.63]},"properties":{"ptf_id":1204713,"ptf_ref":"9902089","category":"anibos","ptf_model":"land-sea mammal","country_name":"AUSTRALIA","country_ship":null,"country_sensor_provider":null}},{"type":"Feature","geometry":{"type":"Point","coordinates":[44.93,-67.03]},"properties":{"ptf_id":1204714,"ptf_ref":"9902090","category":"anibos","ptf_model":"land-sea mammal","country_name":"AUSTRALIA","country_ship":null,"country_sensor_provider":null}},{"type":"Feature","geometry":{"type":"Point","coordinates":[99.05,-56.23]},"properties":{"ptf_id":1204715,"ptf_ref":"9902091","category":"anibos","ptf_model":"land-sea mammal","country_name":"AUSTRALIA","country_ship":null,"country_sensor_provider":null}},{"type":"Feature","geometry":{"type":"Point","coordinates":[78.65,-57.73]},"properties":{"ptf_id":1204716,"ptf_ref":"9902092","category":"anibos","ptf_model":"land-sea mammal","country_name":"AUSTRALIA","country_ship":null,"country_sensor_provider":null}},{"type":"Feature","geometry":{"type":"Point","coordinates":[97.92,-53.63]},"properties":{"ptf_id":1204877,"ptf_ref":"9902093","category":"anibos","ptf_model":"land-sea mammal","country_name":"AUSTRALIA","country_ship":null,"country_sensor_provider":null}},{"type":"Feature","geometry":{"type":"Point","coordinates":[109.26,-57.26]},"properties":{"ptf_id":1204878,"ptf_ref":"9902094","category":"anibos","ptf_model":"land-sea mammal","country_name":"AUSTRALIA","country_ship":null,"country_sensor_provider":null}},{"type":"Feature","geometry":{"type":"Point","coordinates":[126.43,-58.07]},"properties":{"ptf_id":1204879,"ptf_ref":"9902095","category":"anibos","ptf_model":"land-sea mammal","country_name":"AUSTRALIA","country_ship":null,"country_sensor_provider":null}},{"type":"Feature","geometry":{"type":"Point","coordinates":[109.18,-66.54]},"properties":{"ptf_id":1204880,"ptf_ref":"9902096","category":"anibos","ptf_model":"land-sea mammal","country_name":"AUSTRALIA","country_ship":null,"country_sensor_provider":null}},{"type":"Feature","geometry":{"type":"Point","coordinates":[76.2,-51.89]},"properties":{"ptf_id":1204881,"ptf_ref":"9902097","category":"anibos","ptf_model":"land-sea mammal","country_name":"AUSTRALIA","country_ship":null,"country_sensor_provider":null}},{"type":"Feature","geometry":{"type":"Point","coordinates":[109.01,-50.73]},"properties":{"ptf_id":1204882,"ptf_ref":"9902098","category":"anibos","ptf_model":"land-sea mammal","country_name":"AUSTRALIA","country_ship":null,"country_sensor_provider":null}},{"type":"Feature","geometry":{"type":"Point","coordinates":[107.9,-50.87]},"properties":{"ptf_id":1204883,"ptf_ref":"9902099","category":"anibos","ptf_model":"land-sea mammal","country_name":"AUSTRALIA","country_ship":null,"country_sensor_provider":null}},{"type":"Feature","geometry":{"type":"Point","coordinates":[70.56,-51.27]},"properties":{"ptf_id":1204884,"ptf_ref":"9902100","category":"anibos","ptf_model":"land-sea mammal","country_name":"AUSTRALIA","country_ship":null,"country_sensor_provider":null}},{"type":"Feature","geometry":{"type":"Point","coordinates":[71.12,-49.56]},"properties":{"ptf_id":1204885,"ptf_ref":"9902101","category":"anibos","ptf_model":"land-sea mammal","country_name":"AUSTRALIA","country_ship":null,"country_sensor_provider":null}},{"type":"Feature","geometry":{"type":"Point","coordinates":[70.6,-51.53]},"properties":{"ptf_id":1204886,"ptf_ref":"9902102","category":"anibos","ptf_model":"land-sea mammal","country_name":"AUSTRALIA","country_ship":null,"country_sensor_provider":null}},{"type":"Feature","geometry":{"type":"Point","coordinates":[70.26,-49.85]},"properties":{"ptf_id":1204887,"ptf_ref":"9902103","category":"anibos","ptf_model":"land-sea mammal","country_name":"AUSTRALIA","country_ship":null,"country_sensor_provider":null}},{"type":"Feature","geometry":{"type":"Point","coordinates":[98.75,-64.06]},"properties":{"ptf_id":1204888,"ptf_ref":"9902104","category":"anibos","ptf_model":"land-sea mammal","country_name":"AUSTRALIA","country_ship":null,"country_sensor_provider":null}},{"type":"Feature","geometry":{"type":"Point","coordinates":[71.63,-52.22]},"properties":{"ptf_id":1204889,"ptf_ref":"9902105","category":"anibos","ptf_model":"land-sea mammal","country_name":"AUSTRALIA","country_ship":null,"country_sensor_provider":null}},{"type":"Feature","geometry":{"type":"Point","coordinates":[78.78,-67.8]},"properties":{"ptf_id":1204890,"ptf_ref":"9902106","category":"anibos","ptf_model":"land-sea mammal","country_name":"AUSTRALIA","country_ship":null,"country_sensor_provider":null}},{"type":"Feature","geometry":{"type":"Point","coordinates":[75.74,-67.79]},"properties":{"ptf_id":1204891,"ptf_ref":"9902107","category":"anibos","ptf_model":"land-sea mammal","country_name":"AUSTRALIA","country_ship":null,"country_sensor_provider":null}},{"type":"Feature","geometry":{"type":"Point","coordinates":[74.35,-52.77]},"properties":{"ptf_id":1204892,"ptf_ref":"9902108","category":"anibos","ptf_model":"land-sea mammal","country_name":"AUSTRALIA","country_ship":null,"country_sensor_provider":null}},{"type":"Feature","geometry":{"type":"Point","coordinates":[70.94,-50.34]},"properties":{"ptf_id":1204893,"ptf_ref":"9902109","category":"anibos","ptf_model":"land-sea mammal","country_name":"AUSTRALIA","country_ship":null,"country_sensor_provider":null}},{"type":"Feature","geometry":{"type":"Point","coordinates":[135.93,-7.9]},"properties":{"ptf_id":1231758,"ptf_ref":"9902122","category":"anibos","ptf_model":"GENERIC_AniBOS_tag","country_name":"AUSTRALIA","country_ship":null,"country_sensor_provider":null}},{"type":"Feature","geometry":{"type":"Point","coordinates":[126.85,-11.33]},"properties":{"ptf_id":1231759,"ptf_ref":"9902123","category":"anibos","ptf_model":"Organism","country_name":"AUSTRALIA","country_ship":null,"country_sensor_provider":null}},{"type":"Feature","geometry":{"type":"Point","coordinates":[134.26,-7.16]},"properties":{"ptf_id":1231760,"ptf_ref":"9902124","category":"anibos","ptf_model":"Organism","country_name":"AUSTRALIA","country_ship":null,"country_sensor_provider":null}},{"type":"Feature","geometry":{"type":"Point","coordinates":[138.12,-13.44]},"properties":{"ptf_id":1231761,"ptf_ref":"9902125","category":"anibos","ptf_model":"Organism","country_name":"AUSTRALIA","country_ship":null,"country_sensor_provider":null}},{"type":"Feature","geometry":{"type":"Point","coordinates":[135.21,-8.25]},"properties":{"ptf_id":1231762,"ptf_ref":"9902126","category":"anibos","ptf_model":"Organism","country_name":"AUSTRALIA","country_ship":null,"country_sensor_provider":null}},{"type":"Feature","geometry":{"type":"Point","coordinates":[134.81,-4.3]},"properties":{"ptf_id":1231763,"ptf_ref":"9902127","category":"anibos","ptf_model":"Organism","country_name":"AUSTRALIA","country_ship":null,"country_sensor_provider":null}},{"type":"Feature","geometry":{"type":"Point","coordinates":[130.2,-11.18]},"properties":{"ptf_id":1231764,"ptf_ref":"9902128","category":"anibos","ptf_model":"Organism","country_name":"AUSTRALIA","country_ship":null,"country_sensor_provider":null}},{"type":"Feature","geometry":{"type":"Point","coordinates":[132.38,-10.87]},"properties":{"ptf_id":1231765,"ptf_ref":"9902129","category":"anibos","ptf_model":"Organism","country_name":"AUSTRALIA","country_ship":null,"country_sensor_provider":null}},{"type":"Feature","geometry":{"type":"Point","coordinates":[135.51,-7.63]},"properties":{"ptf_id":1231766,"ptf_ref":"9902130","category":"anibos","ptf_model":"Organism","country_name":"AUSTRALIA","country_ship":null,"country_sensor_provider":null}},{"type":"Feature","geometry":{"type":"Point","coordinates":[127.56,-11.01]},"properties":{"ptf_id":1231767,"ptf_ref":"9902131","category":"anibos","ptf_model":"Organism","country_name":"AUSTRALIA","country_ship":null,"country_sensor_provider":null}},{"type":"Feature","geometry":{"type":"Point","coordinates":[135.57,-7.74]},"properties":{"ptf_id":1231768,"ptf_ref":"9902132","category":"anibos","ptf_model":"Organism","country_name":"AUSTRALIA","country_ship":null,"country_sensor_provider":null}},{"type":"Feature","geometry":{"type":"Point","coordinates":[128.71,-13.01]},"properties":{"ptf_id":1231770,"ptf_ref":"9902134","category":"anibos","ptf_model":"Organism","country_name":"AUSTRALIA","country_ship":null,"country_sensor_provider":null}},{"type":"Feature","geometry":{"type":"Point","coordinates":[130.38,-11.17]},"properties":{"ptf_id":1231771,"ptf_ref":"9902135","category":"anibos","ptf_model":"Organism","country_name":"AUSTRALIA","country_ship":null,"country_sensor_provider":null}},{"type":"Feature","geometry":{"type":"Point","coordinates":[127.57,-12.94]},"properties":{"ptf_id":1231772,"ptf_ref":"9902136","category":"anibos","ptf_model":"Organism","country_name":"AUSTRALIA","country_ship":null,"country_sensor_provider":null}},{"type":"Feature","geometry":{"type":"Point","coordinates":[132.28,-9.86]},"properties":{"ptf_id":1231774,"ptf_ref":"9902138","category":"anibos","ptf_model":"Organism","country_name":"AUSTRALIA","country_ship":null,"country_sensor_provider":null}},{"type":"Feature","geometry":{"type":"Point","coordinates":[128.38,-11.76]},"properties":{"ptf_id":1231775,"ptf_ref":"9902139","category":"anibos","ptf_model":"Organism","country_name":"AUSTRALIA","country_ship":null,"country_sensor_provider":null}},{"type":"Feature","geometry":{"type":"Point","coordinates":[136.29,-11.36]},"properties":{"ptf_id":1231776,"ptf_ref":"9902140","category":"anibos","ptf_model":"Organism","country_name":"AUSTRALIA","country_ship":null,"country_sensor_provider":null}},{"type":"Feature","geometry":{"type":"Point","coordinates":[127.6,-10.74]},"properties":{"ptf_id":1231897,"ptf_ref":"9902141","category":"anibos","ptf_model":"Organism","country_name":"AUSTRALIA","country_ship":null,"country_sensor_provider":null}},{"type":"Feature","geometry":{"type":"Point","coordinates":[134.79,-10.43]},"properties":{"ptf_id":1231899,"ptf_ref":"9902143","category":"anibos","ptf_model":"Organism","country_name":"AUSTRALIA","country_ship":null,"country_sensor_provider":null}},{"type":"Feature","geometry":{"type":"Point","coordinates":[135.36,-7.91]},"properties":{"ptf_id":1231900,"ptf_ref":"9902144","category":"anibos","ptf_model":"Organism","country_name":"AUSTRALIA","country_ship":null,"country_sensor_provider":null}},{"type":"Feature","geometry":{"type":"Point","coordinates":[157.28,-54.3]},"properties":{"ptf_id":1236814,"ptf_ref":"9902151","category":"anibos","ptf_model":"land-sea mammal","country_name":"AUSTRALIA","country_ship":null,"country_sensor_provider":null}},{"type":"Feature","geometry":{"type":"Point","coordinates":[149.74,-61.59]},"properties":{"ptf_id":1237017,"ptf_ref":"9902154","category":"anibos","ptf_model":"land-sea mammal","country_name":"AUSTRALIA","country_ship":null,"country_sensor_provider":null}},{"type":"Feature","geometry":{"type":"Point","coordinates":[157.35,-54.49]},"properties":{"ptf_id":1237018,"ptf_ref":"9902155","category":"anibos","ptf_model":"land-sea mammal","country_name":"AUSTRALIA","country_ship":null,"country_sensor_provider":null}},{"type":"Feature","geometry":{"type":"Point","coordinates":[158.9,-54.57]},"properties":{"ptf_id":1237019,"ptf_ref":"9902156","category":"anibos","ptf_model":"land-sea mammal","country_name":"AUSTRALIA","country_ship":null,"country_sensor_provider":null}},{"type":"Feature","geometry":{"type":"Point","coordinates":[158.59,-60.06]},"properties":{"ptf_id":1237020,"ptf_ref":"9902157","category":"anibos","ptf_model":"land-sea mammal","country_name":"AUSTRALIA","country_ship":null,"country_sensor_provider":null}},{"type":"Feature","geometry":{"type":"Point","coordinates":[121.68,-57.46]},"properties":{"ptf_id":1237021,"ptf_ref":"9902158","category":"anibos","ptf_model":"land-sea mammal","country_name":"AUSTRALIA","country_ship":null,"country_sensor_provider":null}},{"type":"Feature","geometry":{"type":"Point","coordinates":[130.91,-64.27]},"properties":{"ptf_id":1237023,"ptf_ref":"9902160","category":"anibos","ptf_model":"land-sea mammal","country_name":"AUSTRALIA","country_ship":null,"country_sensor_provider":null}},{"type":"Feature","geometry":{"type":"Point","coordinates":[158.86,-54.27]},"properties":{"ptf_id":1237024,"ptf_ref":"9902161","category":"anibos","ptf_model":"land-sea mammal","country_name":"AUSTRALIA","country_ship":null,"country_sensor_provider":null}},{"type":"Feature","geometry":{"type":"Point","coordinates":[158.64,-56.49]},"properties":{"ptf_id":1237027,"ptf_ref":"9902164","category":"anibos","ptf_model":"land-sea mammal","country_name":"AUSTRALIA","country_ship":null,"country_sensor_provider":null}},{"type":"Feature","geometry":{"type":"Point","coordinates":[70.29,-50.02]},"properties":{"ptf_id":1282821,"ptf_ref":"9902258","category":"anibos","ptf_model":"GENERIC_AniBOS_tag","country_name":"FRANCE","country_ship":null,"country_sensor_provider":null}},{"type":"Feature","geometry":{"type":"Point","coordinates":[-2.55,56.18]},"properties":{"ptf_id":1282833,"ptf_ref":"9902270","category":"anibos","ptf_model":"GENERIC_AniBOS_tag","country_name":"UK","country_ship":null,"country_sensor_provider":null}},{"type":"Feature","geometry":{"type":"Point","coordinates":[5.63,53.92]},"properties":{"ptf_id":1282834,"ptf_ref":"9902271","category":"anibos","ptf_model":"GENERIC_AniBOS_tag","country_name":"UK","country_ship":null,"country_sensor_provider":null}},{"type":"Feature","geometry":{"type":"Point","coordinates":[1.38,58.71]},"properties":{"ptf_id":1282835,"ptf_ref":"9902272","category":"anibos","ptf_model":"GENERIC_AniBOS_tag","country_name":"UK","country_ship":null,"country_sensor_provider":null}},{"type":"Feature","geometry":{"type":"Point","coordinates":[-1.69,60.17]},"properties":{"ptf_id":1282836,"ptf_ref":"9902273","category":"anibos","ptf_model":"GENERIC_AniBOS_tag","country_name":"UK","country_ship":null,"country_sensor_provider":null}},{"type":"Feature","geometry":{"type":"Point","coordinates":[1.62,55.66]},"properties":{"ptf_id":1285497,"ptf_ref":"9902274","category":"anibos","ptf_model":"GENERIC_AniBOS_tag","country_name":"UK","country_ship":null,"country_sensor_provider":null}},{"type":"Feature","geometry":{"type":"Point","coordinates":[-1.46,56.26]},"properties":{"ptf_id":1285498,"ptf_ref":"9902275","category":"anibos","ptf_model":"GENERIC_AniBOS_tag","country_name":"UK","country_ship":null,"country_sensor_provider":null}},{"type":"Feature","geometry":{"type":"Point","coordinates":[2.44,56.36]},"properties":{"ptf_id":1285499,"ptf_ref":"9902276","category":"anibos","ptf_model":"GENERIC_AniBOS_tag","country_name":"UK","country_ship":null,"country_sensor_provider":null}},{"type":"Feature","geometry":{"type":"Point","coordinates":[2.13,58.32]},"properties":{"ptf_id":1285500,"ptf_ref":"9902277","category":"anibos","ptf_model":"GENERIC_AniBOS_tag","country_name":"UK","country_ship":null,"country_sensor_provider":null}},{"type":"Feature","geometry":{"type":"Point","coordinates":[-0.54,56.64]},"properties":{"ptf_id":1285501,"ptf_ref":"9902278","category":"anibos","ptf_model":"GENERIC_AniBOS_tag","country_name":"UK","country_ship":null,"country_sensor_provider":null}},{"type":"Feature","geometry":{"type":"Point","coordinates":[-1.87,58.94]},"properties":{"ptf_id":1285502,"ptf_ref":"9902279","category":"anibos","ptf_model":"GENERIC_AniBOS_tag","country_name":"UK","country_ship":null,"country_sensor_provider":null}},{"type":"Feature","geometry":{"type":"Point","coordinates":[70.07,-49.92]},"properties":{"ptf_id":1303898,"ptf_ref":"9902280","category":"anibos","ptf_model":"land-sea mammal","country_name":"AUSTRALIA","country_ship":null,"country_sensor_provider":null}},{"type":"Feature","geometry":{"type":"Point","coordinates":[80.03,-58.89]},"properties":{"ptf_id":1303899,"ptf_ref":"9902281","category":"anibos","ptf_model":"land-sea mammal","country_name":"AUSTRALIA","country_ship":null,"country_sensor_provider":null}},{"type":"Feature","geometry":{"type":"Point","coordinates":[47.32,-66.49]},"properties":{"ptf_id":1303900,"ptf_ref":"9902282","category":"anibos","ptf_model":"land-sea mammal","country_name":"AUSTRALIA","country_ship":null,"country_sensor_provider":null}},{"type":"Feature","geometry":{"type":"Point","coordinates":[41.84,-67.96]},"properties":{"ptf_id":1303901,"ptf_ref":"9902283","category":"anibos","ptf_model":"land-sea mammal","country_name":"AUSTRALIA","country_ship":null,"country_sensor_provider":null}},{"type":"Feature","geometry":{"type":"Point","coordinates":[95.37,-66.1]},"properties":{"ptf_id":1303903,"ptf_ref":"9902285","category":"anibos","ptf_model":"land-sea mammal","country_name":"AUSTRALIA","country_ship":null,"country_sensor_provider":null}},{"type":"Feature","geometry":{"type":"Point","coordinates":[74.63,-52.84]},"properties":{"ptf_id":1303904,"ptf_ref":"9902286","category":"anibos","ptf_model":"land-sea mammal","country_name":"AUSTRALIA","country_ship":null,"country_sensor_provider":null}},{"type":"Feature","geometry":{"type":"Point","coordinates":[113.51,-64.03]},"properties":{"ptf_id":1303906,"ptf_ref":"9902288","category":"anibos","ptf_model":"land-sea mammal","country_name":"AUSTRALIA","country_ship":null,"country_sensor_provider":null}},{"type":"Feature","geometry":{"type":"Point","coordinates":[66.55,-67.77]},"properties":{"ptf_id":1303907,"ptf_ref":"9902289","category":"anibos","ptf_model":"land-sea mammal","country_name":"AUSTRALIA","country_ship":null,"country_sensor_provider":null}},{"type":"Feature","geometry":{"type":"Point","coordinates":[70.38,-49.51]},"properties":{"ptf_id":1303908,"ptf_ref":"9902290","category":"anibos","ptf_model":"land-sea mammal","country_name":"AUSTRALIA","country_ship":null,"country_sensor_provider":null}},{"type":"Feature","geometry":{"type":"Point","coordinates":[89.04,-65.87]},"properties":{"ptf_id":1303909,"ptf_ref":"9902291","category":"anibos","ptf_model":"land-sea mammal","country_name":"AUSTRALIA","country_ship":null,"country_sensor_provider":null}},{"type":"Feature","geometry":{"type":"Point","coordinates":[70.48,-49.6]},"properties":{"ptf_id":1303910,"ptf_ref":"9902292","category":"anibos","ptf_model":"land-sea mammal","country_name":"AUSTRALIA","country_ship":null,"country_sensor_provider":null}},{"type":"Feature","geometry":{"type":"Point","coordinates":[82.95,-59.56]},"properties":{"ptf_id":1303911,"ptf_ref":"9902293","category":"anibos","ptf_model":"land-sea mammal","country_name":"AUSTRALIA","country_ship":null,"country_sensor_provider":null}},{"type":"Feature","geometry":{"type":"Point","coordinates":[84.2,-54.65]},"properties":{"ptf_id":1303912,"ptf_ref":"9902294","category":"anibos","ptf_model":"land-sea mammal","country_name":"AUSTRALIA","country_ship":null,"country_sensor_provider":null}},{"type":"Feature","geometry":{"type":"Point","coordinates":[70.4,-49.52]},"properties":{"ptf_id":1303913,"ptf_ref":"9902295","category":"anibos","ptf_model":"land-sea mammal","country_name":"AUSTRALIA","country_ship":null,"country_sensor_provider":null}},{"type":"Feature","geometry":{"type":"Point","coordinates":[128.73,-62.12]},"properties":{"ptf_id":1303914,"ptf_ref":"9902296","category":"anibos","ptf_model":"land-sea mammal","country_name":"AUSTRALIA","country_ship":null,"country_sensor_provider":null}},{"type":"Feature","geometry":{"type":"Point","coordinates":[70.38,-49.52]},"properties":{"ptf_id":1303915,"ptf_ref":"9902297","category":"anibos","ptf_model":"land-sea mammal","country_name":"AUSTRALIA","country_ship":null,"country_sensor_provider":null}},{"type":"Feature","geometry":{"type":"Point","coordinates":[39.63,-52.28]},"properties":{"ptf_id":1303916,"ptf_ref":"9902298","category":"anibos","ptf_model":"land-sea mammal","country_name":"AUSTRALIA","country_ship":null,"country_sensor_provider":null}},{"type":"Feature","geometry":{"type":"Point","coordinates":[87.26,-55.55]},"properties":{"ptf_id":1305117,"ptf_ref":"9902299","category":"anibos","ptf_model":"land-sea mammal","country_name":"AUSTRALIA","country_ship":null,"country_sensor_provider":null}},{"type":"Feature","geometry":{"type":"Point","coordinates":[66.77,-46.71]},"properties":{"ptf_id":1305119,"ptf_ref":"9902301","category":"anibos","ptf_model":"land-sea mammal","country_name":"AUSTRALIA","country_ship":null,"country_sensor_provider":null}},{"type":"Feature","geometry":{"type":"Point","coordinates":[133.07,-53.03]},"properties":{"ptf_id":1305120,"ptf_ref":"9902302","category":"anibos","ptf_model":"land-sea mammal","country_name":"AUSTRALIA","country_ship":null,"country_sensor_provider":null}},{"type":"Feature","geometry":{"type":"Point","coordinates":[102.31,-57.18]},"properties":{"ptf_id":1305121,"ptf_ref":"9902303","category":"anibos","ptf_model":"land-sea mammal","country_name":"AUSTRALIA","country_ship":null,"country_sensor_provider":null}},{"type":"Feature","geometry":{"type":"Point","coordinates":[113.41,-49.89]},"properties":{"ptf_id":1305123,"ptf_ref":"9902305","category":"anibos","ptf_model":"land-sea mammal","country_name":"AUSTRALIA","country_ship":null,"country_sensor_provider":null}},{"type":"Feature","geometry":{"type":"Point","coordinates":[70.32,-49.6]},"properties":{"ptf_id":1305124,"ptf_ref":"9902306","category":"anibos","ptf_model":"land-sea mammal","country_name":"AUSTRALIA","country_ship":null,"country_sensor_provider":null}},{"type":"Feature","geometry":{"type":"Point","coordinates":[70.53,-49.61]},"properties":{"ptf_id":1305125,"ptf_ref":"9902307","category":"anibos","ptf_model":"land-sea mammal","country_name":"AUSTRALIA","country_ship":null,"country_sensor_provider":null}},{"type":"Feature","geometry":{"type":"Point","coordinates":[108.45,-65.47]},"properties":{"ptf_id":1305126,"ptf_ref":"9902308","category":"anibos","ptf_model":"land-sea mammal","country_name":"AUSTRALIA","country_ship":null,"country_sensor_provider":null}},{"type":"Feature","geometry":{"type":"Point","coordinates":[70.54,-49.74]},"properties":{"ptf_id":1305127,"ptf_ref":"9902309","category":"anibos","ptf_model":"land-sea mammal","country_name":"AUSTRALIA","country_ship":null,"country_sensor_provider":null}},{"type":"Feature","geometry":{"type":"Point","coordinates":[81.5,-65.52]},"properties":{"ptf_id":1305128,"ptf_ref":"9902310","category":"anibos","ptf_model":"land-sea mammal","country_name":"AUSTRALIA","country_ship":null,"country_sensor_provider":null}},{"type":"Feature","geometry":{"type":"Point","coordinates":[69.73,-49.55]},"properties":{"ptf_id":1305130,"ptf_ref":"9902312","category":"anibos","ptf_model":"land-sea mammal","country_name":"AUSTRALIA","country_ship":null,"country_sensor_provider":null}},{"type":"Feature","geometry":{"type":"Point","coordinates":[107.82,-66.28]},"properties":{"ptf_id":1305131,"ptf_ref":"9902313","category":"anibos","ptf_model":"land-sea mammal","country_name":"AUSTRALIA","country_ship":null,"country_sensor_provider":null}},{"type":"Feature","geometry":{"type":"Point","coordinates":[69.72,-49.67]},"properties":{"ptf_id":1305132,"ptf_ref":"9902314","category":"anibos","ptf_model":"land-sea mammal","country_name":"AUSTRALIA","country_ship":null,"country_sensor_provider":null}},{"type":"Feature","geometry":{"type":"Point","coordinates":[81.26,-64.8]},"properties":{"ptf_id":1305133,"ptf_ref":"9902315","category":"anibos","ptf_model":"land-sea mammal","country_name":"AUSTRALIA","country_ship":null,"country_sensor_provider":null}},{"type":"Feature","geometry":{"type":"Point","coordinates":[87.99,-63.39]},"properties":{"ptf_id":1305134,"ptf_ref":"9902316","category":"anibos","ptf_model":"land-sea mammal","country_name":"AUSTRALIA","country_ship":null,"country_sensor_provider":null}},{"type":"Feature","geometry":{"type":"Point","coordinates":[95.04,-65.67]},"properties":{"ptf_id":1305135,"ptf_ref":"9902317","category":"anibos","ptf_model":"land-sea mammal","country_name":"AUSTRALIA","country_ship":null,"country_sensor_provider":null}},{"type":"Feature","geometry":{"type":"Point","coordinates":[-56.51,-64.34]},"properties":{"ptf_id":1321003,"ptf_ref":"9902318","category":"anibos","ptf_model":"GENERIC_AniBOS_tag","country_name":"UK","country_ship":null,"country_sensor_provider":null}},{"type":"Feature","geometry":{"type":"Point","coordinates":[-53.33,-60.77]},"properties":{"ptf_id":1321004,"ptf_ref":"9902319","category":"anibos","ptf_model":"GENERIC_AniBOS_tag","country_name":"UK","country_ship":null,"country_sensor_provider":null}},{"type":"Feature","geometry":{"type":"Point","coordinates":[-54.96,-65.91]},"properties":{"ptf_id":1321005,"ptf_ref":"9902320","category":"anibos","ptf_model":"GENERIC_AniBOS_tag","country_name":"UK","country_ship":null,"country_sensor_provider":null}},{"type":"Feature","geometry":{"type":"Point","coordinates":[-61.81,-63.31]},"properties":{"ptf_id":1321006,"ptf_ref":"9902321","category":"anibos","ptf_model":"GENERIC_AniBOS_tag","country_name":"UK","country_ship":null,"country_sensor_provider":null}},{"type":"Feature","geometry":{"type":"Point","coordinates":[-58.92,-62.25]},"properties":{"ptf_id":1321007,"ptf_ref":"9902322","category":"anibos","ptf_model":"GENERIC_AniBOS_tag","country_name":"UK","country_ship":null,"country_sensor_provider":null}}]}
