{"type":"FeatureCollection","features":[{"type":"Feature","geometry":{"type":"Point","coordinates":[-45.286,59.787]},"properties":{"ptf_id":1141996,"ptf_ref":"9ZT9MRK","category":"ship_based_meteorological_sot","ptf_model":"DIS - Free hand launches","wigos_ref":"0-22000-0-9ZT9MRK","country_name":"EUMETNET","country_ship":null,"goos_networks":"ASAP","ptf_family_name":"Atmospheric Profiler","country_iso_reporting":"EU","country_sensor_provider":null}},{"type":"Feature","geometry":{"type":"Point","coordinates":[2.376,57.786]},"properties":{"ptf_id":1145043,"ptf_ref":"GQBZLZL","category":"ship_based_meteorological_sot","ptf_model":"DIS - Free hand launches","wigos_ref":"0-22000-0-GQBZLZL","country_name":"EUMETNET","country_ship":null,"goos_networks":"ASAP","ptf_family_name":"Atmospheric Profiler","country_iso_reporting":"EU","country_sensor_provider":null}},{"type":"Feature","geometry":{"type":"Point","coordinates":[-9.37,62.965]},"properties":{"ptf_id":1149487,"ptf_ref":"ATGU3FT","category":"ship_based_meteorological_sot","ptf_model":"DIS - Free hand launches","wigos_ref":"0-22000-0-ATGU3FT","country_name":"EUMETNET","country_ship":null,"goos_networks":"ASAP","ptf_family_name":"Atmospheric Profiler","country_iso_reporting":"EU","country_sensor_provider":null}},{"type":"Feature","geometry":{"type":"Point","coordinates":[-34.089,49.163]},"properties":{"ptf_id":1015281,"ptf_ref":"LRYQE3U","category":"ship_based_meteorological_sot","ptf_model":"DIS - Fixed manual deck launcher","wigos_ref":"0-22000-0-LRYQE3U","country_name":"EUMETNET","country_ship":null,"goos_networks":"ASAP","ptf_family_name":"Atmospheric Profiler","country_iso_reporting":"EU","country_sensor_provider":null}},{"type":"Feature","geometry":{"type":"Point","coordinates":[-10.733,51.252]},"properties":{"ptf_id":1015282,"ptf_ref":"JNKN7JF","category":"ship_based_meteorological_sot","ptf_model":"DIS - Fixed manual deck launcher","wigos_ref":"0-22000-0-JNKN7JF","country_name":"EUMETNET","country_ship":null,"goos_networks":"ASAP","ptf_family_name":"Atmospheric Profiler","country_iso_reporting":"EU","country_sensor_provider":null}},{"type":"Feature","geometry":{"type":"Point","coordinates":[-10.123,55.483]},"properties":{"ptf_id":1015283,"ptf_ref":"7JUNA4N","category":"ship_based_meteorological_sot","ptf_model":"DIS - Fixed manual deck launcher","wigos_ref":"0-22000-0-7JUNA4N","country_name":"EUMETNET","country_ship":null,"goos_networks":"ASAP","ptf_family_name":"Atmospheric Profiler","country_iso_reporting":"EU","country_sensor_provider":null}},{"type":"Feature","geometry":{"type":"Point","coordinates":[-30.896,51.106]},"properties":{"ptf_id":1015284,"ptf_ref":"YLV96WM","category":"ship_based_meteorological_sot","ptf_model":"DIS - Fixed manual deck launcher","wigos_ref":"0-22000-0-YLV96WM","country_name":"EUMETNET","country_ship":null,"goos_networks":"ASAP","ptf_family_name":"Atmospheric Profiler","country_iso_reporting":"EU","country_sensor_provider":null}},{"type":"Feature","geometry":{"type":"Point","coordinates":[-62.504,44.519]},"properties":{"ptf_id":1015285,"ptf_ref":"KMPLHPW","category":"ship_based_meteorological_sot","ptf_model":"DIS - Fixed manual deck launcher","wigos_ref":"0-22000-0-KMPLHPW","country_name":"EUMETNET","country_ship":null,"goos_networks":"ASAP","ptf_family_name":"Atmospheric Profiler","country_iso_reporting":"EU","country_sensor_provider":null}},{"type":"Feature","geometry":{"type":"Point","coordinates":[140.214,81.156]},"properties":{"ptf_id":1015286,"ptf_ref":"WDK38HS","category":"ship_based_meteorological_sot","ptf_model":"INT - Semi automatic 10ft container launcher","wigos_ref":"0-22000-0-WDK38HS","country_name":"EUMETNET","country_ship":null,"goos_networks":"ASAP","ptf_family_name":"Atmospheric Profiler","country_iso_reporting":"EU","country_sensor_provider":null}},{"type":"Feature","geometry":{"type":"Point","coordinates":[-56.582,66.154]},"properties":{"ptf_id":1015287,"ptf_ref":"FPUW5GN","category":"ship_based_meteorological_sot","ptf_model":"INT - Semi automatic 10ft container launcher","wigos_ref":"0-22000-0-FPUW5GN","country_name":"EUMETNET","country_ship":null,"goos_networks":"ASAP","ptf_family_name":"Atmospheric Profiler","country_iso_reporting":"EU","country_sensor_provider":null}},{"type":"Feature","geometry":{"type":"Point","coordinates":[-5.027,46.541]},"properties":{"ptf_id":1015298,"ptf_ref":"XKQLWQB","category":"ship_based_meteorological_sot","ptf_model":"INT - Semi automatic 10ft container launcher","wigos_ref":"0-22000-0-XKQLWQB","country_name":"EUMETNET","country_ship":null,"goos_networks":"ASAP","ptf_family_name":"Atmospheric Profiler","country_iso_reporting":"EU","country_sensor_provider":null}},{"type":"Feature","geometry":{"type":"Point","coordinates":[140.725,82.419]},"properties":{"ptf_id":1015299,"ptf_ref":"2TDJJ8J","category":"ship_based_meteorological_sot","ptf_model":"DIS - Generic","wigos_ref":"0-22000-0-2TDJJ8J","country_name":"GERMANY","country_ship":null,"goos_networks":"ASAP","ptf_family_name":"Atmospheric Profiler","country_iso_reporting":"DE","country_sensor_provider":null}},{"type":"Feature","geometry":{"type":"Point","coordinates":[133,30]},"properties":{"ptf_id":1146190,"ptf_ref":"NSWRJMD","category":"ship_based_meteorological_sot","ptf_model":"DIS - Semi automatic 10ft container launcher","wigos_ref":"0-22000-0-NSWRJMD","country_name":"JAPAN","country_ship":null,"goos_networks":"ASAP","ptf_family_name":"Atmospheric Profiler","country_iso_reporting":"JP","country_sensor_provider":null}},{"type":"Feature","geometry":{"type":"Point","coordinates":[-58.615,18.741]},"properties":{"ptf_id":1346617,"ptf_ref":"SLKFEGK","category":"ship_based_meteorological_sot","ptf_model":"DIS - Fixed manual deck launcher","wigos_ref":"0-22000-0-SLKFEGK","country_name":"EUMETNET","country_ship":null,"goos_networks":"ASAP","ptf_family_name":"Atmospheric Profiler","country_iso_reporting":"EU","country_sensor_provider":null}}]}
