{"type":"FeatureCollection","features":[{"type":"Feature","geometry":{"type":"Point","coordinates":[166.617,19.283]},"properties":{"ptf_id":1099783,"ptf_ref":"GLOSS_105","category":"gloss","ptf_model":"Tide Gauge","country_name":"USA","country_ship":null,"country_sensor_provider":null}},{"type":"Feature","geometry":{"type":"Point","coordinates":[115.733,-32.05]},"properties":{"ptf_id":1099740,"ptf_ref":"GLOSS_53","category":"gloss","ptf_model":"Tide Gauge","country_name":"AUSTRALIA","country_ship":null,"country_sensor_provider":null}},{"type":"Feature","geometry":{"type":"Point","coordinates":[-52.283,4.85]},"properties":{"ptf_id":1099853,"ptf_ref":"GLOSS_202","category":"gloss","ptf_model":"Tide Gauge","country_name":"FRANCE","country_ship":null,"country_sensor_provider":null}},{"type":"Feature","geometry":{"type":"Point","coordinates":[5.35,43.3]},"properties":{"ptf_id":1099855,"ptf_ref":"GLOSS_205","category":"gloss","ptf_model":"Tide Gauge","country_name":"FRANCE","country_ship":null,"country_sensor_provider":null}},{"type":"Feature","geometry":{"type":"Point","coordinates":[-90.283,-0.433]},"properties":{"ptf_id":1099832,"ptf_ref":"GLOSS_169","category":"gloss","ptf_model":"Tide Gauge","country_name":"ECUADOR","country_ship":null,"country_sensor_provider":null}},{"type":"Feature","geometry":{"type":"Point","coordinates":[158.65,52.983]},"properties":{"ptf_id":1099773,"ptf_ref":"GLOSS_93","category":"gloss","ptf_model":"Tide Gauge","country_name":"RUSSIA","country_ship":null,"country_sensor_provider":null}},{"type":"Feature","geometry":{"type":"Point","coordinates":[39.667,-4.05]},"properties":{"ptf_id":1099705,"ptf_ref":"GLOSS_8","category":"gloss","ptf_model":"Tide Gauge","country_name":"KENYA","country_ship":null,"country_sensor_provider":null}},{"type":"Feature","geometry":{"type":"Point","coordinates":[128.75,71.667]},"properties":{"ptf_id":1099669,"ptf_ref":"GLOSS_313","category":"gloss","ptf_model":"Tide Gauge","country_name":"RUSSIA","country_ship":null,"country_sensor_provider":null}},{"type":"Feature","geometry":{"type":"Point","coordinates":[-64.7,32.367]},"properties":{"ptf_id":1099870,"ptf_ref":"GLOSS_221","category":"gloss","ptf_model":"Tide Gauge","country_name":"USA","country_ship":null,"country_sensor_provider":null}},{"type":"Feature","geometry":{"type":"Point","coordinates":[151.233,-33.85]},"properties":{"ptf_id":1099744,"ptf_ref":"GLOSS_57","category":"gloss","ptf_model":"Tide Gauge","country_name":"AUSTRALIA","country_ship":null,"country_sensor_provider":null}},{"type":"Feature","geometry":{"type":"Point","coordinates":[60.6,25.3]},"properties":{"ptf_id":1099687,"ptf_ref":"GLOSS_337","category":"gloss","ptf_model":"Tide Gauge","country_name":"IRAN","country_ship":null,"country_sensor_provider":null}},{"type":"Feature","geometry":{"type":"Point","coordinates":[-17.44,14.66]},"properties":{"ptf_id":1099894,"ptf_ref":"GLOSS_253","category":"gloss","ptf_model":"Tide Gauge","country_name":"SENEGAL","country_ship":null,"country_sensor_provider":null}},{"type":"Feature","geometry":{"type":"Point","coordinates":[132.067,34.9]},"properties":{"ptf_id":1099677,"ptf_ref":"GLOSS_326","category":"gloss","ptf_model":"Tide Gauge","country_name":"JAPAN","country_ship":null,"country_sensor_provider":null}},{"type":"Feature","geometry":{"type":"Point","coordinates":[-52.717,47.567]},"properties":{"ptf_id":1099872,"ptf_ref":"GLOSS_223","category":"gloss","ptf_model":"Tide Gauge","country_name":"CANADA","country_ship":null,"country_sensor_provider":null}},{"type":"Feature","geometry":{"type":"Point","coordinates":[-80.9,32.033]},"properties":{"ptf_id":1099910,"ptf_ref":"GLOSS_289","category":"gloss","ptf_model":"Tide Gauge","country_name":"USA","country_ship":null,"country_sensor_provider":null}},{"type":"Feature","geometry":{"type":"Point","coordinates":[-61.517,10.65]},"properties":{"ptf_id":1099854,"ptf_ref":"GLOSS_203","category":"gloss","ptf_model":"Tide Gauge","country_name":"TRINIDAD&TOBAGO","country_ship":null,"country_sensor_provider":null}},{"type":"Feature","geometry":{"type":"Point","coordinates":[108.983,-7.567]},"properties":{"ptf_id":1099912,"ptf_ref":"GLOSS_291","category":"gloss","ptf_model":"Tide Gauge","country_name":"INDONESIA","country_ship":null,"country_sensor_provider":null}},{"type":"Feature","geometry":{"type":"Point","coordinates":[167.733,8.733]},"properties":{"ptf_id":1099788,"ptf_ref":"GLOSS_111","category":"gloss","ptf_model":"Tide Gauge","country_name":"USA","country_ship":null,"country_sensor_provider":null}},{"type":"Feature","geometry":{"type":"Point","coordinates":[-77.1,3.9]},"properties":{"ptf_id":1099833,"ptf_ref":"GLOSS_170","category":"gloss","ptf_model":"Tide Gauge","country_name":"COLOMBIA","country_ship":null,"country_sensor_provider":null}},{"type":"Feature","geometry":{"type":"Point","coordinates":[-96.133,19.2]},"properties":{"ptf_id":1099862,"ptf_ref":"GLOSS_212","category":"gloss","ptf_model":"Tide Gauge","country_name":"MEXICO","country_ship":null,"country_sensor_provider":null}},{"type":"Feature","geometry":{"type":"Point","coordinates":[140.01,-66.662]},"properties":{"ptf_id":1099806,"ptf_ref":"GLOSS_131","category":"gloss","ptf_model":"Tide Gauge","country_name":"FRANCE","country_ship":null,"country_sensor_provider":null}},{"type":"Feature","geometry":{"type":"Point","coordinates":[135.46,33.49]},"properties":{"ptf_id":1099767,"ptf_ref":"GLOSS_85","category":"gloss","ptf_model":"Tide Gauge","country_name":"JAPAN","country_ship":null,"country_sensor_provider":null}},{"type":"Feature","geometry":{"type":"Point","coordinates":[137.14,36.46]},"properties":{"ptf_id":1099676,"ptf_ref":"GLOSS_325","category":"gloss","ptf_model":"Tide Gauge","country_name":"JAPAN","country_ship":null,"country_sensor_provider":null}},{"type":"Feature","geometry":{"type":"Point","coordinates":[-78.733,1.833]},"properties":{"ptf_id":1099834,"ptf_ref":"GLOSS_171","category":"gloss","ptf_model":"Tide Gauge","country_name":"COLOMBIA","country_ship":null,"country_sensor_provider":null}},{"type":"Feature","geometry":{"type":"Point","coordinates":[51.87,-46.425]},"properties":{"ptf_id":1099713,"ptf_ref":"GLOSS_21","category":"gloss","ptf_model":"Tide Gauge","country_name":"FRANCE","country_ship":null,"country_sensor_provider":null}},{"type":"Feature","geometry":{"type":"Point","coordinates":[133.64,-32.15]},"properties":{"ptf_id":1099667,"ptf_ref":"GLOSS_308","category":"gloss","ptf_model":"Tide Gauge","country_name":"AUSTRALIA","country_ship":null,"country_sensor_provider":null}},{"type":"Feature","geometry":{"type":"Point","coordinates":[96.9,-12.1]},"properties":{"ptf_id":1099735,"ptf_ref":"GLOSS_46","category":"gloss","ptf_model":"Tide Gauge","country_name":"AUSTRALIA","country_ship":null,"country_sensor_provider":null}},{"type":"Feature","geometry":{"type":"Point","coordinates":[45.25,-12.783]},"properties":{"ptf_id":1099776,"ptf_ref":"GLOSS_96","category":"gloss","ptf_model":"Tide Gauge","country_name":"FRANCE","country_ship":null,"country_sensor_provider":null}},{"type":"Feature","geometry":{"type":"Point","coordinates":[-77.15,-12.05]},"properties":{"ptf_id":1099836,"ptf_ref":"GLOSS_173","category":"gloss","ptf_model":"Tide Gauge","country_name":"PERU","country_ship":null,"country_sensor_provider":null}},{"type":"Feature","geometry":{"type":"Point","coordinates":[166.433,-22.3]},"properties":{"ptf_id":1099799,"ptf_ref":"GLOSS_123","category":"gloss","ptf_model":"Tide Gauge","country_name":null,"country_ship":null,"country_sensor_provider":null}},{"type":"Feature","geometry":{"type":"Point","coordinates":[-80.917,-2.2]},"properties":{"ptf_id":1099835,"ptf_ref":"GLOSS_172","category":"gloss","ptf_model":"Tide Gauge","country_name":"ECUADOR","country_ship":null,"country_sensor_provider":null}},{"type":"Feature","geometry":{"type":"Point","coordinates":[-81.8,24.55]},"properties":{"ptf_id":1099866,"ptf_ref":"GLOSS_216","category":"gloss","ptf_model":"Tide Gauge","country_name":"USA","country_ship":null,"country_sensor_provider":null}},{"type":"Feature","geometry":{"type":"Point","coordinates":[158.15,6.59]},"properties":{"ptf_id":1099792,"ptf_ref":"GLOSS_115","category":"gloss","ptf_model":"Tide Gauge","country_name":"USA","country_ship":null,"country_sensor_provider":null}},{"type":"Feature","geometry":{"type":"Point","coordinates":[29.917,31.217]},"properties":{"ptf_id":1099699,"ptf_ref":"GLOSS_349","category":"gloss","ptf_model":"Tide Gauge","country_name":"EGYPT","country_ship":null,"country_sensor_provider":null}},{"type":"Feature","geometry":{"type":"Point","coordinates":[11.95,78.933]},"properties":{"ptf_id":1099695,"ptf_ref":"GLOSS_345","category":"gloss","ptf_model":"Tide Gauge","country_name":null,"country_ship":null,"country_sensor_provider":null}},{"type":"Feature","geometry":{"type":"Point","coordinates":[-72.58,-41.29]},"properties":{"ptf_id":1099841,"ptf_ref":"GLOSS_178","category":"gloss","ptf_model":"Tide Gauge","country_name":"CHILE","country_ship":null,"country_sensor_provider":null}},{"type":"Feature","geometry":{"type":"Point","coordinates":[166.46,-77.51]},"properties":{"ptf_id":1099807,"ptf_ref":"GLOSS_134","category":"gloss","ptf_model":"Tide Gauge","country_name":"NEW ZEALAND","country_ship":null,"country_sensor_provider":null}},{"type":"Feature","geometry":{"type":"Point","coordinates":[129.033,35.1]},"properties":{"ptf_id":1099766,"ptf_ref":"GLOSS_84","category":"gloss","ptf_model":"Tide Gauge","country_name":"SOUTH KOREA","country_ship":null,"country_sensor_provider":null}},{"type":"Feature","geometry":{"type":"Point","coordinates":[-84.167,9.4]},"properties":{"ptf_id":1099830,"ptf_ref":"GLOSS_167","category":"gloss","ptf_model":"Tide Gauge","country_name":"COSTA RICA","country_ship":null,"country_sensor_provider":null}},{"type":"Feature","geometry":{"type":"Point","coordinates":[-38.467,-3.717]},"properties":{"ptf_id":1099686,"ptf_ref":"GLOSS_336","category":"gloss","ptf_model":"Tide Gauge","country_name":null,"country_ship":null,"country_sensor_provider":null}},{"type":"Feature","geometry":{"type":"Point","coordinates":[-176.55,-43.95]},"properties":{"ptf_id":1099803,"ptf_ref":"GLOSS_128","category":"gloss","ptf_model":"Tide Gauge","country_name":"NEW ZEALAND","country_ship":null,"country_sensor_provider":null}},{"type":"Feature","geometry":{"type":"Point","coordinates":[-8.232,43.213]},"properties":{"ptf_id":1099886,"ptf_ref":"GLOSS_243","category":"gloss","ptf_model":"Tide Gauge","country_name":"SPAIN","country_ship":null,"country_sensor_provider":null}},{"type":"Feature","geometry":{"type":"Point","coordinates":[100.367,-1]},"properties":{"ptf_id":1099734,"ptf_ref":"GLOSS_45","category":"gloss","ptf_model":"Tide Gauge","country_name":"INDONESIA","country_ship":null,"country_sensor_provider":null}},{"type":"Feature","geometry":{"type":"Point","coordinates":[-5.7,-15.967]},"properties":{"ptf_id":1099897,"ptf_ref":"GLOSS_264","category":"gloss","ptf_model":"Tide Gauge","country_name":"UK","country_ship":null,"country_sensor_provider":null}},{"type":"Feature","geometry":{"type":"Point","coordinates":[167.95,-29.067]},"properties":{"ptf_id":1099800,"ptf_ref":"GLOSS_124","category":"gloss","ptf_model":"Tide Gauge","country_name":"AUSTRALIA","country_ship":null,"country_sensor_provider":null}},{"type":"Feature","geometry":{"type":"Point","coordinates":[-75.55,10.4]},"properties":{"ptf_id":1099857,"ptf_ref":"GLOSS_207","category":"gloss","ptf_model":"Tide Gauge","country_name":"COLOMBIA","country_ship":null,"country_sensor_provider":null}},{"type":"Feature","geometry":{"type":"Point","coordinates":[141.613,-38.343]},"properties":{"ptf_id":1099742,"ptf_ref":"GLOSS_55","category":"gloss","ptf_model":"Tide Gauge","country_name":"AUSTRALIA","country_ship":null,"country_sensor_provider":null}},{"type":"Feature","geometry":{"type":"Point","coordinates":[-51.733,64.167]},"properties":{"ptf_id":1099874,"ptf_ref":"GLOSS_225","category":"gloss","ptf_model":"Tide Gauge","country_name":"DENMARK","country_ship":null,"country_sensor_provider":null}},{"type":"Feature","geometry":{"type":"Point","coordinates":[-79.883,9.367]},"properties":{"ptf_id":1099858,"ptf_ref":"GLOSS_208","category":"gloss","ptf_model":"Tide Gauge","country_name":"PANAMA","country_ship":null,"country_sensor_provider":null}},{"type":"Feature","geometry":{"type":"Point","coordinates":[-89.833,13.583]},"properties":{"ptf_id":1099843,"ptf_ref":"GLOSS_182","category":"gloss","ptf_model":"Tide Gauge","country_name":"EL SALVADOR","country_ship":null,"country_sensor_provider":null}},{"type":"Feature","geometry":{"type":"Point","coordinates":[172.93,1.363]},"properties":{"ptf_id":1099790,"ptf_ref":"GLOSS_113","category":"gloss","ptf_model":"Tide Gauge","country_name":"AUSTRALIA","country_ship":null,"country_sensor_provider":null}},{"type":"Feature","geometry":{"type":"Point","coordinates":[14.25,78.067]},"properties":{"ptf_id":1099877,"ptf_ref":"GLOSS_231","category":"gloss","ptf_model":"Tide Gauge","country_name":"RUSSIA","country_ship":null,"country_sensor_provider":null}},{"type":"Feature","geometry":{"type":"Point","coordinates":[168.35,-46.6]},"properties":{"ptf_id":1099804,"ptf_ref":"GLOSS_129","category":"gloss","ptf_model":"Tide Gauge","country_name":"NEW ZEALAND","country_ship":null,"country_sensor_provider":null}},{"type":"Feature","geometry":{"type":"Point","coordinates":[-89.65,21.3]},"properties":{"ptf_id":1099863,"ptf_ref":"GLOSS_213","category":"gloss","ptf_model":"Tide Gauge","country_name":"MEXICO","country_ship":null,"country_sensor_provider":null}},{"type":"Feature","geometry":{"type":"Point","coordinates":[62.867,-67.6]},"properties":{"ptf_id":1099714,"ptf_ref":"GLOSS_22","category":"gloss","ptf_model":"Tide Gauge","country_name":"AUSTRALIA","country_ship":null,"country_sensor_provider":null}},{"type":"Feature","geometry":{"type":"Point","coordinates":[-14.417,-7.917]},"properties":{"ptf_id":1099896,"ptf_ref":"GLOSS_263","category":"gloss","ptf_model":"Tide Gauge","country_name":"UK","country_ship":null,"country_sensor_provider":null}},{"type":"Feature","geometry":{"type":"Point","coordinates":[121.9,-33.867]},"properties":{"ptf_id":1099741,"ptf_ref":"GLOSS_54","category":"gloss","ptf_model":"Tide Gauge","country_name":"AUSTRALIA","country_ship":null,"country_sensor_provider":null}},{"type":"Feature","geometry":{"type":"Point","coordinates":[-177.367,28.217]},"properties":{"ptf_id":1099784,"ptf_ref":"GLOSS_106","category":"gloss","ptf_model":"Tide Gauge","country_name":"USA","country_ship":null,"country_sensor_provider":null}},{"type":"Feature","geometry":{"type":"Point","coordinates":[73.167,-0.7]},"properties":{"ptf_id":1099717,"ptf_ref":"GLOSS_27","category":"gloss","ptf_model":"Tide Gauge","country_name":"USA","country_ship":null,"country_sensor_provider":null}},{"type":"Feature","geometry":{"type":"Point","coordinates":[-7.333,55.367]},"properties":{"ptf_id":1099883,"ptf_ref":"GLOSS_239","category":"gloss","ptf_model":"Tide Gauge","country_name":"IRELAND","country_ship":null,"country_sensor_provider":null}},{"type":"Feature","geometry":{"type":"Point","coordinates":[76.267,9.967]},"properties":{"ptf_id":1099722,"ptf_ref":"GLOSS_32","category":"gloss","ptf_model":"Tide Gauge","country_name":"INDIA","country_ship":null,"country_sensor_provider":null}},{"type":"Feature","geometry":{"type":"Point","coordinates":[-122.467,37.8]},"properties":{"ptf_id":1099826,"ptf_ref":"GLOSS_158","category":"gloss","ptf_model":"Tide Gauge","country_name":"USA","country_ship":null,"country_sensor_provider":null}},{"type":"Feature","geometry":{"type":"Point","coordinates":[154.783,1.1]},"properties":{"ptf_id":1099793,"ptf_ref":"GLOSS_117","category":"gloss","ptf_model":"Tide Gauge","country_name":"USA","country_ship":null,"country_sensor_provider":null}},{"type":"Feature","geometry":{"type":"Point","coordinates":[91.833,22.333]},"properties":{"ptf_id":1099726,"ptf_ref":"GLOSS_36","category":"gloss","ptf_model":"Tide Gauge","country_name":"BANGLADESH","country_ship":null,"country_sensor_provider":null}},{"type":"Feature","geometry":{"type":"Point","coordinates":[120.967,14.583]},"properties":{"ptf_id":1099755,"ptf_ref":"GLOSS_73","category":"gloss","ptf_model":"Tide Gauge","country_name":"PHILIPPINES","country_ship":null,"country_sensor_provider":null}},{"type":"Feature","geometry":{"type":"Point","coordinates":[-134.95,-23.133]},"properties":{"ptf_id":1099809,"ptf_ref":"GLOSS_138","category":"gloss","ptf_model":"Tide Gauge","country_name":null,"country_ship":null,"country_sensor_provider":null}},{"type":"Feature","geometry":{"type":"Point","coordinates":[121.283,28.083]},"properties":{"ptf_id":1099774,"ptf_ref":"GLOSS_94","category":"gloss","ptf_model":"Tide Gauge","country_name":"CHINA","country_ship":null,"country_sensor_provider":null}},{"type":"Feature","geometry":{"type":"Point","coordinates":[-46.033,60.717]},"properties":{"ptf_id":1099694,"ptf_ref":"GLOSS_344","category":"gloss","ptf_model":"Tide Gauge","country_name":null,"country_ship":null,"country_sensor_provider":null}},{"type":"Feature","geometry":{"type":"Point","coordinates":[166.9,-0.533]},"properties":{"ptf_id":1099791,"ptf_ref":"GLOSS_114","category":"gloss","ptf_model":"Tide Gauge","country_name":"USA","country_ship":null,"country_sensor_provider":null}},{"type":"Feature","geometry":{"type":"Point","coordinates":[31.1,70.333]},"properties":{"ptf_id":1099674,"ptf_ref":"GLOSS_323","category":"gloss","ptf_model":"Tide Gauge","country_name":"NORWAY","country_ship":null,"country_sensor_provider":null}},{"type":"Feature","geometry":{"type":"Point","coordinates":[-5.55,50.1]},"properties":{"ptf_id":1099884,"ptf_ref":"GLOSS_241","category":"gloss","ptf_model":"Tide Gauge","country_name":"UK","country_ship":null,"country_sensor_provider":null}},{"type":"Feature","geometry":{"type":"Point","coordinates":[-125.917,49.15]},"properties":{"ptf_id":1099824,"ptf_ref":"GLOSS_156","category":"gloss","ptf_model":"Tide Gauge","country_name":"CANADA","country_ship":null,"country_sensor_provider":null}},{"type":"Feature","geometry":{"type":"Point","coordinates":[147.933,-42.55]},"properties":{"ptf_id":1099743,"ptf_ref":"GLOSS_56","category":"gloss","ptf_model":"Tide Gauge","country_name":"AUSTRALIA","country_ship":null,"country_sensor_provider":null}},{"type":"Feature","geometry":{"type":"Point","coordinates":[40.1833,-10.2833]},"properties":{"ptf_id":1123156,"ptf_ref":"GLOSS_9","category":"gloss","ptf_model":"Tide Gauge","country_name":"TANZANIA","country_ship":null,"country_sensor_provider":null}},{"type":"Feature","geometry":{"type":"Point","coordinates":[140.43,41.47]},"properties":{"ptf_id":1099770,"ptf_ref":"GLOSS_88","category":"gloss","ptf_model":"Tide Gauge","country_name":"JAPAN","country_ship":null,"country_sensor_provider":null}},{"type":"Feature","geometry":{"type":"Point","coordinates":[-171.43,-2.49]},"properties":{"ptf_id":1099816,"ptf_ref":"GLOSS_145","category":"gloss","ptf_model":"Tide Gauge","country_name":"USA","country_ship":null,"country_sensor_provider":null}},{"type":"Feature","geometry":{"type":"Point","coordinates":[-65.917,-47.75]},"properties":{"ptf_id":1099847,"ptf_ref":"GLOSS_190","category":"gloss","ptf_model":"Tide Gauge","country_name":"ARGENTINA","country_ship":null,"country_sensor_provider":null}},{"type":"Feature","geometry":{"type":"Point","coordinates":[-84.9,21.9]},"properties":{"ptf_id":1099864,"ptf_ref":"GLOSS_214","category":"gloss","ptf_model":"Tide Gauge","country_name":"CUBA","country_ship":null,"country_sensor_provider":null}},{"type":"Feature","geometry":{"type":"Point","coordinates":[-5.19,35.54]},"properties":{"ptf_id":1099891,"ptf_ref":"GLOSS_249","category":"gloss","ptf_model":"Tide Gauge","country_name":"SPAIN","country_ship":null,"country_sensor_provider":null}},{"type":"Feature","geometry":{"type":"Point","coordinates":[39.067,44.1]},"properties":{"ptf_id":1099777,"ptf_ref":"GLOSS_98","category":"gloss","ptf_model":"Tide Gauge","country_name":"RUSSIA","country_ship":null,"country_sensor_provider":null}},{"type":"Feature","geometry":{"type":"Point","coordinates":[18.083,59.317]},"properties":{"ptf_id":1099691,"ptf_ref":"GLOSS_341","category":"gloss","ptf_model":"Tide Gauge","country_name":null,"country_ship":null,"country_sensor_provider":null}},{"type":"Feature","geometry":{"type":"Point","coordinates":[-71.333,41.5]},"properties":{"ptf_id":1099911,"ptf_ref":"GLOSS_290","category":"gloss","ptf_model":"Tide Gauge","country_name":"USA","country_ship":null,"country_sensor_provider":null}},{"type":"Feature","geometry":{"type":"Point","coordinates":[-63.583,44.667]},"properties":{"ptf_id":1099871,"ptf_ref":"GLOSS_222","category":"gloss","ptf_model":"Tide Gauge","country_name":"CANADA","country_ship":null,"country_sensor_provider":null}},{"type":"Feature","geometry":{"type":"Point","coordinates":[152.38,-24.767]},"properties":{"ptf_id":1099746,"ptf_ref":"GLOSS_59","category":"gloss","ptf_model":"Tide Gauge","country_name":"AUSTRALIA","country_ship":null,"country_sensor_provider":null}},{"type":"Feature","geometry":{"type":"Point","coordinates":[92.767,11.683]},"properties":{"ptf_id":1099728,"ptf_ref":"GLOSS_38","category":"gloss","ptf_model":"Tide Gauge","country_name":"INDIA","country_ship":null,"country_sensor_provider":null}},{"type":"Feature","geometry":{"type":"Point","coordinates":[-56.25,-34.9]},"properties":{"ptf_id":1099664,"ptf_ref":"GLOSS_300","category":"gloss","ptf_model":"Tide Gauge","country_name":"URUGUAY","country_ship":null,"country_sensor_provider":null}},{"type":"Feature","geometry":{"type":"Point","coordinates":[118.567,-20.317]},"properties":{"ptf_id":1099738,"ptf_ref":"GLOSS_51","category":"gloss","ptf_model":"Tide Gauge","country_name":"AUSTRALIA","country_ship":null,"country_sensor_provider":null}},{"type":"Feature","geometry":{"type":"Point","coordinates":[178.433,-18.133]},"properties":{"ptf_id":1099798,"ptf_ref":"GLOSS_122","category":"gloss","ptf_model":"Tide Gauge","country_name":"AUSTRALIA","country_ship":null,"country_sensor_provider":null}},{"type":"Feature","geometry":{"type":"Point","coordinates":[141.75,39.017]},"properties":{"ptf_id":1099769,"ptf_ref":"GLOSS_87","category":"gloss","ptf_model":"Tide Gauge","country_name":"JAPAN","country_ship":null,"country_sensor_provider":null}},{"type":"Feature","geometry":{"type":"Point","coordinates":[-148.527,70.4]},"properties":{"ptf_id":1099821,"ptf_ref":"GLOSS_151","category":"gloss","ptf_model":"Tide Gauge","country_name":"USA","country_ship":null,"country_sensor_provider":null}},{"type":"Feature","geometry":{"type":"Point","coordinates":[122.217,-18]},"properties":{"ptf_id":1099730,"ptf_ref":"GLOSS_40","category":"gloss","ptf_model":"Tide Gauge","country_name":"AUSTRALIA","country_ship":null,"country_sensor_provider":null}},{"type":"Feature","geometry":{"type":"Point","coordinates":[-157.867,21.3]},"properties":{"ptf_id":1099786,"ptf_ref":"GLOSS_108","category":"gloss","ptf_model":"Tide Gauge","country_name":"USA","country_ship":null,"country_sensor_provider":null}},{"type":"Feature","geometry":{"type":"Point","coordinates":[119.217,-9.383]},"properties":{"ptf_id":1099696,"ptf_ref":"GLOSS_346","category":"gloss","ptf_model":"Tide Gauge","country_name":null,"country_ship":null,"country_sensor_provider":null}},{"type":"Feature","geometry":{"type":"Point","coordinates":[111.833,21.583]},"properties":{"ptf_id":1099760,"ptf_ref":"GLOSS_78","category":"gloss","ptf_model":"Tide Gauge","country_name":"CHINA","country_ship":null,"country_sensor_provider":null}},{"type":"Feature","geometry":{"type":"Point","coordinates":[95.333,5.833]},"properties":{"ptf_id":1099697,"ptf_ref":"GLOSS_347","category":"gloss","ptf_model":"Tide Gauge","country_name":null,"country_ship":null,"country_sensor_provider":null}},{"type":"Feature","geometry":{"type":"Point","coordinates":[8.717,53.867]},"properties":{"ptf_id":1099907,"ptf_ref":"GLOSS_284","category":"gloss","ptf_model":"Tide Gauge","country_name":"GERMANY","country_ship":null,"country_sensor_provider":null}},{"type":"Feature","geometry":{"type":"Point","coordinates":[-64.267,-65.25]},"properties":{"ptf_id":1099845,"ptf_ref":"GLOSS_188","category":"gloss","ptf_model":"Tide Gauge","country_name":"UK","country_ship":null,"country_sensor_provider":null}},{"type":"Feature","geometry":{"type":"Point","coordinates":[153.58,24.18]},"properties":{"ptf_id":1099782,"ptf_ref":"GLOSS_104","category":"gloss","ptf_model":"Tide Gauge","country_name":"JAPAN","country_ship":null,"country_sensor_provider":null}},{"type":"Feature","geometry":{"type":"Point","coordinates":[-68.867,76.55]},"properties":{"ptf_id":1099693,"ptf_ref":"GLOSS_343","category":"gloss","ptf_model":"Tide Gauge","country_name":null,"country_ship":null,"country_sensor_provider":null}},{"type":"Feature","geometry":{"type":"Point","coordinates":[121.617,32.133]},"properties":{"ptf_id":1099906,"ptf_ref":"GLOSS_283","category":"gloss","ptf_model":"Tide Gauge","country_name":"CHINA","country_ship":null,"country_sensor_provider":null}},{"type":"Feature","geometry":{"type":"Point","coordinates":[18.433,-34.183]},"properties":{"ptf_id":1099900,"ptf_ref":"GLOSS_268","category":"gloss","ptf_model":"Tide Gauge","country_name":"SOUTH AFRICA","country_ship":null,"country_sensor_provider":null}},{"type":"Feature","geometry":{"type":"Point","coordinates":[144.22,42.58]},"properties":{"ptf_id":1099771,"ptf_ref":"GLOSS_89","category":"gloss","ptf_model":"Tide Gauge","country_name":"JAPAN","country_ship":null,"country_sensor_provider":null}},{"type":"Feature","geometry":{"type":"Point","coordinates":[43.15,11.6]},"properties":{"ptf_id":1099702,"ptf_ref":"GLOSS_2","category":"gloss","ptf_model":"Tide Gauge","country_name":"DJIBOUTI","country_ship":null,"country_sensor_provider":null}},{"type":"Feature","geometry":{"type":"Point","coordinates":[-38.517,-12.967]},"properties":{"ptf_id":1099684,"ptf_ref":"GLOSS_334","category":"gloss","ptf_model":"Tide Gauge","country_name":null,"country_ship":null,"country_sensor_provider":null}},{"type":"Feature","geometry":{"type":"Point","coordinates":[134.467,7.333]},"properties":{"ptf_id":1099796,"ptf_ref":"GLOSS_120","category":"gloss","ptf_model":"Tide Gauge","country_name":"USA","country_ship":null,"country_sensor_provider":null}},{"type":"Feature","geometry":{"type":"Point","coordinates":[129.52,32.44]},"properties":{"ptf_id":1099765,"ptf_ref":"GLOSS_83","category":"gloss","ptf_model":"Tide Gauge","country_name":"JAPAN","country_ship":null,"country_sensor_provider":null}},{"type":"Feature","geometry":{"type":"Point","coordinates":[73.5,4.167]},"properties":{"ptf_id":1099718,"ptf_ref":"GLOSS_28","category":"gloss","ptf_model":"Tide Gauge","country_name":"USA","country_ship":null,"country_sensor_provider":null}},{"type":"Feature","geometry":{"type":"Point","coordinates":[174.47,-41.17]},"properties":{"ptf_id":1099779,"ptf_ref":"GLOSS_101","category":"gloss","ptf_model":"Tide Gauge","country_name":"NEW ZEALAND","country_ship":null,"country_sensor_provider":null}},{"type":"Feature","geometry":{"type":"Point","coordinates":[-169.533,16.733]},"properties":{"ptf_id":1099787,"ptf_ref":"GLOSS_109","category":"gloss","ptf_model":"Tide Gauge","country_name":"USA","country_ship":null,"country_sensor_provider":null}},{"type":"Feature","geometry":{"type":"Point","coordinates":[110.533,-66.283]},"properties":{"ptf_id":1099904,"ptf_ref":"GLOSS_278","category":"gloss","ptf_model":"Tide Gauge","country_name":"AUSTRALIA","country_ship":null,"country_sensor_provider":null}},{"type":"Feature","geometry":{"type":"Point","coordinates":[130.85,-12.467]},"properties":{"ptf_id":1099749,"ptf_ref":"GLOSS_62","category":"gloss","ptf_model":"Tide Gauge","country_name":"AUSTRALIA","country_ship":null,"country_sensor_provider":null}},{"type":"Feature","geometry":{"type":"Point","coordinates":[-80.162,25.732]},"properties":{"ptf_id":1099682,"ptf_ref":"GLOSS_332","category":"gloss","ptf_model":"Tide Gauge","country_name":null,"country_ship":null,"country_sensor_provider":null}},{"type":"Feature","geometry":{"type":"Point","coordinates":[-130.333,54.317]},"properties":{"ptf_id":1099823,"ptf_ref":"GLOSS_155","category":"gloss","ptf_model":"Tide Gauge","country_name":"CANADA","country_ship":null,"country_sensor_provider":null}},{"type":"Feature","geometry":{"type":"Point","coordinates":[-135.333,57.05]},"properties":{"ptf_id":1099822,"ptf_ref":"GLOSS_154","category":"gloss","ptf_model":"Tide Gauge","country_name":"USA","country_ship":null,"country_sensor_provider":null}},{"type":"Feature","geometry":{"type":"Point","coordinates":[-43.167,-22.9]},"properties":{"ptf_id":1099851,"ptf_ref":"GLOSS_195","category":"gloss","ptf_model":"Tide Gauge","country_name":"BRAZIL","country_ship":null,"country_sensor_provider":null}},{"type":"Feature","geometry":{"type":"Point","coordinates":[-25.403,37.442]},"properties":{"ptf_id":1099888,"ptf_ref":"GLOSS_245","category":"gloss","ptf_model":"Tide Gauge","country_name":"PORTUGAL","country_ship":null,"country_sensor_provider":null}},{"type":"Feature","geometry":{"type":"Point","coordinates":[-48.65,-28.23]},"properties":{"ptf_id":1099701,"ptf_ref":"GLOSS_351","category":"gloss","ptf_model":"Tide Gauge","country_name":"BRAZIL","country_ship":null,"country_sensor_provider":null}},{"type":"Feature","geometry":{"type":"Point","coordinates":[159.95,-9.433]},"properties":{"ptf_id":1099750,"ptf_ref":"GLOSS_66","category":"gloss","ptf_model":"Tide Gauge","country_name":"AUSTRALIA","country_ship":null,"country_sensor_provider":null}},{"type":"Feature","geometry":{"type":"Point","coordinates":[13.75,45.65]},"properties":{"ptf_id":1099690,"ptf_ref":"GLOSS_340","category":"gloss","ptf_model":"Tide Gauge","country_name":null,"country_ship":null,"country_sensor_provider":null}},{"type":"Feature","geometry":{"type":"Point","coordinates":[83.283,17.683]},"properties":{"ptf_id":1099725,"ptf_ref":"GLOSS_35","category":"gloss","ptf_model":"Tide Gauge","country_name":"INDIA","country_ship":null,"country_sensor_provider":null}},{"type":"Feature","geometry":{"type":"Point","coordinates":[-21.933,64.15]},"properties":{"ptf_id":1099876,"ptf_ref":"GLOSS_229","category":"gloss","ptf_model":"Tide Gauge","country_name":"ICELAND","country_ship":null,"country_sensor_provider":null}},{"type":"Feature","geometry":{"type":"Point","coordinates":[-80.07,-26.17]},"properties":{"ptf_id":1099840,"ptf_ref":"GLOSS_177","category":"gloss","ptf_model":"Tide Gauge","country_name":"CHILE","country_ship":null,"country_sensor_provider":null}},{"type":"Feature","geometry":{"type":"Point","coordinates":[-70.24,-23.39]},"properties":{"ptf_id":1099837,"ptf_ref":"GLOSS_174","category":"gloss","ptf_model":"Tide Gauge","country_name":"CHILE","country_ship":null,"country_sensor_provider":null}},{"type":"Feature","geometry":{"type":"Point","coordinates":[-15.417,28.133]},"properties":{"ptf_id":1099893,"ptf_ref":"GLOSS_251","category":"gloss","ptf_model":"Tide Gauge","country_name":"SPAIN","country_ship":null,"country_sensor_provider":null}},{"type":"Feature","geometry":{"type":"Point","coordinates":[-57.55,-38.05]},"properties":{"ptf_id":1099849,"ptf_ref":"GLOSS_192","category":"gloss","ptf_model":"Tide Gauge","country_name":"ARGENTINA","country_ship":null,"country_sensor_provider":null}},{"type":"Feature","geometry":{"type":"Point","coordinates":[138.133,9.517]},"properties":{"ptf_id":1099795,"ptf_ref":"GLOSS_119","category":"gloss","ptf_model":"Tide Gauge","country_name":"USA","country_ship":null,"country_sensor_provider":null}},{"type":"Feature","geometry":{"type":"Point","coordinates":[-44.367,-2.567]},"properties":{"ptf_id":1099852,"ptf_ref":"GLOSS_200","category":"gloss","ptf_model":"Tide Gauge","country_name":"BRAZIL","country_ship":null,"country_sensor_provider":null}},{"type":"Feature","geometry":{"type":"Point","coordinates":[-160.5,55.333]},"properties":{"ptf_id":1099778,"ptf_ref":"GLOSS_100","category":"gloss","ptf_model":"Tide Gauge","country_name":"USA","country_ship":null,"country_sensor_provider":null}},{"type":"Feature","geometry":{"type":"Point","coordinates":[-149.567,-17.533]},"properties":{"ptf_id":1099811,"ptf_ref":"GLOSS_140","category":"gloss","ptf_model":"Tide Gauge","country_name":null,"country_ship":null,"country_sensor_provider":null}},{"type":"Feature","geometry":{"type":"Point","coordinates":[171.367,7.1]},"properties":{"ptf_id":1099789,"ptf_ref":"GLOSS_112","category":"gloss","ptf_model":"Tide Gauge","country_name":"USA","country_ship":null,"country_sensor_provider":null}},{"type":"Feature","geometry":{"type":"Point","coordinates":[-6.767,62.017]},"properties":{"ptf_id":1099881,"ptf_ref":"GLOSS_237","category":"gloss","ptf_model":"Tide Gauge","country_name":"DENMARK","country_ship":null,"country_sensor_provider":null}},{"type":"Feature","geometry":{"type":"Point","coordinates":[168.3,-17.767]},"properties":{"ptf_id":1099698,"ptf_ref":"GLOSS_348","category":"gloss","ptf_model":"Tide Gauge","country_name":"VANUATU","country_ship":null,"country_sensor_provider":null}},{"type":"Feature","geometry":{"type":"Point","coordinates":[-1.133,60.15]},"properties":{"ptf_id":1099880,"ptf_ref":"GLOSS_236","category":"gloss","ptf_model":"Tide Gauge","country_name":"UK","country_ship":null,"country_sensor_provider":null}},{"type":"Feature","geometry":{"type":"Point","coordinates":[99.817,11.783]},"properties":{"ptf_id":1099729,"ptf_ref":"GLOSS_39","category":"gloss","ptf_model":"Tide Gauge","country_name":"THAILAND","country_ship":null,"country_sensor_provider":null}},{"type":"Feature","geometry":{"type":"Point","coordinates":[103.183,5.267]},"properties":{"ptf_id":1099913,"ptf_ref":"GLOSS_293","category":"gloss","ptf_model":"Tide Gauge","country_name":"MALAYSIA","country_ship":null,"country_sensor_provider":null}},{"type":"Feature","geometry":{"type":"Point","coordinates":[25.37,-33.57]},"properties":{"ptf_id":1099758,"ptf_ref":"GLOSS_76","category":"gloss","ptf_model":"Tide Gauge","country_name":"SOUTH AFRICA","country_ship":null,"country_sensor_provider":null}},{"type":"Feature","geometry":{"type":"Point","coordinates":[114.217,22.283]},"properties":{"ptf_id":1099759,"ptf_ref":"GLOSS_77","category":"gloss","ptf_model":"Tide Gauge","country_name":"CHINA","country_ship":null,"country_sensor_provider":null}},{"type":"Feature","geometry":{"type":"Point","coordinates":[150.7,59.733]},"properties":{"ptf_id":1099772,"ptf_ref":"GLOSS_92","category":"gloss","ptf_model":"Tide Gauge","country_name":"RUSSIA","country_ship":null,"country_sensor_provider":null}},{"type":"Feature","geometry":{"type":"Point","coordinates":[-72.35,18.567]},"properties":{"ptf_id":1099859,"ptf_ref":"GLOSS_209","category":"gloss","ptf_model":"Tide Gauge","country_name":"HAITI","country_ship":null,"country_sensor_provider":null}},{"type":"Feature","geometry":{"type":"Point","coordinates":[31.033,-29.883]},"properties":{"ptf_id":1099707,"ptf_ref":"GLOSS_13","category":"gloss","ptf_model":"Tide Gauge","country_name":"SOUTH AFRICA","country_ship":null,"country_sensor_provider":null}},{"type":"Feature","geometry":{"type":"Point","coordinates":[11.48,57.41]},"properties":{"ptf_id":1099878,"ptf_ref":"GLOSS_233","category":"gloss","ptf_model":"Tide Gauge","country_name":"SWEDEN","country_ship":null,"country_sensor_provider":null}},{"type":"Feature","geometry":{"type":"Point","coordinates":[-79.6,8.967]},"properties":{"ptf_id":1099831,"ptf_ref":"GLOSS_168","category":"gloss","ptf_model":"Tide Gauge","country_name":"PANAMA","country_ship":null,"country_sensor_provider":null}},{"type":"Feature","geometry":{"type":"Point","coordinates":[-170.683,-14.283]},"properties":{"ptf_id":1099815,"ptf_ref":"GLOSS_144","category":"gloss","ptf_model":"Tide Gauge","country_name":"USA","country_ship":null,"country_sensor_provider":null}},{"type":"Feature","geometry":{"type":"Point","coordinates":[141.917,-10.6]},"properties":{"ptf_id":1099748,"ptf_ref":"GLOSS_61","category":"gloss","ptf_model":"Tide Gauge","country_name":"AUSTRALIA","country_ship":null,"country_sensor_provider":null}},{"type":"Feature","geometry":{"type":"Point","coordinates":[-96.5,15.65]},"properties":{"ptf_id":1099829,"ptf_ref":"GLOSS_164","category":"gloss","ptf_model":"Tide Gauge","country_name":"MEXICO","country_ship":null,"country_sensor_provider":null}},{"type":"Feature","geometry":{"type":"Point","coordinates":[-175.25,-21.167]},"properties":{"ptf_id":1099801,"ptf_ref":"GLOSS_125","category":"gloss","ptf_model":"Tide Gauge","country_name":"USA","country_ship":null,"country_sensor_provider":null}},{"type":"Feature","geometry":{"type":"Point","coordinates":[-5.365,36.148]},"properties":{"ptf_id":1099890,"ptf_ref":"GLOSS_248","category":"gloss","ptf_model":"Tide Gauge","country_name":"UK","country_ship":null,"country_sensor_provider":null}},{"type":"Feature","geometry":{"type":"Point","coordinates":[-82.467,23.1]},"properties":{"ptf_id":1099865,"ptf_ref":"GLOSS_215","category":"gloss","ptf_model":"Tide Gauge","country_name":"CUBA","country_ship":null,"country_sensor_provider":null}},{"type":"Feature","geometry":{"type":"Point","coordinates":[-22.983,16.755]},"properties":{"ptf_id":1099679,"ptf_ref":"GLOSS_329","category":"gloss","ptf_model":"Tide Gauge","country_name":"PORTUGAL","country_ship":null,"country_sensor_provider":null}},{"type":"Feature","geometry":{"type":"Point","coordinates":[109.217,13.767]},"properties":{"ptf_id":1099757,"ptf_ref":"GLOSS_75","category":"gloss","ptf_model":"Tide Gauge","country_name":"VIET NAM","country_ship":null,"country_sensor_provider":null}},{"type":"Feature","geometry":{"type":"Point","coordinates":[-166.283,23.867]},"properties":{"ptf_id":1099785,"ptf_ref":"GLOSS_107","category":"gloss","ptf_model":"Tide Gauge","country_name":"USA","country_ship":null,"country_sensor_provider":null}},{"type":"Feature","geometry":{"type":"Point","coordinates":[113.65,-24.9]},"properties":{"ptf_id":1099739,"ptf_ref":"GLOSS_52","category":"gloss","ptf_model":"Tide Gauge","country_name":"AUSTRALIA","country_ship":null,"country_sensor_provider":null}},{"type":"Feature","geometry":{"type":"Point","coordinates":[-59.38,-62.29]},"properties":{"ptf_id":1099846,"ptf_ref":"GLOSS_189","category":"gloss","ptf_model":"Tide Gauge","country_name":"CHILE","country_ship":null,"country_sensor_provider":null}},{"type":"Feature","geometry":{"type":"Point","coordinates":[-16.547,32.386]},"properties":{"ptf_id":1099892,"ptf_ref":"GLOSS_250","category":"gloss","ptf_model":"Tide Gauge","country_name":"PORTUGAL","country_ship":null,"country_sensor_provider":null}},{"type":"Feature","geometry":{"type":"Point","coordinates":[103.833,1.467]},"properties":{"ptf_id":1099733,"ptf_ref":"GLOSS_44","category":"gloss","ptf_model":"Tide Gauge","country_name":"SINGAPORE","country_ship":null,"country_sensor_provider":null}},{"type":"Feature","geometry":{"type":"Point","coordinates":[79.85,6.933]},"properties":{"ptf_id":1099723,"ptf_ref":"GLOSS_33","category":"gloss","ptf_model":"Tide Gauge","country_name":"SRI LANKA","country_ship":null,"country_sensor_provider":null}},{"type":"Feature","geometry":{"type":"Point","coordinates":[73.8,15.417]},"properties":{"ptf_id":1099905,"ptf_ref":"GLOSS_281","category":"gloss","ptf_model":"Tide Gauge","country_name":"INDIA","country_ship":null,"country_sensor_provider":null}},{"type":"Feature","geometry":{"type":"Point","coordinates":[-157.483,1.983]},"properties":{"ptf_id":1099817,"ptf_ref":"GLOSS_146","category":"gloss","ptf_model":"Tide Gauge","country_name":"USA","country_ship":null,"country_sensor_provider":null}},{"type":"Feature","geometry":{"type":"Point","coordinates":[145.733,15.233]},"properties":{"ptf_id":1099794,"ptf_ref":"GLOSS_118","category":"gloss","ptf_model":"Tide Gauge","country_name":"USA","country_ship":null,"country_sensor_provider":null}},{"type":"Feature","geometry":{"type":"Point","coordinates":[-6.383,58.2]},"properties":{"ptf_id":1099882,"ptf_ref":"GLOSS_238","category":"gloss","ptf_model":"Tide Gauge","country_name":"UK","country_ship":null,"country_sensor_provider":null}},{"type":"Feature","geometry":{"type":"Point","coordinates":[-166.533,53.883]},"properties":{"ptf_id":1099780,"ptf_ref":"GLOSS_102","category":"gloss","ptf_model":"Tide Gauge","country_name":"USA","country_ship":null,"country_sensor_provider":null}},{"type":"Feature","geometry":{"type":"Point","coordinates":[-149.433,60.117]},"properties":{"ptf_id":1099820,"ptf_ref":"GLOSS_150","category":"gloss","ptf_model":"Tide Gauge","country_name":"USA","country_ship":null,"country_sensor_provider":null}},{"type":"Feature","geometry":{"type":"Point","coordinates":[123.75,13.15]},"properties":{"ptf_id":1099754,"ptf_ref":"GLOSS_72","category":"gloss","ptf_model":"Tide Gauge","country_name":"PHILIPPINES","country_ship":null,"country_sensor_provider":null}},{"type":"Feature","geometry":{"type":"Point","coordinates":[-117.267,32.867]},"properties":{"ptf_id":1099827,"ptf_ref":"GLOSS_159","category":"gloss","ptf_model":"Tide Gauge","country_name":"USA","country_ship":null,"country_sensor_provider":null}},{"type":"Feature","geometry":{"type":"Point","coordinates":[14.499,-22.949]},"properties":{"ptf_id":1099670,"ptf_ref":"GLOSS_314","category":"gloss","ptf_model":"Tide Gauge","country_name":"NAMIBIA","country_ship":null,"country_sensor_provider":null}},{"type":"Feature","geometry":{"type":"Point","coordinates":[-31.075,39.273]},"properties":{"ptf_id":1099887,"ptf_ref":"GLOSS_244","category":"gloss","ptf_model":"Tide Gauge","country_name":"PORTUGAL","country_ship":null,"country_sensor_provider":null}},{"type":"Feature","geometry":{"type":"Point","coordinates":[39.183,-6.15]},"properties":{"ptf_id":1099915,"ptf_ref":"GLOSS_297","category":"gloss","ptf_model":"Tide Gauge","country_name":"TANZANIA","country_ship":null,"country_sensor_provider":null}},{"type":"Feature","geometry":{"type":"Point","coordinates":[144.65,13.433]},"properties":{"ptf_id":1099819,"ptf_ref":"GLOSS_149","category":"gloss","ptf_model":"Tide Gauge","country_name":"USA","country_ship":null,"country_sensor_provider":null}},{"type":"Feature","geometry":{"type":"Point","coordinates":[125.633,7.083]},"properties":{"ptf_id":1099753,"ptf_ref":"GLOSS_71","category":"gloss","ptf_model":"Tide Gauge","country_name":"PHILIPPINES","country_ship":null,"country_sensor_provider":null}},{"type":"Feature","geometry":{"type":"Point","coordinates":[159.067,-31.517]},"properties":{"ptf_id":1099818,"ptf_ref":"GLOSS_148","category":"gloss","ptf_model":"Tide Gauge","country_name":"AUSTRALIA","country_ship":null,"country_sensor_provider":null}},{"type":"Feature","geometry":{"type":"Point","coordinates":[63.417,-19.683]},"properties":{"ptf_id":1099711,"ptf_ref":"GLOSS_19","category":"gloss","ptf_model":"Tide Gauge","country_name":"MAURITIUS","country_ship":null,"country_sensor_provider":null}},{"type":"Feature","geometry":{"type":"Point","coordinates":[70.367,20.9]},"properties":{"ptf_id":1099721,"ptf_ref":"GLOSS_31","category":"gloss","ptf_model":"Tide Gauge","country_name":"INDIA","country_ship":null,"country_sensor_provider":null}},{"type":"Feature","geometry":{"type":"Point","coordinates":[-36.75,-54.25]},"properties":{"ptf_id":1099844,"ptf_ref":"GLOSS_187","category":"gloss","ptf_model":"Tide Gauge","country_name":"UK","country_ship":null,"country_sensor_provider":null}},{"type":"Feature","geometry":{"type":"Point","coordinates":[72.4,-7.283]},"properties":{"ptf_id":1099716,"ptf_ref":"GLOSS_26","category":"gloss","ptf_model":"Tide Gauge","country_name":"USA","country_ship":null,"country_sensor_provider":null}},{"type":"Feature","geometry":{"type":"Point","coordinates":[77.967,-68.45]},"properties":{"ptf_id":1099903,"ptf_ref":"GLOSS_277","category":"gloss","ptf_model":"Tide Gauge","country_name":"AUSTRALIA","country_ship":null,"country_sensor_provider":null}},{"type":"Feature","geometry":{"type":"Point","coordinates":[-68.3,-54.817]},"properties":{"ptf_id":1099842,"ptf_ref":"GLOSS_181","category":"gloss","ptf_model":"Tide Gauge","country_name":"ARGENTINA","country_ship":null,"country_sensor_provider":null}},{"type":"Feature","geometry":{"type":"Point","coordinates":[66.967,24.8]},"properties":{"ptf_id":1099720,"ptf_ref":"GLOSS_30","category":"gloss","ptf_model":"Tide Gauge","country_name":"PAKISTAN","country_ship":null,"country_sensor_provider":null}},{"type":"Feature","geometry":{"type":"Point","coordinates":[-62.317,82.5]},"properties":{"ptf_id":1099683,"ptf_ref":"GLOSS_333","category":"gloss","ptf_model":"Tide Gauge","country_name":null,"country_ship":null,"country_sensor_provider":null}},{"type":"Feature","geometry":{"type":"Point","coordinates":[-71.617,-33.033]},"properties":{"ptf_id":1099838,"ptf_ref":"GLOSS_175","category":"gloss","ptf_model":"Tide Gauge","country_name":"CHILE","country_ship":null,"country_sensor_provider":null}},{"type":"Feature","geometry":{"type":"Point","coordinates":[39.6,-69]},"properties":{"ptf_id":1099775,"ptf_ref":"GLOSS_95","category":"gloss","ptf_model":"Tide Gauge","country_name":"JAPAN","country_ship":null,"country_sensor_provider":null}},{"type":"Feature","geometry":{"type":"Point","coordinates":[-61.7,56.55]},"properties":{"ptf_id":1099873,"ptf_ref":"GLOSS_224","category":"gloss","ptf_model":"Tide Gauge","country_name":"CANADA","country_ship":null,"country_sensor_provider":null}},{"type":"Feature","geometry":{"type":"Point","coordinates":[125.2,1.433]},"properties":{"ptf_id":1099752,"ptf_ref":"GLOSS_69","category":"gloss","ptf_model":"Tide Gauge","country_name":"INDONESIA","country_ship":null,"country_sensor_provider":null}},{"type":"Feature","geometry":{"type":"Point","coordinates":[-140.083,-8.933]},"properties":{"ptf_id":1099813,"ptf_ref":"GLOSS_142","category":"gloss","ptf_model":"Tide Gauge","country_name":null,"country_ship":null,"country_sensor_provider":null}},{"type":"Feature","geometry":{"type":"Point","coordinates":[-21.967,70.483]},"properties":{"ptf_id":1099671,"ptf_ref":"GLOSS_315","category":"gloss","ptf_model":"Tide Gauge","country_name":"DENMARK","country_ship":null,"country_sensor_provider":null}},{"type":"Feature","geometry":{"type":"Point","coordinates":[-124.03,44.38]},"properties":{"ptf_id":1099825,"ptf_ref":"GLOSS_157","category":"gloss","ptf_model":"Tide Gauge","country_name":"USA","country_ship":null,"country_sensor_provider":null}},{"type":"Feature","geometry":{"type":"Point","coordinates":[-68.128,-67.572]},"properties":{"ptf_id":1099692,"ptf_ref":"GLOSS_342","category":"gloss","ptf_model":"Tide Gauge","country_name":null,"country_ship":null,"country_sensor_provider":null}},{"type":"Feature","geometry":{"type":"Point","coordinates":[92.9,20.15]},"properties":{"ptf_id":1099727,"ptf_ref":"GLOSS_37","category":"gloss","ptf_model":"Tide Gauge","country_name":"MYANMAR","country_ship":null,"country_sensor_provider":null}},{"type":"Feature","geometry":{"type":"Point","coordinates":[139.49,34.55]},"properties":{"ptf_id":1099768,"ptf_ref":"GLOSS_86","category":"gloss","ptf_model":"Tide Gauge","country_name":"JAPAN","country_ship":null,"country_sensor_provider":null}},{"type":"Feature","geometry":{"type":"Point","coordinates":[121.683,38.867]},"properties":{"ptf_id":1099761,"ptf_ref":"GLOSS_79","category":"gloss","ptf_model":"Tide Gauge","country_name":"CHINA","country_ship":null,"country_sensor_provider":null}},{"type":"Feature","geometry":{"type":"Point","coordinates":[-78.5,-33.37]},"properties":{"ptf_id":1099839,"ptf_ref":"GLOSS_176","category":"gloss","ptf_model":"Tide Gauge","country_name":"CHILE","country_ship":null,"country_sensor_provider":null}},{"type":"Feature","geometry":{"type":"Point","coordinates":[57.5,-20.15]},"properties":{"ptf_id":1099710,"ptf_ref":"GLOSS_18","category":"gloss","ptf_model":"Tide Gauge","country_name":"MAURITIUS","country_ship":null,"country_sensor_provider":null}},{"type":"Feature","geometry":{"type":"Point","coordinates":[-4.5,48.383]},"properties":{"ptf_id":1099885,"ptf_ref":"GLOSS_242","category":"gloss","ptf_model":"Tide Gauge","country_name":"FRANCE","country_ship":null,"country_sensor_provider":null}},{"type":"Feature","geometry":{"type":"Point","coordinates":[174.46,-36.51]},"properties":{"ptf_id":1099802,"ptf_ref":"GLOSS_127","category":"gloss","ptf_model":"Tide Gauge","country_name":"NEW ZEALAND","country_ship":null,"country_sensor_provider":null}},{"type":"Feature","geometry":{"type":"Point","coordinates":[-47.933,-25.017]},"properties":{"ptf_id":1099850,"ptf_ref":"GLOSS_194","category":"gloss","ptf_model":"Tide Gauge","country_name":"BRAZIL","country_ship":null,"country_sensor_provider":null}},{"type":"Feature","geometry":{"type":"Point","coordinates":[34.883,32.467]},"properties":{"ptf_id":1099762,"ptf_ref":"GLOSS_80","category":"gloss","ptf_model":"Tide Gauge","country_name":"ISRAEL","country_ship":null,"country_sensor_provider":null}},{"type":"Feature","geometry":{"type":"Point","coordinates":[55.527,-4.672]},"properties":{"ptf_id":1099689,"ptf_ref":"GLOSS_339","category":"gloss","ptf_model":"Tide Gauge","country_name":"SEYCHELLES","country_ship":null,"country_sensor_provider":null}},{"type":"Feature","geometry":{"type":"Point","coordinates":[-99.917,16.833]},"properties":{"ptf_id":1099899,"ptf_ref":"GLOSS_267","category":"gloss","ptf_model":"Tide Gauge","country_name":"MEXICO","country_ship":null,"country_sensor_provider":null}},{"type":"Feature","geometry":{"type":"Point","coordinates":[97.617,16.483]},"properties":{"ptf_id":1099812,"ptf_ref":"GLOSS_141","category":"gloss","ptf_model":"Tide Gauge","country_name":"MYANMAR","country_ship":null,"country_sensor_provider":null}},{"type":"Feature","geometry":{"type":"Point","coordinates":[-75.75,36.183]},"properties":{"ptf_id":1099868,"ptf_ref":"GLOSS_219","category":"gloss","ptf_model":"Tide Gauge","country_name":"USA","country_ship":null,"country_sensor_provider":null}},{"type":"Feature","geometry":{"type":"Point","coordinates":[127.667,26.217]},"properties":{"ptf_id":1099763,"ptf_ref":"GLOSS_81","category":"gloss","ptf_model":"Tide Gauge","country_name":"JAPAN","country_ship":null,"country_sensor_provider":null}},{"type":"Feature","geometry":{"type":"Point","coordinates":[-176.633,51.867]},"properties":{"ptf_id":1099665,"ptf_ref":"GLOSS_302","category":"gloss","ptf_model":"Tide Gauge","country_name":"USA","country_ship":null,"country_sensor_provider":null}},{"type":"Feature","geometry":{"type":"Point","coordinates":[80.3,13.1]},"properties":{"ptf_id":1099724,"ptf_ref":"GLOSS_34","category":"gloss","ptf_model":"Tide Gauge","country_name":"INDIA","country_ship":null,"country_sensor_provider":null}},{"type":"Feature","geometry":{"type":"Point","coordinates":[-165.417,64.5]},"properties":{"ptf_id":1099756,"ptf_ref":"GLOSS_74","category":"gloss","ptf_model":"Tide Gauge","country_name":"USA","country_ship":null,"country_sensor_provider":null}},{"type":"Feature","geometry":{"type":"Point","coordinates":[62.333,25.117]},"properties":{"ptf_id":1099914,"ptf_ref":"GLOSS_295","category":"gloss","ptf_model":"Tide Gauge","country_name":"PAKISTAN","country_ship":null,"country_sensor_provider":null}},{"type":"Feature","geometry":{"type":"Point","coordinates":[70.22,-49.345]},"properties":{"ptf_id":1099715,"ptf_ref":"GLOSS_23","category":"gloss","ptf_model":"Tide Gauge","country_name":"FRANCE","country_ship":null,"country_sensor_provider":null}},{"type":"Feature","geometry":{"type":"Point","coordinates":[-61.05,14.583]},"properties":{"ptf_id":1099688,"ptf_ref":"GLOSS_338","category":"gloss","ptf_model":"Tide Gauge","country_name":null,"country_ship":null,"country_sensor_provider":null}},{"type":"Feature","geometry":{"type":"Point","coordinates":[-87.217,30.4]},"properties":{"ptf_id":1099909,"ptf_ref":"GLOSS_288","category":"gloss","ptf_model":"Tide Gauge","country_name":"USA","country_ship":null,"country_sensor_provider":null}},{"type":"Feature","geometry":{"type":"Point","coordinates":[-74.417,39.35]},"properties":{"ptf_id":1099869,"ptf_ref":"GLOSS_220","category":"gloss","ptf_model":"Tide Gauge","country_name":"USA","country_ship":null,"country_sensor_provider":null}},{"type":"Feature","geometry":{"type":"Point","coordinates":[-65.033,-42.767]},"properties":{"ptf_id":1099848,"ptf_ref":"GLOSS_191","category":"gloss","ptf_model":"Tide Gauge","country_name":"ARGENTINA","country_ship":null,"country_sensor_provider":null}},{"type":"Feature","geometry":{"type":"Point","coordinates":[100.617,4.233]},"properties":{"ptf_id":1099732,"ptf_ref":"GLOSS_43","category":"gloss","ptf_model":"Tide Gauge","country_name":"MALAYSIA","country_ship":null,"country_sensor_provider":null}},{"type":"Feature","geometry":{"type":"Point","coordinates":[7.567,58]},"properties":{"ptf_id":1099672,"ptf_ref":"GLOSS_321","category":"gloss","ptf_model":"Tide Gauge","country_name":"NORWAY","country_ship":null,"country_sensor_provider":null}},{"type":"Feature","geometry":{"type":"Point","coordinates":[55.3,-20.933]},"properties":{"ptf_id":1099709,"ptf_ref":"GLOSS_17","category":"gloss","ptf_model":"Tide Gauge","country_name":"FRANCE","country_ship":null,"country_sensor_provider":null}},{"type":"Feature","geometry":{"type":"Point","coordinates":[158.933,-54.5]},"properties":{"ptf_id":1099805,"ptf_ref":"GLOSS_130","category":"gloss","ptf_model":"Tide Gauge","country_name":"AUSTRALIA","country_ship":null,"country_sensor_provider":null}},{"type":"Feature","geometry":{"type":"Point","coordinates":[16.09,69.19]},"properties":{"ptf_id":1099673,"ptf_ref":"GLOSS_322","category":"gloss","ptf_model":"Tide Gauge","country_name":"NORWAY","country_ship":null,"country_sensor_provider":null}},{"type":"Feature","geometry":{"type":"Point","coordinates":[-159.767,-21.2]},"properties":{"ptf_id":1099810,"ptf_ref":"GLOSS_139","category":"gloss","ptf_model":"Tide Gauge","country_name":"AUSTRALIA","country_ship":null,"country_sensor_provider":null}},{"type":"Feature","geometry":{"type":"Point","coordinates":[11.833,-4.783]},"properties":{"ptf_id":1099895,"ptf_ref":"GLOSS_261","category":"gloss","ptf_model":"Tide Gauge","country_name":"CONGO","country_ship":null,"country_sensor_provider":null}},{"type":"Feature","geometry":{"type":"Point","coordinates":[179.217,-8.383]},"properties":{"ptf_id":1099797,"ptf_ref":"GLOSS_121","category":"gloss","ptf_model":"Tide Gauge","country_name":"AUSTRALIA","country_ship":null,"country_sensor_provider":null}},{"type":"Feature","geometry":{"type":"Point","coordinates":[-9.25,38.417]},"properties":{"ptf_id":1099889,"ptf_ref":"GLOSS_246","category":"gloss","ptf_model":"Tide Gauge","country_name":"PORTUGAL","country_ship":null,"country_sensor_provider":null}},{"type":"Feature","geometry":{"type":"Point","coordinates":[-76.133,21.117]},"properties":{"ptf_id":1099902,"ptf_ref":"GLOSS_276","category":"gloss","ptf_model":"Tide Gauge","country_name":"CUBA","country_ship":null,"country_sensor_provider":null}},{"type":"Feature","geometry":{"type":"Point","coordinates":[-94.8,29.317]},"properties":{"ptf_id":1099867,"ptf_ref":"GLOSS_217","category":"gloss","ptf_model":"Tide Gauge","country_name":"USA","country_ship":null,"country_sensor_provider":null}},{"type":"Feature","geometry":{"type":"Point","coordinates":[131.25,31.35]},"properties":{"ptf_id":1099764,"ptf_ref":"GLOSS_82","category":"gloss","ptf_model":"Tide Gauge","country_name":"JAPAN","country_ship":null,"country_sensor_provider":null}},{"type":"Feature","geometry":{"type":"Point","coordinates":[144.283,44.017]},"properties":{"ptf_id":1099678,"ptf_ref":"GLOSS_327","category":"gloss","ptf_model":"Tide Gauge","country_name":"JAPAN","country_ship":null,"country_sensor_provider":null}},{"type":"Feature","geometry":{"type":"Point","coordinates":[-66.117,18.467]},"properties":{"ptf_id":1099856,"ptf_ref":"GLOSS_206","category":"gloss","ptf_model":"Tide Gauge","country_name":"USA","country_ship":null,"country_sensor_provider":null}},{"type":"Feature","geometry":{"type":"Point","coordinates":[153.167,-27.367]},"properties":{"ptf_id":1099745,"ptf_ref":"GLOSS_58","category":"gloss","ptf_model":"Tide Gauge","country_name":"AUSTRALIA","country_ship":null,"country_sensor_provider":null}},{"type":"Feature","geometry":{"type":"Point","coordinates":[-109.45,-27.15]},"properties":{"ptf_id":1099808,"ptf_ref":"GLOSS_137","category":"gloss","ptf_model":"Tide Gauge","country_name":"CHILE","country_ship":null,"country_sensor_provider":null}},{"type":"Feature","geometry":{"type":"Point","coordinates":[147.367,-2.033]},"properties":{"ptf_id":1099681,"ptf_ref":"GLOSS_331","category":"gloss","ptf_model":"Tide Gauge","country_name":"PNG","country_ship":null,"country_sensor_provider":null}},{"type":"Feature","geometry":{"type":"Point","coordinates":[-158.067,-8.59]},"properties":{"ptf_id":1099814,"ptf_ref":"GLOSS_143","category":"gloss","ptf_model":"Tide Gauge","country_name":"USA","country_ship":null,"country_sensor_provider":null}},{"type":"Feature","geometry":{"type":"Point","coordinates":[146.833,-19.25]},"properties":{"ptf_id":1099747,"ptf_ref":"GLOSS_60","category":"gloss","ptf_model":"Tide Gauge","country_name":"AUSTRALIA","country_ship":null,"country_sensor_provider":null}},{"type":"Feature","geometry":{"type":"Point","coordinates":[-57.933,-51.75]},"properties":{"ptf_id":1099666,"ptf_ref":"GLOSS_305","category":"gloss","ptf_model":"Tide Gauge","country_name":"UK","country_ship":null,"country_sensor_provider":null}},{"type":"Feature","geometry":{"type":"Point","coordinates":[142.183,27.083]},"properties":{"ptf_id":1099781,"ptf_ref":"GLOSS_103","category":"gloss","ptf_model":"Tide Gauge","country_name":"JAPAN","country_ship":null,"country_sensor_provider":null}},{"type":"Feature","geometry":{"type":"Point","coordinates":[128.2,-3.7]},"properties":{"ptf_id":1099751,"ptf_ref":"GLOSS_68","category":"gloss","ptf_model":"Tide Gauge","country_name":"INDONESIA","country_ship":null,"country_sensor_provider":null}},{"type":"Feature","geometry":{"type":"Point","coordinates":[115.2,-8.733]},"properties":{"ptf_id":1099737,"ptf_ref":"GLOSS_49","category":"gloss","ptf_model":"Tide Gauge","country_name":"INDONESIA","country_ship":null,"country_sensor_provider":null}},{"type":"Feature","geometry":{"type":"Point","coordinates":[54,17]},"properties":{"ptf_id":1099704,"ptf_ref":"GLOSS_4","category":"gloss","ptf_model":"Tide Gauge","country_name":"OMAN","country_ship":null,"country_sensor_provider":null}},{"type":"Feature","geometry":{"type":"Point","coordinates":[33.05,68.967]},"properties":{"ptf_id":1099901,"ptf_ref":"GLOSS_274","category":"gloss","ptf_model":"Tide Gauge","country_name":"RUSSIA","country_ship":null,"country_sensor_provider":null}},{"type":"Feature","geometry":{"type":"Point","coordinates":[141.683,45.417]},"properties":{"ptf_id":1099675,"ptf_ref":"GLOSS_324","category":"gloss","ptf_model":"Tide Gauge","country_name":"JAPAN","country_ship":null,"country_sensor_provider":null}},{"type":"Feature","geometry":{"type":"Point","coordinates":[-56.9167,-63.3]},"properties":{"ptf_id":1123138,"ptf_ref":"GLOSS_185","category":"gloss","ptf_model":"Tide Gauge","country_name":"ARGENTINA","country_ship":null,"country_sensor_provider":null}},{"type":"Feature","geometry":{"type":"Point","coordinates":[98.433,7.833]},"properties":{"ptf_id":1099731,"ptf_ref":"GLOSS_42","category":"gloss","ptf_model":"Tide Gauge","country_name":"THAILAND","country_ship":null,"country_sensor_provider":null}},{"type":"Feature","geometry":{"type":"Point","coordinates":[-76.85,17.933]},"properties":{"ptf_id":1099860,"ptf_ref":"GLOSS_210","category":"gloss","ptf_model":"Tide Gauge","country_name":"JAMAICA","country_ship":null,"country_sensor_provider":null}},{"type":"Feature","geometry":{"type":"Point","coordinates":[37.867,-46.867]},"properties":{"ptf_id":1099712,"ptf_ref":"GLOSS_20","category":"gloss","ptf_model":"Tide Gauge","country_name":"SOUTH AFRICA","country_ship":null,"country_sensor_provider":null}},{"type":"Feature","geometry":{"type":"Point","coordinates":[-155.067,19.733]},"properties":{"ptf_id":1099908,"ptf_ref":"GLOSS_287","category":"gloss","ptf_model":"Tide Gauge","country_name":"USA","country_ship":null,"country_sensor_provider":null}},{"type":"Feature","geometry":{"type":"Point","coordinates":[11.25,64.867]},"properties":{"ptf_id":1099879,"ptf_ref":"GLOSS_234","category":"gloss","ptf_model":"Tide Gauge","country_name":"NORWAY","country_ship":null,"country_sensor_provider":null}},{"type":"Feature","geometry":{"type":"Point","coordinates":[-78.983,26.717]},"properties":{"ptf_id":1099861,"ptf_ref":"GLOSS_211","category":"gloss","ptf_model":"Tide Gauge","country_name":"USA","country_ship":null,"country_sensor_provider":null}},{"type":"Feature","geometry":{"type":"Point","coordinates":[105.667,-10.417]},"properties":{"ptf_id":1099736,"ptf_ref":"GLOSS_47","category":"gloss","ptf_model":"Tide Gauge","country_name":"AUSTRALIA","country_ship":null,"country_sensor_provider":null}}]}
