{"type":"FeatureCollection","features":[{"type":"Feature","geometry":{"type":"LineString","coordinates":[[143,40],[170,40]]},"properties":{"line_id":1000138,"category":"goship","line_name":"40N","line_style":"dash","edition_status":"Not sampled since 2023","last_cruise_by":"Japan","last_cruise_ref":"7FUDN7OUSQ","last_cruise_date":"2019-07-12","last_cruise_ship":"","sampled_in_edition":false,"last_cruise_country":"Japan","last_cruise_display":"2019-07-12 (7FUDN7OUSQ)","edition_country_codes":"","last_cruise_countries":"Japan"}},{"type":"Feature","geometry":{"type":"LineString","coordinates":[[-51,47],[-47,44],[-11,51]]},"properties":{"line_id":1000086,"category":"goship","line_name":"A02","line_style":"dash","edition_status":"Not sampled since 2023","last_cruise_by":"Ireland","last_cruise_ref":"6AMF3ZNC9V","last_cruise_date":"2027-05-01","last_cruise_ship":"","sampled_in_edition":false,"last_cruise_country":"Ireland","last_cruise_display":"2027-05-01 (6AMF3ZNC9V)","edition_country_codes":"","last_cruise_countries":"Ireland"}},{"type":"Feature","geometry":{"type":"LineString","coordinates":[[-16,26],[-74,26]]},"properties":{"line_id":1000087,"category":"goship","line_name":"A05","line_style":"dash","edition_status":"Not sampled since 2023","last_cruise_by":"United Kingdom","last_cruise_ref":"BFPOD8M6EY","last_cruise_date":"2030-01-01","last_cruise_ship":"","sampled_in_edition":false,"last_cruise_country":"United Kingdom","last_cruise_display":"2030-01-01 (BFPOD8M6EY)","edition_country_codes":"","last_cruise_countries":"United Kingdom"}},{"type":"Feature","geometry":{"type":"LineString","coordinates":[[15,-30],[-44,-30],[-47,-26]]},"properties":{"line_id":1000105,"category":"goship","line_name":"A10","line_style":"dash","edition_status":"Sampled 2023–2024","last_cruise_by":"United Kingdom","last_cruise_ref":"5WMETYLDJD","last_cruise_date":"2028-01-01","last_cruise_ship":"","sampled_in_edition":false,"last_cruise_country":"United Kingdom","last_cruise_display":"2028-01-01 (5WMETYLDJD)","edition_country_codes":"","last_cruise_countries":"United Kingdom"}},{"type":"Feature","geometry":{"type":"LineString","coordinates":[[17.21893074,-35.14792812],[2.84023287,-39.9408274],[2.84023287,-67.10059004]]},"properties":{"line_id":1000121,"category":"goship","line_name":"A12","line_style":"solid","edition_status":"Sampled since 2025","last_cruise_by":"Germany","last_cruise_ref":"WCOCO1E79N","last_cruise_date":"2025-12-01","last_cruise_ship":"POLARSTERN","sampled_in_edition":true,"last_cruise_country":"Germany","last_cruise_display":"2025-12-01 (POLARSTERN)","edition_country_codes":"DE","last_cruise_countries":"Germany"}},{"type":"Feature","geometry":{"type":"LineString","coordinates":[[0,-68],[0,-3],[-6,4]]},"properties":{"line_id":1000098,"category":"goship","line_name":"A13.5","line_style":"dash","edition_status":"Sampled 2023–2024","last_cruise_by":"United States","last_cruise_ref":"W7OCIHVRTT","last_cruise_date":"2024-01-01","last_cruise_ship":"MARCUS G. LANGSETH","sampled_in_edition":false,"last_cruise_country":"United States","last_cruise_display":"2024-01-01 (MARCUS G. LANGSETH)","edition_country_codes":"","last_cruise_countries":"United States"}},{"type":"Feature","geometry":{"type":"LineString","coordinates":[[-25.10950123,0.22468147],[-25.10950123,4.5406967],[-30.14485233,12.93294853],[-30.14485233,20.36608587],[-18.63547838,33.55391018],[-18.63547838,62.32734505]]},"properties":{"line_id":1000096,"category":"goship","line_name":"A16N","line_style":"dash","edition_status":"Sampled 2023–2024","last_cruise_by":"United States","last_cruise_ref":"7CQ8EYGU0W","last_cruise_date":"2023-04-13","last_cruise_ship":"RONALD H. BROWN","sampled_in_edition":false,"last_cruise_country":"United States","last_cruise_display":"2023-04-13 (RONALD H. BROWN)","edition_country_codes":"","last_cruise_countries":"United States"}},{"type":"Feature","geometry":{"type":"LineString","coordinates":[[-35,-60],[-35,-55],[-25,-36],[-25,0]]},"properties":{"line_id":1000137,"category":"goship","line_name":"A16S","line_style":"solid","edition_status":"Sampled since 2025","last_cruise_by":"United States","last_cruise_ref":"5J14URRHEC","last_cruise_date":"2026-01-01","last_cruise_ship":"RONALD H. BROWN","sampled_in_edition":true,"last_cruise_country":"United States","last_cruise_display":"2026-01-01 (RONALD H. BROWN)","edition_country_codes":"US","last_cruise_countries":"United States"}},{"type":"Feature","geometry":{"type":"LineString","coordinates":[[-60,-50],[-24,-10],[-24,36],[-11,36]]},"properties":{"line_id":1000141,"category":"goship","line_name":"A17","line_style":"dash","edition_status":"Not sampled since 2023","last_cruise_by":"Spain","last_cruise_ref":"QLSAT04QPV","last_cruise_date":"2019-04-05","last_cruise_ship":"HESPERIDES","sampled_in_edition":false,"last_cruise_country":"Spain","last_cruise_display":"2019-04-05 (HESPERIDES)","edition_country_codes":"","last_cruise_countries":"Spain"}},{"type":"Feature","geometry":{"type":"LineString","coordinates":[[-51.72492848,6.21914706],[-51.72492848,40.7472689],[-48.84758499,43.38483376]]},"properties":{"line_id":1000093,"category":"goship","line_name":"A20","line_style":"dash","edition_status":"Not sampled since 2023","last_cruise_by":"United States","last_cruise_ref":"53Q0TKGOFD","last_cruise_date":"2021-03-01","last_cruise_ship":"THOMAS G. THOMPSON","sampled_in_edition":false,"last_cruise_country":"United States","last_cruise_display":"2021-03-01 (THOMAS G. THOMPSON)","edition_country_codes":"","last_cruise_countries":"United States"}},{"type":"Feature","geometry":{"type":"LineString","coordinates":[[-64,12],[-64,39],[-68,43]]},"properties":{"line_id":1000088,"category":"goship","line_name":"A22","line_style":"dash","edition_status":"Not sampled since 2023","last_cruise_by":"United States","last_cruise_ref":"53Q0TKGOFD","last_cruise_date":"2021-03-01","last_cruise_ship":"THOMAS G. THOMPSON","sampled_in_edition":false,"last_cruise_country":"United States","last_cruise_display":"2021-03-01 (THOMAS G. THOMPSON)","edition_country_codes":"","last_cruise_countries":"United States"}},{"type":"Feature","geometry":{"type":"LineString","coordinates":[[-35.15235744,-76.45429172],[-35.4847674,-61.49584334]]},"properties":{"line_id":1000135,"category":"goship","line_name":"A23","line_style":"solid","edition_status":"Sampled since 2025","last_cruise_by":"United Kingdom","last_cruise_ref":"1IFBWFR65O","last_cruise_date":"2025-01-01","last_cruise_ship":"","sampled_in_edition":true,"last_cruise_country":"United Kingdom","last_cruise_display":"2025-01-01 (1IFBWFR65O)","edition_country_codes":"GB","last_cruise_countries":"United Kingdom"}},{"type":"Feature","geometry":{"type":"LineString","coordinates":[[-41,61],[-33,59],[-16,41],[-10,41]]},"properties":{"line_id":1000094,"category":"goship","line_name":"A25","line_style":"solid","edition_status":"Sampled since 2025","last_cruise_by":"France","last_cruise_ref":"MQA5V4ZTKK","last_cruise_date":"2025-03-12","last_cruise_ship":"THALASSA","sampled_in_edition":true,"last_cruise_country":"France","last_cruise_display":"2025-03-12 (THALASSA)","edition_country_codes":"FR","last_cruise_countries":"France"}},{"type":"Feature","geometry":{"type":"LineString","coordinates":[[14,76],[-16,78]]},"properties":{"line_id":1000107,"category":"goship","line_name":"A29","line_style":"solid","edition_status":"Sampled since 2025","last_cruise_by":"Norway","last_cruise_ref":"DISWJXS6FU","last_cruise_date":"2026-01-01","last_cruise_ship":"","sampled_in_edition":true,"last_cruise_country":"Norway","last_cruise_display":"2026-01-01 (DISWJXS6FU)","edition_country_codes":"NO","last_cruise_countries":"Norway"}},{"type":"Feature","geometry":{"type":"LineString","coordinates":[[-41,60],[-32,57],[-11,53]]},"properties":{"line_id":1000095,"category":"goship","line_name":"AR07E","line_style":"solid","edition_status":"Sampled since 2025","last_cruise_by":"United Kingdom","last_cruise_ref":"ITZOOCYGXV","last_cruise_date":"2025-06-01","last_cruise_ship":"","sampled_in_edition":true,"last_cruise_country":"United Kingdom","last_cruise_display":"2025-06-01 (ITZOOCYGXV)","edition_country_codes":"GB","last_cruise_countries":"United Kingdom"}},{"type":"Feature","geometry":{"type":"LineString","coordinates":[[-56,54],[-48,60]]},"properties":{"line_id":1000097,"category":"goship","line_name":"AR07W","line_style":"dash","edition_status":"Sampled 2023–2024","last_cruise_by":"Canada","last_cruise_ref":"K2D8G2ELAP","last_cruise_date":"2024-05-01","last_cruise_ship":"","sampled_in_edition":false,"last_cruise_country":"Canada","last_cruise_display":"2024-05-01 (K2D8G2ELAP)","edition_country_codes":"","last_cruise_countries":"Canada"}},{"type":"Feature","geometry":{"type":"LineString","coordinates":[[-7.45291836,56.26008828],[-12.94170746,56.09865331],[-15.52466703,58.84304786],[-16.17040693,62.8789222]]},"properties":{"line_id":1000106,"category":"goship","line_name":"AR28","line_style":"dash","edition_status":"Sampled 2023–2024","last_cruise_by":"United Kingdom","last_cruise_ref":"ZQA9AM0R2L","last_cruise_date":"2024-01-01","last_cruise_ship":"","sampled_in_edition":false,"last_cruise_country":"United Kingdom","last_cruise_display":"2024-01-01 (ZQA9AM0R2L)","edition_country_codes":"","last_cruise_countries":"United Kingdom"}},{"type":"Feature","geometry":{"type":"LineString","coordinates":[[19,81],[16,83],[0,86],[-45,87],[-90,85],[-125,80],[-161,72]]},"properties":{"line_id":1000099,"category":"goship","line_name":"ARC01","line_style":"solid","edition_status":"Sampled since 2025","last_cruise_by":"United States","last_cruise_ref":"SHYNTXR0IA","last_cruise_date":"2025-04-01","last_cruise_ship":"","sampled_in_edition":true,"last_cruise_country":"United States","last_cruise_display":"2025-04-01 (SHYNTXR0IA)","edition_country_codes":"US","last_cruise_countries":"United States"}},{"type":"Feature","geometry":{"type":"LineString","coordinates":[[-139.63257225,72.66136859],[-139.63257225,85.71002765]]},"properties":{"line_id":1000120,"category":"goship","line_name":"ARC02","line_style":"dash","edition_status":"Sampled 2023–2024","last_cruise_by":"Canada","last_cruise_ref":"KKDD9AJUHL","last_cruise_date":"2023-09-14","last_cruise_ship":"","sampled_in_edition":false,"last_cruise_country":"Canada","last_cruise_display":"2023-09-14 (KKDD9AJUHL)","edition_country_codes":"","last_cruise_countries":"Canada"}},{"type":"Feature","geometry":{"type":"LineString","coordinates":[[-55,68],[-63,61]]},"properties":{"line_id":1000140,"category":"goship","line_name":"Davis","line_style":"dash","edition_status":"Sampled 2023–2024","last_cruise_by":"Canada","last_cruise_ref":"1TWG3RZ0LM","last_cruise_date":"2024-01-01","last_cruise_ship":"","sampled_in_edition":false,"last_cruise_country":"Canada","last_cruise_display":"2024-01-01 (1TWG3RZ0LM)","edition_country_codes":"","last_cruise_countries":"Canada"}},{"type":"Feature","geometry":{"type":"LineString","coordinates":[[97,11],[81,11]]},"properties":{"line_id":1000083,"category":"goship","line_name":"I01E","line_style":"dash","edition_status":"Not sampled since 2023","last_cruise_by":"Unknown","last_cruise_ref":"96G32N27TN","last_cruise_date":"1995-09-30","last_cruise_ship":"KNORR","sampled_in_edition":false,"last_cruise_country":"","last_cruise_display":"1995-09-30 (KNORR)","edition_country_codes":"","last_cruise_countries":""}},{"type":"Feature","geometry":{"type":"LineString","coordinates":[[74,11],[52,11]]},"properties":{"line_id":1000116,"category":"goship","line_name":"I01W","line_style":"dash","edition_status":"Not sampled since 2023","last_cruise_by":"Unknown","last_cruise_ref":"ABT0QA8TAL","last_cruise_date":"1995-08-29","last_cruise_ship":"KNORR","sampled_in_edition":false,"last_cruise_country":"","last_cruise_display":"1995-08-29 (KNORR)","edition_country_codes":"","last_cruise_countries":""}},{"type":"Feature","geometry":{"type":"LineString","coordinates":[[51,-18],[112,-18],[115,-21]]},"properties":{"line_id":1000113,"category":"goship","line_name":"I03","line_style":"dash","edition_status":"Not sampled since 2023","last_cruise_by":"Japan","last_cruise_ref":"O4Z8LJ34CW","last_cruise_date":"2003-12-09","last_cruise_ship":"MIRAI","sampled_in_edition":false,"last_cruise_country":"Japan","last_cruise_display":"2003-12-09 (MIRAI)","edition_country_codes":"","last_cruise_countries":"Japan"}},{"type":"Feature","geometry":{"type":"LineString","coordinates":[[114,-30],[87,-23],[80,-28],[33,-28]]},"properties":{"line_id":1000084,"category":"goship","line_name":"I05","line_style":"dash","edition_status":"Sampled 2023–2024","last_cruise_by":"United States","last_cruise_ref":"97PPEPRPRS","last_cruise_date":"2023-07-01","last_cruise_ship":"ROGER REVELLE","sampled_in_edition":false,"last_cruise_country":"United States","last_cruise_display":"2023-07-01 (ROGER REVELLE)","edition_country_codes":"","last_cruise_countries":"United States"}},{"type":"Feature","geometry":{"type":"LineString","coordinates":[[26,-68],[26,-35]]},"properties":{"line_id":1000132,"category":"goship","line_name":"I06S","line_style":"dash","edition_status":"Not sampled since 2023","last_cruise_by":"United States","last_cruise_ref":"PZI6ELNVHO","last_cruise_date":"2019-04-03","last_cruise_ship":"THOMAS G. THOMPSON","sampled_in_edition":false,"last_cruise_country":"United States","last_cruise_display":"2019-04-03 (THOMAS G. THOMPSON)","edition_country_codes":"","last_cruise_countries":"United States"}},{"type":"Feature","geometry":{"type":"LineString","coordinates":[[53,-30],[53,-13],[51,-10],[63,9],[63,17],[59,20]]},"properties":{"line_id":1000115,"category":"goship","line_name":"I07N","line_style":"dash","edition_status":"Not sampled since 2023","last_cruise_by":"United States","last_cruise_ref":"Y34ZBLJUZZ","last_cruise_date":"2018-04-23","last_cruise_ship":"RONALD H. BROWN","sampled_in_edition":false,"last_cruise_country":"United States","last_cruise_display":"2018-04-23 (RONALD H. BROWN)","edition_country_codes":"","last_cruise_countries":"United States"}},{"type":"Feature","geometry":{"type":"LineString","coordinates":[[53.13253403,-60.72289005],[53,-30]]},"properties":{"line_id":1000127,"category":"goship","line_name":"I07S","line_style":"dash","edition_status":"Not sampled since 2023","last_cruise_by":"Japan","last_cruise_ref":"9Z979C9I1R","last_cruise_date":"2019-12-26","last_cruise_ship":"MIRAI","sampled_in_edition":false,"last_cruise_country":"Japan","last_cruise_display":"2019-12-26 (MIRAI)","edition_country_codes":"","last_cruise_countries":"Japan"}},{"type":"Feature","geometry":{"type":"LineString","coordinates":[[79.09091236,-30.57416192],[79.09091236,4.73684199]]},"properties":{"line_id":1000089,"category":"goship","line_name":"I08N","line_style":"dash","edition_status":"Not sampled since 2023","last_cruise_by":"Japan","last_cruise_ref":"9Z979C9I1R","last_cruise_date":"2019-12-26","last_cruise_ship":"MIRAI","sampled_in_edition":false,"last_cruise_country":"Japan","last_cruise_display":"2019-12-26 (MIRAI)","edition_country_codes":"","last_cruise_countries":"Japan"}},{"type":"Feature","geometry":{"type":"LineString","coordinates":[[95,-30],[95,-45],[82,-57],[82,-63],[84,-65]]},"properties":{"line_id":1000118,"category":"goship","line_name":"I08S","line_style":"dash","edition_status":"Sampled 2023–2024","last_cruise_by":"United States","last_cruise_ref":"A4UNBBYGVV","last_cruise_date":"2024-01-01","last_cruise_ship":"","sampled_in_edition":false,"last_cruise_country":"United States","last_cruise_display":"2024-01-01 (A4UNBBYGVV)","edition_country_codes":"","last_cruise_countries":"United States"}},{"type":"Feature","geometry":{"type":"LineString","coordinates":[[95,-30],[95,-4],[91,5],[86,10],[90,16],[89,20]]},"properties":{"line_id":1000117,"category":"goship","line_name":"I09N","line_style":"solid","edition_status":"Sampled since 2025","last_cruise_by":"United States","last_cruise_ref":"WH8ZQB55DP","last_cruise_date":"2025-01-01","last_cruise_ship":"","sampled_in_edition":true,"last_cruise_country":"United States","last_cruise_display":"2025-01-01 (WH8ZQB55DP)","edition_country_codes":"US","last_cruise_countries":"United States"}},{"type":"Feature","geometry":{"type":"LineString","coordinates":[[117,-36],[117,-61],[112,-65]]},"properties":{"line_id":1000112,"category":"goship","line_name":"I09S","line_style":"dash","edition_status":"Sampled 2023–2024","last_cruise_by":"Australia","last_cruise_ref":"VTN2WZAF1H","last_cruise_date":"2024-01-01","last_cruise_ship":"INVESTIGATOR","sampled_in_edition":false,"last_cruise_country":"Australia","last_cruise_display":"2024-01-01 (INVESTIGATOR)","edition_country_codes":"","last_cruise_countries":"Australia"}},{"type":"Feature","geometry":{"type":"LineString","coordinates":[[115,-20],[108,-8]]},"properties":{"line_id":1000119,"category":"goship","line_name":"I10","line_style":"dash","edition_status":"Not sampled since 2023","last_cruise_by":"Japan","last_cruise_ref":"JJ3JTYQHCI","last_cruise_date":"2015-12-23","last_cruise_ship":"MIRAI","sampled_in_edition":false,"last_cruise_country":"Japan","last_cruise_display":"2015-12-23 (MIRAI)","edition_country_codes":"","last_cruise_countries":"Japan"}},{"type":"Feature","geometry":{"type":"LineString","coordinates":[[35.38599641,34.09335727],[26.93814921,33.2185737],[16.89737054,35.22672943],[10.66825375,38.12649069],[3.3651513,38.12649069],[-1.46778414,36.19331652],[-4.58234253,35.97851939]]},"properties":{"line_id":1000123,"category":"goship","line_name":"MED01","line_style":"solid","edition_status":"Sampled since 2025","last_cruise_by":"Germany","last_cruise_ref":"6VG78H0O3V","last_cruise_date":"2025-01-01","last_cruise_ship":"","sampled_in_edition":true,"last_cruise_country":"Germany","last_cruise_display":"2025-01-01 (6VG78H0O3V)","edition_country_codes":"DE","last_cruise_countries":"Germany"}},{"type":"Feature","geometry":{"type":"MultiLineString","coordinates":[[[-130,50],[-180,50]],[[180,50],[161,50],[153,41],[147,42]]]},"properties":{"line_id":1000102,"category":"goship","line_name":"P01","line_style":"dash","edition_status":"Not sampled since 2023","last_cruise_by":"Japan","last_cruise_ref":"BNNBBMZQIN","last_cruise_date":"2021-07-12","last_cruise_ship":"MIRAI","sampled_in_edition":false,"last_cruise_country":"Japan","last_cruise_display":"2021-07-12 (MIRAI)","edition_country_codes":"","last_cruise_countries":"Japan"}},{"type":"Feature","geometry":{"type":"MultiLineString","coordinates":[[[139,33],[143.68421218,30]],[[143.68421218,30],[180,30]],[[-180,30],[-119,30]]]},"properties":{"line_id":1000090,"category":"goship","line_name":"P02","line_style":"dash","edition_status":"Not sampled since 2023","last_cruise_by":"United States","last_cruise_ref":"EXFLLLK5GL","last_cruise_date":"2022-06-01","last_cruise_ship":"ROGER REVELLE","sampled_in_edition":false,"last_cruise_country":"United States","last_cruise_display":"2022-06-01 (ROGER REVELLE)","edition_country_codes":"","last_cruise_countries":"United States"}},{"type":"Feature","geometry":{"type":"LineString","coordinates":[[-180,24],[-113,24]]},"properties":{"line_id":1000103,"category":"goship","line_name":"P03E","line_style":"dash","edition_status":"Not sampled since 2023","last_cruise_by":"Japan","last_cruise_ref":"OLQGD94GBD","last_cruise_date":"2006-01-20","last_cruise_ship":"MIRAI","sampled_in_edition":false,"last_cruise_country":"Japan","last_cruise_display":"2006-01-20 (MIRAI)","edition_country_codes":"","last_cruise_countries":"Japan"}},{"type":"Feature","geometry":{"type":"LineString","coordinates":[[180,24],[143,24],[139,33]]},"properties":{"line_id":1000322,"category":"goship","line_name":"P03W","line_style":"dash","edition_status":"Not sampled since 2023","last_cruise_by":"Japan","last_cruise_ref":"O4O0R2KHFV","last_cruise_date":"2021-08-15","last_cruise_ship":"","sampled_in_edition":false,"last_cruise_country":"Japan","last_cruise_display":"2021-08-15 (O4O0R2KHFV)","edition_country_codes":"","last_cruise_countries":"Japan"}},{"type":"Feature","geometry":{"type":"MultiLineString","coordinates":[[[-88,11],[-180,11]],[[180,11],[165,11]]]},"properties":{"line_id":1000139,"category":"goship","line_name":"P04E","line_style":"solid","edition_status":"Sampled since 2025","last_cruise_by":"United States","last_cruise_ref":"0B0J0GCI4V","last_cruise_date":"2025-01-01","last_cruise_ship":"","sampled_in_edition":true,"last_cruise_country":"United States","last_cruise_display":"2025-01-01 (0B0J0GCI4V)","edition_country_codes":"US","last_cruise_countries":"United States"}},{"type":"Feature","geometry":{"type":"LineString","coordinates":[[165,11],[127,11]]},"properties":{"line_id":1000114,"category":"goship","line_name":"P04W","line_style":"solid","edition_status":"Sampled since 2025","last_cruise_by":"Japan","last_cruise_ref":"Z871CVPCUZ","last_cruise_date":"2025-01-01","last_cruise_ship":"","sampled_in_edition":true,"last_cruise_country":"Japan","last_cruise_display":"2025-01-01 (Z871CVPCUZ)","edition_country_codes":"JP","last_cruise_countries":"Japan"}},{"type":"Feature","geometry":{"type":"MultiLineString","coordinates":[[[-73,-30],[-180,-30]],[[180,-30],[175,-25],[155,-25]]]},"properties":{"line_id":1000081,"category":"goship","line_name":"P06","line_style":"dash","edition_status":"Not sampled since 2023","last_cruise_by":"United States","last_cruise_ref":"WLCI1GO40J","last_cruise_date":"2027-01-01","last_cruise_ship":"","sampled_in_edition":false,"last_cruise_country":"United States","last_cruise_display":"2027-01-01 (WLCI1GO40J)","edition_country_codes":"","last_cruise_countries":"United States"}},{"type":"Feature","geometry":{"type":"LineString","coordinates":[[143,-1],[143,1],[138,2],[138,33]]},"properties":{"line_id":1000111,"category":"goship","line_name":"P09","line_style":"dash","edition_status":"Not sampled since 2023","last_cruise_by":"Japan","last_cruise_ref":"SQRTNW5JUF","last_cruise_date":"2028-01-01","last_cruise_ship":"","sampled_in_edition":false,"last_cruise_country":"Japan","last_cruise_display":"2028-01-01 (SQRTNW5JUF)","edition_country_codes":"","last_cruise_countries":"Japan"}},{"type":"Feature","geometry":{"type":"LineString","coordinates":[[142,36],[148,32],[148,0],[145,-2]]},"properties":{"line_id":1000082,"category":"goship","line_name":"P10","line_style":"dash","edition_status":"Not sampled since 2023","last_cruise_by":"Japan","last_cruise_ref":"QY46M9SDFN","last_cruise_date":"2014-07-17","last_cruise_ship":"MIRAI","sampled_in_edition":false,"last_cruise_country":"Japan","last_cruise_display":"2014-07-17 (MIRAI)","edition_country_codes":"","last_cruise_countries":"Japan"}},{"type":"Feature","geometry":{"type":"LineString","coordinates":[[159,52],[163,46],[163,-15]]},"properties":{"line_id":1000110,"category":"goship","line_name":"P13","line_style":"dash","edition_status":"Not sampled since 2023","last_cruise_by":"Japan","last_cruise_ref":"B36OVG4ESS","last_cruise_date":"2028-01-01","last_cruise_ship":"","sampled_in_edition":false,"last_cruise_country":"Japan","last_cruise_display":"2028-01-01 (B36OVG4ESS)","edition_country_codes":"","last_cruise_countries":"Japan"}},{"type":"Feature","geometry":{"type":"LineString","coordinates":[[-179,0],[-179,50],[-174,60]]},"properties":{"line_id":1000108,"category":"goship","line_name":"P14N","line_style":"dash","edition_status":"Sampled 2023–2024","last_cruise_by":"Japan","last_cruise_ref":"8D58FLQZOB","last_cruise_date":"2023-10-06","last_cruise_ship":"MIRAI","sampled_in_edition":false,"last_cruise_country":"Japan","last_cruise_display":"2023-10-06 (MIRAI)","edition_country_codes":"","last_cruise_countries":"Japan"}},{"type":"Feature","geometry":{"type":"LineString","coordinates":[[174.26592887,-67.81163266],[174.26592887,-44.54293518]]},"properties":{"line_id":1000134,"category":"goship","line_name":"P14S","line_style":"dash","edition_status":"Not sampled since 2023","last_cruise_by":"Japan","last_cruise_ref":"OAV6G5QV8P","last_cruise_date":"2012-11-28","last_cruise_ship":"MIRAI","sampled_in_edition":false,"last_cruise_country":"Japan","last_cruise_display":"2012-11-28 (MIRAI)","edition_country_codes":"","last_cruise_countries":"Japan"}},{"type":"Feature","geometry":{"type":"LineString","coordinates":[[-171,-75],[-171,-48],[-177,-43],[-171,-35],[-171,0]]},"properties":{"line_id":1000101,"category":"goship","line_name":"P15S","line_style":"solid","edition_status":"Sampled since 2025","last_cruise_by":"Australia","last_cruise_ref":"F4NR855MVO","last_cruise_date":"2025-12-01","last_cruise_ship":"","sampled_in_edition":true,"last_cruise_country":"Australia","last_cruise_display":"2025-12-01 (F4NR855MVO)","edition_country_codes":"AU","last_cruise_countries":"Australia"}},{"type":"Feature","geometry":{"type":"LineString","coordinates":[[-150.99327876,0.22468147],[-150.99327876,17.24896376],[-157.4673016,21.80475761],[-150.99327876,23.72298661],[-150.99327876,58.73066569]]},"properties":{"line_id":1000133,"category":"goship","line_name":"P16N","line_style":"solid","edition_status":"Sampled since 2025","last_cruise_by":"United States","last_cruise_ref":"4MSTS6HEET","last_cruise_date":"2025-01-01","last_cruise_ship":"","sampled_in_edition":true,"last_cruise_country":"United States","last_cruise_display":"2025-01-01 (4MSTS6HEET)","edition_country_codes":"US","last_cruise_countries":"United States"}},{"type":"Feature","geometry":{"type":"LineString","coordinates":[[-150.99327876,-75.06580643],[-150.99327876,0.22468147]]},"properties":{"line_id":1000136,"category":"goship","line_name":"P16S","line_style":"dash","edition_status":"Sampled 2023–2024","last_cruise_by":"United States","last_cruise_ref":"9SK9YYUC5D","last_cruise_date":"2024-01-01","last_cruise_ship":"","sampled_in_edition":false,"last_cruise_country":"United States","last_cruise_display":"2024-01-01 (9SK9YYUC5D)","edition_country_codes":"","last_cruise_countries":"United States"}},{"type":"Feature","geometry":{"type":"LineString","coordinates":[[-118.81508235,-68.02513126],[-118.81508235,-53.48294168]]},"properties":{"line_id":1000091,"category":"goship","line_name":"P17x","line_style":"dash","edition_status":"Not sampled since 2023","last_cruise_by":"Japan","last_cruise_ref":"NE40UDOOSP","last_cruise_date":"2017-02-08","last_cruise_ship":"MIRAI","sampled_in_edition":false,"last_cruise_country":"Japan","last_cruise_display":"2017-02-08 (MIRAI)","edition_country_codes":"","last_cruise_countries":"Japan"}},{"type":"Feature","geometry":{"type":"LineString","coordinates":[[-106,-72],[-106,-5],[-110,0],[-110,22]]},"properties":{"line_id":1000100,"category":"goship","line_name":"P18","line_style":"dash","edition_status":"Not sampled since 2023","last_cruise_by":"United States","last_cruise_ref":"N30AA0M3WW","last_cruise_date":"2016-11-18","last_cruise_ship":"RONALD H. BROWN","sampled_in_edition":false,"last_cruise_country":"United States","last_cruise_display":"2016-11-18 (RONALD H. BROWN)","edition_country_codes":"","last_cruise_countries":"United States"}},{"type":"Feature","geometry":{"type":"LineString","coordinates":[[151.93548532,-62.25806296],[30.64516577,-62.25806296]]},"properties":{"line_id":1000092,"category":"goship","line_name":"S04I","line_style":"dash","edition_status":"Not sampled since 2023","last_cruise_by":"Japan","last_cruise_ref":"PI0RJJ94KR","last_cruise_date":"2013-01-06","last_cruise_ship":"MIRAI","sampled_in_edition":false,"last_cruise_country":"Japan","last_cruise_display":"2013-01-06 (MIRAI)","edition_country_codes":"","last_cruise_countries":"Japan"}},{"type":"Feature","geometry":{"type":"MultiLineString","coordinates":[[[-72,-66],[-180,-66]],[[180,-66],[155,-66]]]},"properties":{"line_id":1000104,"category":"goship","line_name":"S04P","line_style":"solid","edition_status":"Sampled since 2025","last_cruise_by":"United States","last_cruise_ref":"9Q9BK7W1MA","last_cruise_date":"2025-01-01","last_cruise_ship":"","sampled_in_edition":true,"last_cruise_country":"United States","last_cruise_display":"2025-01-01 (9Q9BK7W1MA)","edition_country_codes":"US","last_cruise_countries":"United States"}},{"type":"Feature","geometry":{"type":"LineString","coordinates":[[-67,-65],[-67,-57]]},"properties":{"line_id":1000085,"category":"goship","line_name":"SR01","line_style":"solid","edition_status":"Sampled since 2025","last_cruise_by":"United Kingdom","last_cruise_ref":"5ERPW559PD","last_cruise_date":"2026-01-01","last_cruise_ship":"","sampled_in_edition":true,"last_cruise_country":"United Kingdom","last_cruise_display":"2026-01-01 (5ERPW559PD)","edition_country_codes":"GB","last_cruise_countries":"United Kingdom"}},{"type":"Feature","geometry":{"type":"LineString","coordinates":[[146,-46],[144,-53],[144,-62],[147,-66]]},"properties":{"line_id":1000109,"category":"goship","line_name":"SR03","line_style":"dash","edition_status":"Not sampled since 2023","last_cruise_by":"Australia","last_cruise_ref":"KEAWLP5LGA","last_cruise_date":"2027-01-01","last_cruise_ship":"","sampled_in_edition":false,"last_cruise_country":"Australia","last_cruise_display":"2027-01-01 (KEAWLP5LGA)","edition_country_codes":"","last_cruise_countries":"Australia"}},{"type":"Feature","geometry":{"type":"LineString","coordinates":[[1.24259978,-67.10059004],[-30.17751778,-60.71005766],[-62.13017971,-60.71005766],[-63.19526844,-63.90532385],[-65.85799027,-61.77514639],[-66.39053463,-56.9822471]]},"properties":{"line_id":1000122,"category":"goship","line_name":"SR04","line_style":"solid","edition_status":"Sampled since 2025","last_cruise_by":"Germany","last_cruise_ref":"WCOCO1E79N","last_cruise_date":"2025-12-01","last_cruise_ship":"POLARSTERN","sampled_in_edition":true,"last_cruise_country":"Germany","last_cruise_display":"2025-12-01 (POLARSTERN)","edition_country_codes":"DE","last_cruise_countries":"Germany"}}]}
