{"type":"FeatureCollection","features":[{"type":"Feature","geometry":{"type":"Point","coordinates":[-95.6447,26.5128]},"properties":{"ptf_id":1362517,"ptf_ref":"4801924_009","category":"oceangliders","ptf_model":"Slocum","country_name":"USA","country_ship":null,"country_iso_reporting":"US","country_sensor_provider":null}},{"type":"Feature","geometry":{"type":"Point","coordinates":[-64.9902,18.1759]},"properties":{"ptf_id":1362557,"ptf_ref":"8901045_005","category":"oceangliders","ptf_model":"Slocum","country_name":"USA","country_ship":null,"country_iso_reporting":"US","country_sensor_provider":null}},{"type":"Feature","geometry":{"type":"Point","coordinates":[151.29,-34.05]},"properties":{"ptf_id":1361817,"ptf_ref":"8901099_008","category":"oceangliders","ptf_model":"Slocum G3","country_name":"AUSTRALIA","country_ship":null,"country_iso_reporting":"AU","country_sensor_provider":null}},{"type":"Feature","geometry":{"type":"Point","coordinates":[-91.0132,27.519]},"properties":{"ptf_id":1362597,"ptf_ref":"8901193","category":"oceangliders","ptf_model":"Slocum","country_name":"USA","country_ship":null,"country_iso_reporting":"US","country_sensor_provider":null}},{"type":"Feature","geometry":{"type":"Point","coordinates":[-90.9869,27.5258]},"properties":{"ptf_id":1362637,"ptf_ref":"8901194","category":"oceangliders","ptf_model":"Slocum","country_name":"USA","country_ship":null,"country_iso_reporting":"US","country_sensor_provider":null}},{"type":"Feature","geometry":{"type":"Point","coordinates":[-158.3646,21.4071]},"properties":{"ptf_id":1362717,"ptf_ref":"8901200","category":"oceangliders","ptf_model":"Slocum","country_name":"USA","country_ship":null,"country_iso_reporting":"US","country_sensor_provider":null}},{"type":"Feature","geometry":{"type":"Point","coordinates":[-67.0363,17.8643]},"properties":{"ptf_id":1362737,"ptf_ref":"8901220","category":"oceangliders","ptf_model":"Slocum","country_name":"PUERTO RICO","country_ship":null,"country_iso_reporting":"PR","country_sensor_provider":null}},{"type":"Feature","geometry":{"type":"Point","coordinates":[115.19,-31.86]},"properties":{"ptf_id":1361837,"ptf_ref":"6801514_064","category":"oceangliders","ptf_model":"Slocum G2","country_name":"AUSTRALIA","country_ship":null,"country_iso_reporting":"AU","country_sensor_provider":null}},{"type":"Feature","geometry":{"type":"Point","coordinates":[-125.476,48.416]},"properties":{"ptf_id":1361977,"ptf_ref":"4803917_019","category":"oceangliders","ptf_model":"SeaExplorer X2","country_name":"CANADA","country_ship":null,"country_iso_reporting":"CA","country_sensor_provider":null}},{"type":"Feature","geometry":{"type":"Point","coordinates":[-127.9425,51.7626]},"properties":{"ptf_id":1361997,"ptf_ref":"8900993_002","category":"oceangliders","ptf_model":"Slocum","country_name":"CANADA","country_ship":null,"country_iso_reporting":"CA","country_sensor_provider":null}},{"type":"Feature","geometry":{"type":"Point","coordinates":[-72.91587,39.95461]},"properties":{"ptf_id":1362037,"ptf_ref":"4802995_009","category":"oceangliders","ptf_model":"Slocum","country_name":"USA","country_ship":null,"country_iso_reporting":"US","country_sensor_provider":null}},{"type":"Feature","geometry":{"type":"Point","coordinates":[-78.6124,31.6637]},"properties":{"ptf_id":1362057,"ptf_ref":"8901072_001","category":"oceangliders","ptf_model":"Slocum","country_name":"USA","country_ship":null,"country_iso_reporting":"US","country_sensor_provider":null}},{"type":"Feature","geometry":{"type":"Point","coordinates":[-64.7377,35.7634]},"properties":{"ptf_id":1362117,"ptf_ref":"8901149_001","category":"oceangliders","ptf_model":"Slocum","country_name":"USA","country_ship":null,"country_iso_reporting":"US","country_sensor_provider":null}},{"type":"Feature","geometry":{"type":"Point","coordinates":[-64.33528,17.0299]},"properties":{"ptf_id":1362137,"ptf_ref":"4802964_005","category":"oceangliders","ptf_model":"Slocum","country_name":"USA","country_ship":null,"country_iso_reporting":"US","country_sensor_provider":null}},{"type":"Feature","geometry":{"type":"Point","coordinates":[-64.504872446,16.740897629]},"properties":{"ptf_id":1362197,"ptf_ref":"4803936_002","category":"oceangliders","ptf_model":"Slocum","country_name":"USA","country_ship":null,"country_iso_reporting":"US","country_sensor_provider":null}},{"type":"Feature","geometry":{"type":"Point","coordinates":[-74.077709808,39.352126487]},"properties":{"ptf_id":1362237,"ptf_ref":"4802971_017","category":"oceangliders","ptf_model":"Slocum","country_name":"USA","country_ship":null,"country_iso_reporting":"US","country_sensor_provider":null}},{"type":"Feature","geometry":{"type":"Point","coordinates":[-80.070468,31.678513]},"properties":{"ptf_id":1362277,"ptf_ref":"4801940_002","category":"oceangliders","ptf_model":"Slocum","country_name":"USA","country_ship":null,"country_iso_reporting":"US","country_sensor_provider":null}},{"type":"Feature","geometry":{"type":"Point","coordinates":[-158.273,21.4223]},"properties":{"ptf_id":1362317,"ptf_ref":"8901076_001","category":"oceangliders","ptf_model":"Seaglider","country_name":"USA","country_ship":null,"country_iso_reporting":"US","country_sensor_provider":null}},{"type":"Feature","geometry":{"type":"Point","coordinates":[-66.06883,20.33092]},"properties":{"ptf_id":1362377,"ptf_ref":"4800931_005","category":"oceangliders","ptf_model":"Seaglider","country_name":"USA","country_ship":null,"country_iso_reporting":"US","country_sensor_provider":null}},{"type":"Feature","geometry":{"type":"Point","coordinates":[-123.4551,38.39805]},"properties":{"ptf_id":1362417,"ptf_ref":"4801921_018","category":"oceangliders","ptf_model":"Spray","country_name":"USA","country_ship":null,"country_iso_reporting":"US","country_sensor_provider":null}},{"type":"Feature","geometry":{"type":"Point","coordinates":[-119.89493,32.5188]},"properties":{"ptf_id":1362437,"ptf_ref":"4801901_019","category":"oceangliders","ptf_model":"Spray","country_name":"USA","country_ship":null,"country_iso_reporting":"US","country_sensor_provider":null}},{"type":"Feature","geometry":{"type":"Point","coordinates":[-63.315,44.378]},"properties":{"ptf_id":1266517,"ptf_ref":"4800937_013","category":"oceangliders","ptf_model":"SeaExplorer X2","country_name":"CANADA","country_ship":null,"country_iso_reporting":"CA","country_sensor_provider":null}},{"type":"Feature","geometry":{"type":"Point","coordinates":[-125.23196,48.87123]},"properties":{"ptf_id":1266537,"ptf_ref":"4803917_014","category":"oceangliders","ptf_model":"SeaExplorer X2","country_name":"CANADA","country_ship":null,"country_iso_reporting":"CA","country_sensor_provider":null}},{"type":"Feature","geometry":{"type":"Point","coordinates":[-70.3,41.5]},"properties":{"ptf_id":1266562,"ptf_ref":"8901157","category":"oceangliders","ptf_model":"Slocum","country_name":"USA","country_ship":null,"country_iso_reporting":"US","country_sensor_provider":null}},{"type":"Feature","geometry":{"type":"Point","coordinates":[3.22518,39.17885]},"properties":{"ptf_id":1266737,"ptf_ref":"6801639_005","category":"oceangliders","ptf_model":"Slocum G3","country_name":"SPAIN","country_ship":"SPAIN","country_iso_reporting":"ES","country_sensor_provider":null}},{"type":"Feature","geometry":{"type":"Point","coordinates":[7.292,43.656]},"properties":{"ptf_id":1266857,"ptf_ref":"8900999_003","category":"oceangliders","ptf_model":"SeaExplorer X2","country_name":"FRANCE","country_ship":null,"country_iso_reporting":"FR","country_sensor_provider":null}},{"type":"Feature","geometry":{"type":"Point","coordinates":[-127.938,48.174]},"properties":{"ptf_id":1266977,"ptf_ref":"8900997_014","category":"oceangliders","ptf_model":"Slocum G3","country_name":"CANADA","country_ship":null,"country_iso_reporting":"CA","country_sensor_provider":null}},{"type":"Feature","geometry":{"type":"Point","coordinates":[-124.31,44.66]},"properties":{"ptf_id":1269777,"ptf_ref":"8901057_002","category":"oceangliders","ptf_model":"Slocum","country_name":"USA","country_ship":null,"country_iso_reporting":"US","country_sensor_provider":null}},{"type":"Feature","geometry":{"type":"Point","coordinates":[-74.69594,36.16142]},"properties":{"ptf_id":1269877,"ptf_ref":"4802993_005","category":"oceangliders","ptf_model":"Slocum","country_name":"USA","country_ship":null,"country_iso_reporting":"US","country_sensor_provider":null}},{"type":"Feature","geometry":{"type":"Point","coordinates":[-80.62228,31.32745]},"properties":{"ptf_id":1270057,"ptf_ref":"4802956_011","category":"oceangliders","ptf_model":"Slocum","country_name":"USA","country_ship":null,"country_iso_reporting":"US","country_sensor_provider":null}},{"type":"Feature","geometry":{"type":"Point","coordinates":[-39.670493663,59.822532374]},"properties":{"ptf_id":1270077,"ptf_ref":"6801729_001","category":"oceangliders","ptf_model":"Slocum","country_name":"USA","country_ship":null,"country_iso_reporting":"US","country_sensor_provider":null}},{"type":"Feature","geometry":{"type":"Point","coordinates":[-38.59011,60.20638]},"properties":{"ptf_id":1270097,"ptf_ref":"6801738_002","category":"oceangliders","ptf_model":"Slocum","country_name":"USA","country_ship":null,"country_iso_reporting":"US","country_sensor_provider":null}},{"type":"Feature","geometry":{"type":"Point","coordinates":[-144.47581,50.23754]},"properties":{"ptf_id":1270117,"ptf_ref":"4801991_001","category":"oceangliders","ptf_model":"Slocum","country_name":"USA","country_ship":null,"country_iso_reporting":"US","country_sensor_provider":null}},{"type":"Feature","geometry":{"type":"Point","coordinates":[-71.92,40.19]},"properties":{"ptf_id":1270157,"ptf_ref":"8901079_002","category":"oceangliders","ptf_model":"Slocum","country_name":"USA","country_ship":null,"country_iso_reporting":"US","country_sensor_provider":null}},{"type":"Feature","geometry":{"type":"Point","coordinates":[-88.06762,27.96343]},"properties":{"ptf_id":1270217,"ptf_ref":"4803962_001","category":"oceangliders","ptf_model":"Slocum","country_name":"USA","country_ship":null,"country_iso_reporting":"US","country_sensor_provider":null}},{"type":"Feature","geometry":{"type":"Point","coordinates":[-77.6257,29.98899]},"properties":{"ptf_id":1270237,"ptf_ref":"4803943_002","category":"oceangliders","ptf_model":"Slocum","country_name":"USA","country_ship":null,"country_iso_reporting":"US","country_sensor_provider":null}},{"type":"Feature","geometry":{"type":"Point","coordinates":[-124.38738,47.05508]},"properties":{"ptf_id":1270277,"ptf_ref":"4803959_002","category":"oceangliders","ptf_model":"Slocum G2","country_name":"USA","country_ship":null,"country_iso_reporting":"US","country_sensor_provider":null}},{"type":"Feature","geometry":{"type":"Point","coordinates":[-87.69,30.13]},"properties":{"ptf_id":1270357,"ptf_ref":"8901066_003","category":"oceangliders","ptf_model":"Oceanscout","country_name":"USA","country_ship":null,"country_iso_reporting":"US","country_sensor_provider":null}},{"type":"Feature","geometry":{"type":"Point","coordinates":[-59.69596,13.15481]},"properties":{"ptf_id":1270417,"ptf_ref":"4802960_009","category":"oceangliders","ptf_model":"Slocum G2","country_name":"USA","country_ship":null,"country_iso_reporting":"US","country_sensor_provider":null}},{"type":"Feature","geometry":{"type":"Point","coordinates":[-74.31941,39.33971]},"properties":{"ptf_id":1270457,"ptf_ref":"4802944_008","category":"oceangliders","ptf_model":"Slocum G2","country_name":"USA","country_ship":null,"country_iso_reporting":"US","country_sensor_provider":null}},{"type":"Feature","geometry":{"type":"Point","coordinates":[-74.87771,34.8262]},"properties":{"ptf_id":1270637,"ptf_ref":"4801942_018","category":"oceangliders","ptf_model":"Slocum","country_name":"USA","country_ship":null,"country_iso_reporting":"US","country_sensor_provider":null}},{"type":"Feature","geometry":{"type":"Point","coordinates":[-73.96284,39.44469]},"properties":{"ptf_id":1270697,"ptf_ref":"4803975_006","category":"oceangliders","ptf_model":"Slocum G3","country_name":"USA","country_ship":null,"country_iso_reporting":"US","country_sensor_provider":null}},{"type":"Feature","geometry":{"type":"Point","coordinates":[-104.34,18.85]},"properties":{"ptf_id":1270757,"ptf_ref":"8901009_002","category":"oceangliders","ptf_model":"Seaglider","country_name":"USA","country_ship":null,"country_iso_reporting":"US","country_sensor_provider":null}},{"type":"Feature","geometry":{"type":"Point","coordinates":[-104.43,19.41]},"properties":{"ptf_id":1270777,"ptf_ref":"8901007_001","category":"oceangliders","ptf_model":"Seaglider","country_name":"USA","country_ship":null,"country_iso_reporting":"US","country_sensor_provider":null}},{"type":"Feature","geometry":{"type":"Point","coordinates":[121.94,-33.96]},"properties":{"ptf_id":1274037,"ptf_ref":"8900998_003","category":"oceangliders","ptf_model":"Slocum G3","country_name":"AUSTRALIA","country_ship":null,"country_iso_reporting":"AU","country_sensor_provider":null}},{"type":"Feature","geometry":{"type":"Point","coordinates":[136.2,-34.74]},"properties":{"ptf_id":1274057,"ptf_ref":"8901026_003","category":"oceangliders","ptf_model":"Slocum G3","country_name":"AUSTRALIA","country_ship":null,"country_iso_reporting":"AU","country_sensor_provider":null}},{"type":"Feature","geometry":{"type":"Point","coordinates":[148.32,-41.23]},"properties":{"ptf_id":1274077,"ptf_ref":"6801514_060","category":"oceangliders","ptf_model":"Slocum G2","country_name":"AUSTRALIA","country_ship":null,"country_iso_reporting":"AU","country_sensor_provider":null}},{"type":"Feature","geometry":{"type":"Point","coordinates":[115.5,-31.7]},"properties":{"ptf_id":1274097,"ptf_ref":"6801511_046","category":"oceangliders","ptf_model":"Slocum G2","country_name":"AUSTRALIA","country_ship":null,"country_iso_reporting":"AU","country_sensor_provider":null}},{"type":"Feature","geometry":{"type":"Point","coordinates":[141.536,-12.83]},"properties":{"ptf_id":1274117,"ptf_ref":"8901099_004","category":"oceangliders","ptf_model":"Slocum G3","country_name":"AUSTRALIA","country_ship":null,"country_iso_reporting":"AU","country_sensor_provider":null}},{"type":"Feature","geometry":{"type":"Point","coordinates":[138.28,-35.19]},"properties":{"ptf_id":1286817,"ptf_ref":"8901026_004","category":"oceangliders","ptf_model":"Slocum G3","country_name":"AUSTRALIA","country_ship":null,"country_iso_reporting":"AU","country_sensor_provider":null}},{"type":"Feature","geometry":{"type":"Point","coordinates":[146.39,-17.76]},"properties":{"ptf_id":1286837,"ptf_ref":"6801517_052","category":"oceangliders","ptf_model":"Slocum G2","country_name":"AUSTRALIA","country_ship":null,"country_iso_reporting":"AU","country_sensor_provider":null}},{"type":"Feature","geometry":{"type":"Point","coordinates":[153.4,-29.43]},"properties":{"ptf_id":1286857,"ptf_ref":"8900998_004","category":"oceangliders","ptf_model":"Slocum G3","country_name":"AUSTRALIA","country_ship":null,"country_iso_reporting":"AU","country_sensor_provider":null}},{"type":"Feature","geometry":{"type":"Point","coordinates":[-127.946,51.756]},"properties":{"ptf_id":1290097,"ptf_ref":"8900996_009","category":"oceangliders","ptf_model":"Slocum G3","country_name":"CANADA","country_ship":null,"country_iso_reporting":"CA","country_sensor_provider":null}},{"type":"Feature","geometry":{"type":"Point","coordinates":[-1.739,45.659]},"properties":{"ptf_id":1293697,"ptf_ref":"8901080_004","category":"oceangliders","ptf_model":"SeaExplorer X2","country_name":"FRANCE","country_ship":null,"country_iso_reporting":"FR","country_sensor_provider":null}},{"type":"Feature","geometry":{"type":"Point","coordinates":[45.39027,-12.82828]},"properties":{"ptf_id":1293717,"ptf_ref":"6801558_007","category":"oceangliders","ptf_model":"SeaExplorer X2","country_name":"FRANCE","country_ship":null,"country_iso_reporting":"FR","country_sensor_provider":null}},{"type":"Feature","geometry":{"type":"Point","coordinates":[45.3231,-12.8908]},"properties":{"ptf_id":1293737,"ptf_ref":"8901048_001","category":"oceangliders","ptf_model":"SeaExplorer X2","country_name":"FRANCE","country_ship":null,"country_iso_reporting":"FR","country_sensor_provider":null}},{"type":"Feature","geometry":{"type":"Point","coordinates":[45.3231,-12.8908]},"properties":{"ptf_id":1293817,"ptf_ref":"6801558_009","category":"oceangliders","ptf_model":"SeaExplorer X2","country_name":"FRANCE","country_ship":null,"country_iso_reporting":"FR","country_sensor_provider":null}},{"type":"Feature","geometry":{"type":"Point","coordinates":[45.30643,-12.87938]},"properties":{"ptf_id":1293857,"ptf_ref":"6801558_011","category":"oceangliders","ptf_model":"SeaExplorer X2","country_name":"FRANCE","country_ship":null,"country_iso_reporting":"FR","country_sensor_provider":null}},{"type":"Feature","geometry":{"type":"Point","coordinates":[45.27609,-12.95309]},"properties":{"ptf_id":1293877,"ptf_ref":"6801558_012","category":"oceangliders","ptf_model":"SeaExplorer X2","country_name":"FRANCE","country_ship":null,"country_iso_reporting":"FR","country_sensor_provider":null}},{"type":"Feature","geometry":{"type":"Point","coordinates":[45.368,-12.817]},"properties":{"ptf_id":1293897,"ptf_ref":"8901048_002","category":"oceangliders","ptf_model":"SeaExplorer X2","country_name":"FRANCE","country_ship":null,"country_iso_reporting":"FR","country_sensor_provider":null}},{"type":"Feature","geometry":{"type":"Point","coordinates":[1.365,39.209]},"properties":{"ptf_id":1293917,"ptf_ref":"8901024_004","category":"oceangliders","ptf_model":"Slocum G3","country_name":"SPAIN","country_ship":"SPAIN","country_iso_reporting":"ES","country_sensor_provider":null}},{"type":"Feature","geometry":{"type":"Point","coordinates":[3.318,39.372]},"properties":{"ptf_id":1293937,"ptf_ref":"6800967_031","category":"oceangliders","ptf_model":"Slocum G2","country_name":"SPAIN","country_ship":"SPAIN","country_iso_reporting":"ES","country_sensor_provider":null}},{"type":"Feature","geometry":{"type":"Point","coordinates":[3.322,39.374]},"properties":{"ptf_id":1293957,"ptf_ref":"6801639_006","category":"oceangliders","ptf_model":"Slocum G3","country_name":"SPAIN","country_ship":"SPAIN","country_iso_reporting":"ES","country_sensor_provider":null}},{"type":"Feature","geometry":{"type":"Point","coordinates":[3.119,39.039]},"properties":{"ptf_id":1293977,"ptf_ref":"6801639_007","category":"oceangliders","ptf_model":"Slocum G3","country_name":"SPAIN","country_ship":"SPAIN","country_iso_reporting":"ES","country_sensor_provider":null}},{"type":"Feature","geometry":{"type":"Point","coordinates":[-127.946,51.756]},"properties":{"ptf_id":1302277,"ptf_ref":"TMP1359030570","category":"oceangliders","ptf_model":"Slocum G3","country_name":"CANADA","country_ship":null,"country_iso_reporting":"CA","country_sensor_provider":null}},{"type":"Feature","geometry":{"type":"Point","coordinates":[-126.535,48.9283]},"properties":{"ptf_id":1302297,"ptf_ref":"TMP-1806276757","category":"oceangliders","ptf_model":"Slocum","country_name":"CANADA","country_ship":null,"country_iso_reporting":"CA","country_sensor_provider":null}},{"type":"Feature","geometry":{"type":"Point","coordinates":[-80.0466,25.7707]},"properties":{"ptf_id":1305157,"ptf_ref":"8901181","category":"oceangliders","ptf_model":"Spray","country_name":"USA","country_ship":null,"country_iso_reporting":"US","country_sensor_provider":null}},{"type":"Feature","geometry":{"type":"Point","coordinates":[-70.8895,40.3246]},"properties":{"ptf_id":1305158,"ptf_ref":"8901182","category":"oceangliders","ptf_model":"Spray","country_name":"USA","country_ship":null,"country_iso_reporting":"US","country_sensor_provider":null}},{"type":"Feature","geometry":{"type":"Point","coordinates":[16.224599838,55.689266205]},"properties":{"ptf_id":1306924,"ptf_ref":"8901183","category":"oceangliders","ptf_model":"SeaExplorer Shallow","country_name":"SWEDEN","country_ship":"UK","country_iso_reporting":"SE","country_sensor_provider":null}},{"type":"Feature","geometry":{"type":"Point","coordinates":[-127.94,51.748]},"properties":{"ptf_id":1321117,"ptf_ref":"8900996_010","category":"oceangliders","ptf_model":"Slocum G3","country_name":"CANADA","country_ship":null,"country_iso_reporting":"CA","country_sensor_provider":null}},{"type":"Feature","geometry":{"type":"Point","coordinates":[-126.535,48.9283]},"properties":{"ptf_id":1321137,"ptf_ref":"8900997_017","category":"oceangliders","ptf_model":"Slocum G3","country_name":"CANADA","country_ship":null,"country_iso_reporting":"CA","country_sensor_provider":null}},{"type":"Feature","geometry":{"type":"Point","coordinates":[8.05,43.259]},"properties":{"ptf_id":1321697,"ptf_ref":"8901012_011","category":"oceangliders","ptf_model":"SeaExplorer X2","country_name":"FRANCE","country_ship":null,"country_iso_reporting":"FR","country_sensor_provider":null}},{"type":"Feature","geometry":{"type":"Point","coordinates":[8.303,43.044]},"properties":{"ptf_id":1332345,"ptf_ref":"8901190","category":"oceangliders","ptf_model":"SeaExplorer X2","country_name":"FRANCE","country_ship":null,"country_iso_reporting":"FR","country_sensor_provider":null}},{"type":"Feature","geometry":{"type":"Point","coordinates":[-128,51.74]},"properties":{"ptf_id":1338937,"ptf_ref":"8900994_006","category":"oceangliders","ptf_model":"Slocum G3","country_name":"CANADA","country_ship":null,"country_iso_reporting":"CA","country_sensor_provider":null}},{"type":"Feature","geometry":{"type":"Point","coordinates":[16.397865295,55.571849823]},"properties":{"ptf_id":1342717,"ptf_ref":"6801507_030","category":"oceangliders","ptf_model":"SeaExplorer X2","country_name":"SWEDEN","country_ship":"UK","country_iso_reporting":"SE","country_sensor_provider":null}},{"type":"Feature","geometry":{"type":"Point","coordinates":[7.308,43.673]},"properties":{"ptf_id":1343077,"ptf_ref":"8901012_013","category":"oceangliders","ptf_model":"SeaExplorer X2","country_name":"FRANCE","country_ship":null,"country_iso_reporting":"FR","country_sensor_provider":null}},{"type":"Feature","geometry":{"type":"Point","coordinates":[45.3231,-12.8908]},"properties":{"ptf_id":1343097,"ptf_ref":"8901048_006","category":"oceangliders","ptf_model":"SeaExplorer X2","country_name":"FRANCE","country_ship":null,"country_iso_reporting":"FR","country_sensor_provider":null}},{"type":"Feature","geometry":{"type":"Point","coordinates":[4.11951,40.24624]},"properties":{"ptf_id":1343117,"ptf_ref":"6800455_005","category":"oceangliders","ptf_model":"Seaglider","country_name":"FRANCE","country_ship":null,"country_iso_reporting":"FR","country_sensor_provider":null}},{"type":"Feature","geometry":{"type":"Point","coordinates":[-63.34,44.423]},"properties":{"ptf_id":1343137,"ptf_ref":"4800922_001","category":"oceangliders","ptf_model":"Slocum","country_name":"CANADA","country_ship":null,"country_iso_reporting":"CA","country_sensor_provider":null}},{"type":"Feature","geometry":{"type":"Point","coordinates":[19.6772995,57.916381836]},"properties":{"ptf_id":1343764,"ptf_ref":"6801505_014","category":"oceangliders","ptf_model":"SeaExplorer X2","country_name":"SWEDEN","country_ship":"UK","country_iso_reporting":"SE","country_sensor_provider":null}},{"type":"Feature","geometry":{"type":"Point","coordinates":[19.671548843,57.916397095]},"properties":{"ptf_id":1343765,"ptf_ref":"8901050_023","category":"oceangliders","ptf_model":"SeaExplorer X2","country_name":"SWEDEN","country_ship":"UK","country_iso_reporting":"SE","country_sensor_provider":null}},{"type":"Feature","geometry":{"type":"Point","coordinates":[19.919000626,58.065502167]},"properties":{"ptf_id":1343766,"ptf_ref":"8901000_014","category":"oceangliders","ptf_model":"SeaExplorer X2","country_name":"SWEDEN","country_ship":"UK","country_iso_reporting":"SE","country_sensor_provider":null}},{"type":"Feature","geometry":{"type":"Point","coordinates":[-121.8701,36.8045]},"properties":{"ptf_id":1343817,"ptf_ref":"8901159_001","category":"oceangliders","ptf_model":"Spray","country_name":"USA","country_ship":null,"country_iso_reporting":"US","country_sensor_provider":null}},{"type":"Feature","geometry":{"type":"Point","coordinates":[11.393283844,57.776100159]},"properties":{"ptf_id":1343837,"ptf_ref":"8901183_001","category":"oceangliders","ptf_model":"SeaExplorer Shallow","country_name":"SWEDEN","country_ship":"UK","country_iso_reporting":"SE","country_sensor_provider":null}},{"type":"Feature","geometry":{"type":"Point","coordinates":[16.336982727,55.587051392]},"properties":{"ptf_id":1343838,"ptf_ref":"6801674_031","category":"oceangliders","ptf_model":"SeaExplorer X2","country_name":"SWEDEN","country_ship":"UK","country_iso_reporting":"SE","country_sensor_provider":null}},{"type":"Feature","geometry":{"type":"Point","coordinates":[19.684684753,59.995864868]},"properties":{"ptf_id":1343841,"ptf_ref":"8901001_016","category":"oceangliders","ptf_model":"SeaExplorer X2","country_name":"SWEDEN","country_ship":"UK","country_iso_reporting":"SE","country_sensor_provider":null}},{"type":"Feature","geometry":{"type":"Point","coordinates":[16.309617996,55.610668182]},"properties":{"ptf_id":1343843,"ptf_ref":"6801675_017","category":"oceangliders","ptf_model":"SeaExplorer X2","country_name":"SWEDEN","country_ship":"UK","country_iso_reporting":"SE","country_sensor_provider":null}},{"type":"Feature","geometry":{"type":"Point","coordinates":[26.03,-34.07]},"properties":{"ptf_id":1343906,"ptf_ref":"8901202","category":"oceangliders","ptf_model":"Slocum G3","country_name":"SOUTH AFRICA","country_ship":null,"country_iso_reporting":"ZA","country_sensor_provider":null}},{"type":"Feature","geometry":{"type":"Point","coordinates":[-80.83745307,31.760452494]},"properties":{"ptf_id":1343917,"ptf_ref":"4802945_014","category":"oceangliders","ptf_model":"Slocum","country_name":"USA","country_ship":null,"country_iso_reporting":"US","country_sensor_provider":null}},{"type":"Feature","geometry":{"type":"Point","coordinates":[-83.04876,26.87067]},"properties":{"ptf_id":1343937,"ptf_ref":"4802994_018","category":"oceangliders","ptf_model":"Slocum","country_name":"USA","country_ship":null,"country_iso_reporting":"US","country_sensor_provider":null}},{"type":"Feature","geometry":{"type":"Point","coordinates":[-83.5,26.4]},"properties":{"ptf_id":1343977,"ptf_ref":"8901120_002","category":"oceangliders","ptf_model":"Slocum","country_name":"USA","country_ship":null,"country_iso_reporting":"US","country_sensor_provider":null}},{"type":"Feature","geometry":{"type":"Point","coordinates":[-83.66,26.54]},"properties":{"ptf_id":1343997,"ptf_ref":"8901120_003","category":"oceangliders","ptf_model":"Slocum","country_name":"USA","country_ship":null,"country_iso_reporting":"US","country_sensor_provider":null}},{"type":"Feature","geometry":{"type":"Point","coordinates":[-73.89947,39.26144]},"properties":{"ptf_id":1344017,"ptf_ref":"4801946_014","category":"oceangliders","ptf_model":"Slocum","country_name":"USA","country_ship":null,"country_iso_reporting":"US","country_sensor_provider":null}},{"type":"Feature","geometry":{"type":"Point","coordinates":[-71.40728,41.35735]},"properties":{"ptf_id":1344037,"ptf_ref":"4802971_016","category":"oceangliders","ptf_model":"Slocum","country_name":"USA","country_ship":null,"country_iso_reporting":"US","country_sensor_provider":null}},{"type":"Feature","geometry":{"type":"Point","coordinates":[-74.3,39.02]},"properties":{"ptf_id":1344057,"ptf_ref":"8901019_010","category":"oceangliders","ptf_model":"Slocum","country_name":"USA","country_ship":null,"country_iso_reporting":"US","country_sensor_provider":null}},{"type":"Feature","geometry":{"type":"Point","coordinates":[-74.3,39.01]},"properties":{"ptf_id":1344077,"ptf_ref":"8901068_006","category":"oceangliders","ptf_model":"Slocum","country_name":"USA","country_ship":null,"country_iso_reporting":"US","country_sensor_provider":null}},{"type":"Feature","geometry":{"type":"Point","coordinates":[-121.8341,36.7936]},"properties":{"ptf_id":1344117,"ptf_ref":"4801900_016","category":"oceangliders","ptf_model":"Spray","country_name":"USA","country_ship":null,"country_iso_reporting":"US","country_sensor_provider":null}},{"type":"Feature","geometry":{"type":"Point","coordinates":[-120.80305,33.6336]},"properties":{"ptf_id":1344137,"ptf_ref":"4801901_018","category":"oceangliders","ptf_model":"Spray","country_name":"USA","country_ship":null,"country_iso_reporting":"US","country_sensor_provider":null}},{"type":"Feature","geometry":{"type":"Point","coordinates":[-123.414508294,34.188945436]},"properties":{"ptf_id":1344157,"ptf_ref":"5801911_002","category":"oceangliders","ptf_model":"Spray","country_name":"USA","country_ship":null,"country_iso_reporting":"US","country_sensor_provider":null}},{"type":"Feature","geometry":{"type":"Point","coordinates":[-119.7533,34.30965]},"properties":{"ptf_id":1344177,"ptf_ref":"4801930_018","category":"oceangliders","ptf_model":"Spray","country_name":"USA","country_ship":null,"country_iso_reporting":"US","country_sensor_provider":null}},{"type":"Feature","geometry":{"type":"Point","coordinates":[-80.65,31.12]},"properties":{"ptf_id":1344197,"ptf_ref":"8901043_006","category":"oceangliders","ptf_model":"Slocum","country_name":"USA","country_ship":null,"country_iso_reporting":"US","country_sensor_provider":null}},{"type":"Feature","geometry":{"type":"Point","coordinates":[-71.4,40.95]},"properties":{"ptf_id":1344217,"ptf_ref":"8901118_004","category":"oceangliders","ptf_model":"Slocum","country_name":"USA","country_ship":null,"country_iso_reporting":"US","country_sensor_provider":null}},{"type":"Feature","geometry":{"type":"Point","coordinates":[-83.42468,27.90327]},"properties":{"ptf_id":1344237,"ptf_ref":"4801918_019","category":"oceangliders","ptf_model":"Slocum","country_name":"USA","country_ship":null,"country_iso_reporting":"US","country_sensor_provider":null}},{"type":"Feature","geometry":{"type":"Point","coordinates":[-84.495733184,26.656731856]},"properties":{"ptf_id":1344257,"ptf_ref":"4802970_007","category":"oceangliders","ptf_model":"Slocum","country_name":"USA","country_ship":null,"country_iso_reporting":"US","country_sensor_provider":null}},{"type":"Feature","geometry":{"type":"Point","coordinates":[-124.4596,40.9493]},"properties":{"ptf_id":1344277,"ptf_ref":"8901047_002","category":"oceangliders","ptf_model":"Seaglider","country_name":"USA","country_ship":null,"country_iso_reporting":"US","country_sensor_provider":null}},{"type":"Feature","geometry":{"type":"Point","coordinates":[-125.212,48.8737]},"properties":{"ptf_id":1344537,"ptf_ref":"TMP299128650","category":"oceangliders","ptf_model":"Slocum G3","country_name":"CANADA","country_ship":null,"country_iso_reporting":"CA","country_sensor_provider":null}},{"type":"Feature","geometry":{"type":"Point","coordinates":[-1.8,57.05]},"properties":{"ptf_id":1344897,"ptf_ref":"6800945_001","category":"oceangliders","ptf_model":"Slocum G2","country_name":"UK","country_ship":null,"country_iso_reporting":"GB","country_sensor_provider":null}},{"type":"Feature","geometry":{"type":"Point","coordinates":[-1.93,56.9]},"properties":{"ptf_id":1344917,"ptf_ref":"6801573_003","category":"oceangliders","ptf_model":"Slocum G2","country_name":"UK","country_ship":null,"country_iso_reporting":"GB","country_sensor_provider":null}},{"type":"Feature","geometry":{"type":"Point","coordinates":[-2.38,58.99]},"properties":{"ptf_id":1344957,"ptf_ref":"8901130_001","category":"oceangliders","ptf_model":"Slocum G2","country_name":"UK","country_ship":null,"country_iso_reporting":"GB","country_sensor_provider":null}},{"type":"Feature","geometry":{"type":"Point","coordinates":[-0.557,59.29]},"properties":{"ptf_id":1345017,"ptf_ref":"6800984_003","category":"oceangliders","ptf_model":"Slocum G2","country_name":"UK","country_ship":null,"country_iso_reporting":"GB","country_sensor_provider":null}},{"type":"Feature","geometry":{"type":"Point","coordinates":[-2.348,59.09]},"properties":{"ptf_id":1345057,"ptf_ref":"6801547_003","category":"oceangliders","ptf_model":"Slocum G2","country_name":"UK","country_ship":null,"country_iso_reporting":"GB","country_sensor_provider":null}},{"type":"Feature","geometry":{"type":"Point","coordinates":[-9.837,48.3]},"properties":{"ptf_id":1345097,"ptf_ref":"6800942_005","category":"oceangliders","ptf_model":"Seaglider","country_name":"UK","country_ship":null,"country_iso_reporting":"GB","country_sensor_provider":null}},{"type":"Feature","geometry":{"type":"Point","coordinates":[-49.163,59.65]},"properties":{"ptf_id":1345197,"ptf_ref":"6801586_003","category":"oceangliders","ptf_model":"Slocum G2","country_name":"UK","country_ship":null,"country_iso_reporting":"GB","country_sensor_provider":null}},{"type":"Feature","geometry":{"type":"Point","coordinates":[-48.826,59.6]},"properties":{"ptf_id":1345277,"ptf_ref":"6800993_002","category":"oceangliders","ptf_model":"Slocum G2","country_name":"UK","country_ship":null,"country_iso_reporting":"GB","country_sensor_provider":null}},{"type":"Feature","geometry":{"type":"Point","coordinates":[-2.37,58.92]},"properties":{"ptf_id":1345317,"ptf_ref":"8901128_001","category":"oceangliders","ptf_model":"Slocum G3 Shallow","country_name":"UK","country_ship":null,"country_iso_reporting":"GB","country_sensor_provider":null}},{"type":"Feature","geometry":{"type":"Point","coordinates":[17.2987,41.4773]},"properties":{"ptf_id":1345377,"ptf_ref":"TMP-691650640","category":"oceangliders","ptf_model":"Seaglider SGX","country_name":"ITALY","country_ship":null,"country_iso_reporting":"IT","country_sensor_provider":null}},{"type":"Feature","geometry":{"type":"Point","coordinates":[16.320699692,55.598777771]},"properties":{"ptf_id":1345417,"ptf_ref":"8901204","category":"oceangliders","ptf_model":"SeaExplorer Shallow","country_name":"SWEDEN","country_ship":"UK","country_iso_reporting":"SE","country_sensor_provider":null}},{"type":"Feature","geometry":{"type":"Point","coordinates":[115.8152,-31.9803]},"properties":{"ptf_id":1345418,"ptf_ref":"8901205","category":"oceangliders","ptf_model":"Slocum G3","country_name":"AUSTRALIA","country_ship":null,"country_iso_reporting":"AU","country_sensor_provider":null}},{"type":"Feature","geometry":{"type":"Point","coordinates":[-125.174,48.89]},"properties":{"ptf_id":1346737,"ptf_ref":"TMP1330779795","category":"oceangliders","ptf_model":"SeaExplorer X2","country_name":"CANADA","country_ship":null,"country_iso_reporting":"CA","country_sensor_provider":null}},{"type":"Feature","geometry":{"type":"Point","coordinates":[5.2053,59.4872]},"properties":{"ptf_id":1346777,"ptf_ref":"TMP-1945716159","category":"oceangliders","ptf_model":"SeaExplorer X3","country_name":"NORWAY","country_ship":null,"country_iso_reporting":"NO","country_sensor_provider":null}},{"type":"Feature","geometry":{"type":"Point","coordinates":[152.5626,-32.1651]},"properties":{"ptf_id":1347497,"ptf_ref":"8900998_005","category":"oceangliders","ptf_model":"Slocum G3","country_name":"AUSTRALIA","country_ship":null,"country_iso_reporting":"AU","country_sensor_provider":null}},{"type":"Feature","geometry":{"type":"Point","coordinates":[136.3316,-34.8384]},"properties":{"ptf_id":1347517,"ptf_ref":"6801514_061","category":"oceangliders","ptf_model":"Slocum G2","country_name":"AUSTRALIA","country_ship":null,"country_iso_reporting":"AU","country_sensor_provider":null}},{"type":"Feature","geometry":{"type":"Point","coordinates":[146.3341,-17.7027]},"properties":{"ptf_id":1347537,"ptf_ref":"6801517_054","category":"oceangliders","ptf_model":"Slocum G2","country_name":"AUSTRALIA","country_ship":null,"country_iso_reporting":"AU","country_sensor_provider":null}},{"type":"Feature","geometry":{"type":"Point","coordinates":[136.2262,-34.8552]},"properties":{"ptf_id":1347557,"ptf_ref":"8901099_005","category":"oceangliders","ptf_model":"Slocum G3","country_name":"AUSTRALIA","country_ship":null,"country_iso_reporting":"AU","country_sensor_provider":null}},{"type":"Feature","geometry":{"type":"Point","coordinates":[146.7255,-41.0056]},"properties":{"ptf_id":1347577,"ptf_ref":"8901119_003","category":"oceangliders","ptf_model":"Slocum G3","country_name":"AUSTRALIA","country_ship":null,"country_iso_reporting":"AU","country_sensor_provider":null}},{"type":"Feature","geometry":{"type":"Point","coordinates":[141.3557,-38.3402]},"properties":{"ptf_id":1347597,"ptf_ref":"8901026_005","category":"oceangliders","ptf_model":"Slocum G3","country_name":"AUSTRALIA","country_ship":null,"country_iso_reporting":"AU","country_sensor_provider":null}},{"type":"Feature","geometry":{"type":"Point","coordinates":[141.4066,-38.4098]},"properties":{"ptf_id":1347617,"ptf_ref":"8901026_006","category":"oceangliders","ptf_model":"Slocum G3","country_name":"AUSTRALIA","country_ship":null,"country_iso_reporting":"AU","country_sensor_provider":null}},{"type":"Feature","geometry":{"type":"Point","coordinates":[115.6157,-31.8611]},"properties":{"ptf_id":1347637,"ptf_ref":"6801514_062","category":"oceangliders","ptf_model":"Slocum G2","country_name":"AUSTRALIA","country_ship":null,"country_iso_reporting":"AU","country_sensor_provider":null}},{"type":"Feature","geometry":{"type":"Point","coordinates":[-63.4057,44.5206]},"properties":{"ptf_id":1348277,"ptf_ref":"4800925_020","category":"oceangliders","ptf_model":"SeaExplorer X2","country_name":"CANADA","country_ship":null,"country_iso_reporting":"CA","country_sensor_provider":null}},{"type":"Feature","geometry":{"type":"Point","coordinates":[-80.0353,25.7773]},"properties":{"ptf_id":1348717,"ptf_ref":"8901219","category":"oceangliders","ptf_model":"Spray","country_name":"USA","country_ship":null,"country_iso_reporting":"US","country_sensor_provider":null}},{"type":"Feature","geometry":{"type":"Point","coordinates":[26.41,-33.9]},"properties":{"ptf_id":1349477,"ptf_ref":"8901202_001","category":"oceangliders","ptf_model":"Slocum G3","country_name":"SOUTH AFRICA","country_ship":null,"country_iso_reporting":"ZA","country_sensor_provider":null}},{"type":"Feature","geometry":{"type":"Point","coordinates":[25.51,-34.11]},"properties":{"ptf_id":1349497,"ptf_ref":"8901201_001","category":"oceangliders","ptf_model":"Slocum G3","country_name":"SOUTH AFRICA","country_ship":null,"country_iso_reporting":"ZA","country_sensor_provider":null}},{"type":"Feature","geometry":{"type":"Point","coordinates":[-127.9929,44.5519]},"properties":{"ptf_id":1350277,"ptf_ref":"8901057_003","category":"oceangliders","ptf_model":"Slocum","country_name":"USA","country_ship":null,"country_iso_reporting":"US","country_sensor_provider":null}},{"type":"Feature","geometry":{"type":"Point","coordinates":[-133.4059,49.8116]},"properties":{"ptf_id":1350877,"ptf_ref":"8900994_008","category":"oceangliders","ptf_model":"Slocum","country_name":"USA","country_ship":null,"country_iso_reporting":"US","country_sensor_provider":null}},{"type":"Feature","geometry":{"type":"Point","coordinates":[-127.584,48.3375]},"properties":{"ptf_id":1350897,"ptf_ref":"8900996_011","category":"oceangliders","ptf_model":"Slocum","country_name":"USA","country_ship":null,"country_iso_reporting":"US","country_sensor_provider":null}},{"type":"Feature","geometry":{"type":"Point","coordinates":[-127.2259,48.6675]},"properties":{"ptf_id":1350917,"ptf_ref":"8900993_001","category":"oceangliders","ptf_model":"Slocum","country_name":"USA","country_ship":null,"country_iso_reporting":"US","country_sensor_provider":null}},{"type":"Feature","geometry":{"type":"Point","coordinates":[-74.14398,38.18161]},"properties":{"ptf_id":1352157,"ptf_ref":"4802973_009","category":"oceangliders","ptf_model":"Slocum","country_name":"USA","country_ship":null,"country_iso_reporting":"US","country_sensor_provider":null}},{"type":"Feature","geometry":{"type":"Point","coordinates":[-74.360371247,38.379254048]},"properties":{"ptf_id":1352177,"ptf_ref":"4802973_010","category":"oceangliders","ptf_model":"Slocum","country_name":"USA","country_ship":null,"country_iso_reporting":"US","country_sensor_provider":null}},{"type":"Feature","geometry":{"type":"Point","coordinates":[-117.28435,32.88755]},"properties":{"ptf_id":1354077,"ptf_ref":"4801910_013","category":"oceangliders","ptf_model":"Spray","country_name":"USA","country_ship":null,"country_iso_reporting":"US","country_sensor_provider":null}},{"type":"Feature","geometry":{"type":"Point","coordinates":[-1.213,59.24]},"properties":{"ptf_id":1355417,"ptf_ref":"6800994_002","category":"oceangliders","ptf_model":"Slocum G2","country_name":"UK","country_ship":null,"country_iso_reporting":"GB","country_sensor_provider":null}},{"type":"Feature","geometry":{"type":"Point","coordinates":[-9.097,57.11]},"properties":{"ptf_id":1355437,"ptf_ref":"6800976","category":"oceangliders","ptf_model":"Seaglider","country_name":"UK","country_ship":null,"country_iso_reporting":"GB","country_sensor_provider":null}},{"type":"Feature","geometry":{"type":"Point","coordinates":[146.7557,-40.9951]},"properties":{"ptf_id":1356157,"ptf_ref":"8901119_004","category":"oceangliders","ptf_model":"Slocum G3","country_name":"AUSTRALIA","country_ship":null,"country_iso_reporting":"AU","country_sensor_provider":null}},{"type":"Feature","geometry":{"type":"Point","coordinates":[151.2143,-34.058]},"properties":{"ptf_id":1356177,"ptf_ref":"6801511_048","category":"oceangliders","ptf_model":"Slocum G2","country_name":"AUSTRALIA","country_ship":null,"country_iso_reporting":"AU","country_sensor_provider":null}},{"type":"Feature","geometry":{"type":"Point","coordinates":[146.3475,-17.7712]},"properties":{"ptf_id":1356197,"ptf_ref":"6801517_055","category":"oceangliders","ptf_model":"Slocum G2","country_name":"AUSTRALIA","country_ship":null,"country_iso_reporting":"AU","country_sensor_provider":null}},{"type":"Feature","geometry":{"type":"Point","coordinates":[152.594,-32.1677]},"properties":{"ptf_id":1356217,"ptf_ref":"8901099_006","category":"oceangliders","ptf_model":"Slocum G3","country_name":"AUSTRALIA","country_ship":null,"country_iso_reporting":"AU","country_sensor_provider":null}},{"type":"Feature","geometry":{"type":"Point","coordinates":[148.416,-41.3067]},"properties":{"ptf_id":1356237,"ptf_ref":"8901119_005","category":"oceangliders","ptf_model":"Slocum G3","country_name":"AUSTRALIA","country_ship":null,"country_iso_reporting":"AU","country_sensor_provider":null}},{"type":"Feature","geometry":{"type":"Point","coordinates":[45.389,-12.831]},"properties":{"ptf_id":1360197,"ptf_ref":"8901048_010","category":"oceangliders","ptf_model":"SeaExplorer X2","country_name":"FRANCE","country_ship":null,"country_iso_reporting":"FR","country_sensor_provider":null}},{"type":"Feature","geometry":{"type":"Point","coordinates":[3.372,39.176]},"properties":{"ptf_id":1360217,"ptf_ref":"8901024_005","category":"oceangliders","ptf_model":"Slocum G3","country_name":"SPAIN","country_ship":"SPAIN","country_iso_reporting":"ES","country_sensor_provider":null}},{"type":"Feature","geometry":{"type":"Point","coordinates":[3.122,39.016]},"properties":{"ptf_id":1360237,"ptf_ref":"6801637_009","category":"oceangliders","ptf_model":"Slocum G3","country_name":"SPAIN","country_ship":"SPAIN","country_iso_reporting":"ES","country_sensor_provider":null}},{"type":"Feature","geometry":{"type":"Point","coordinates":[2.154,39.557]},"properties":{"ptf_id":1360257,"ptf_ref":"6801637_010","category":"oceangliders","ptf_model":"Slocum G3","country_name":"SPAIN","country_ship":"SPAIN","country_iso_reporting":"ES","country_sensor_provider":null}},{"type":"Feature","geometry":{"type":"Point","coordinates":[3.335,39.314]},"properties":{"ptf_id":1360277,"ptf_ref":"6800967_032","category":"oceangliders","ptf_model":"Slocum G3","country_name":"SPAIN","country_ship":"SPAIN","country_iso_reporting":"ES","country_sensor_provider":null}},{"type":"Feature","geometry":{"type":"Point","coordinates":[2.929,39.114]},"properties":{"ptf_id":1360297,"ptf_ref":"6800967_033","category":"oceangliders","ptf_model":"Slocum G3","country_name":"SPAIN","country_ship":"SPAIN","country_iso_reporting":"ES","country_sensor_provider":null}},{"type":"Feature","geometry":{"type":"Point","coordinates":[-48.504,59.374]},"properties":{"ptf_id":1360317,"ptf_ref":"1801553_013","category":"oceangliders","ptf_model":"Slocum G2","country_name":"GERMANY","country_ship":null,"country_iso_reporting":"DE","country_sensor_provider":null}},{"type":"Feature","geometry":{"type":"Point","coordinates":[-48.948,59.446]},"properties":{"ptf_id":1360337,"ptf_ref":"1801554_011","category":"oceangliders","ptf_model":"Slocum G2","country_name":"GERMANY","country_ship":null,"country_iso_reporting":"DE","country_sensor_provider":null}},{"type":"Feature","geometry":{"type":"Point","coordinates":[-49.709,59.433]},"properties":{"ptf_id":1360357,"ptf_ref":"6801625_002","category":"oceangliders","ptf_model":"Slocum G3","country_name":"GERMANY","country_ship":null,"country_iso_reporting":"DE","country_sensor_provider":null}},{"type":"Feature","geometry":{"type":"Point","coordinates":[-62.515,42.758]},"properties":{"ptf_id":1360377,"ptf_ref":"4803924","category":"oceangliders","ptf_model":"Slocum G3","country_name":"CANADA","country_ship":null,"country_iso_reporting":"CA","country_sensor_provider":null}},{"type":"Feature","geometry":{"type":"Point","coordinates":[15.98,55.25]},"properties":{"ptf_id":1360477,"ptf_ref":"8901204_001","category":"oceangliders","ptf_model":"SeaExplorer X2","country_name":"SWEDEN","country_ship":null,"country_iso_reporting":"SE","country_sensor_provider":null}},{"type":"Feature","geometry":{"type":"Point","coordinates":[15.99,55.25]},"properties":{"ptf_id":1360497,"ptf_ref":"8901183_002","category":"oceangliders","ptf_model":"SeaExplorer X2","country_name":"SWEDEN","country_ship":null,"country_iso_reporting":"SE","country_sensor_provider":null}},{"type":"Feature","geometry":{"type":"Point","coordinates":[121.52,-34.51]},"properties":{"ptf_id":1361777,"ptf_ref":"6801514_063","category":"oceangliders","ptf_model":"Slocum G2","country_name":"AUSTRALIA","country_ship":null,"country_iso_reporting":"AU","country_sensor_provider":null}},{"type":"Feature","geometry":{"type":"Point","coordinates":[-120.81038,33.63735]},"properties":{"ptf_id":1362457,"ptf_ref":"4801910_014","category":"oceangliders","ptf_model":"Spray","country_name":"USA","country_ship":null,"country_iso_reporting":"US","country_sensor_provider":null}},{"type":"Feature","geometry":{"type":"Point","coordinates":[-75.22628,37.59327]},"properties":{"ptf_id":1362477,"ptf_ref":"4802902_011","category":"oceangliders","ptf_model":"Slocum","country_name":"USA","country_ship":null,"country_iso_reporting":"US","country_sensor_provider":null}},{"type":"Feature","geometry":{"type":"Point","coordinates":[-80.3677,31.7207]},"properties":{"ptf_id":1362497,"ptf_ref":"8901043_008","category":"oceangliders","ptf_model":"Slocum","country_name":"USA","country_ship":null,"country_iso_reporting":"US","country_sensor_provider":null}},{"type":"Feature","geometry":{"type":"Point","coordinates":[-166.61367,68.79998]},"properties":{"ptf_id":1362537,"ptf_ref":"4802990_003","category":"oceangliders","ptf_model":"Slocum","country_name":"USA","country_ship":null,"country_iso_reporting":"US","country_sensor_provider":null}},{"type":"Feature","geometry":{"type":"Point","coordinates":[151.89,-23.4]},"properties":{"ptf_id":1361797,"ptf_ref":"8901099_007","category":"oceangliders","ptf_model":"Slocum G3","country_name":"AUSTRALIA","country_ship":null,"country_iso_reporting":"AU","country_sensor_provider":null}},{"type":"Feature","geometry":{"type":"Point","coordinates":[-55.6437,12.7454]},"properties":{"ptf_id":1362577,"ptf_ref":"8901230","category":"oceangliders","ptf_model":"Slocum","country_name":"USA","country_ship":null,"country_iso_reporting":"US","country_sensor_provider":null}},{"type":"Feature","geometry":{"type":"Point","coordinates":[-78.9224,31.6344]},"properties":{"ptf_id":1362617,"ptf_ref":"8901197","category":"oceangliders","ptf_model":"Slocum","country_name":"USA","country_ship":null,"country_iso_reporting":"US","country_sensor_provider":null}},{"type":"Feature","geometry":{"type":"Point","coordinates":[-90.9893,27.5255]},"properties":{"ptf_id":1362657,"ptf_ref":"8901195","category":"oceangliders","ptf_model":"Slocum","country_name":"USA","country_ship":null,"country_iso_reporting":"US","country_sensor_provider":null}},{"type":"Feature","geometry":{"type":"Point","coordinates":[-85.1032,27.6691]},"properties":{"ptf_id":1362677,"ptf_ref":"8901196","category":"oceangliders","ptf_model":"Slocum","country_name":"USA","country_ship":null,"country_iso_reporting":"US","country_sensor_provider":null}},{"type":"Feature","geometry":{"type":"Point","coordinates":[-67.0113,17.863]},"properties":{"ptf_id":1362697,"ptf_ref":"8901199","category":"oceangliders","ptf_model":"Slocum","country_name":"USA","country_ship":null,"country_iso_reporting":"US","country_sensor_provider":null}},{"type":"Feature","geometry":{"type":"Point","coordinates":[115.58,-31.88]},"properties":{"ptf_id":1361857,"ptf_ref":"8901205_001","category":"oceangliders","ptf_model":"Slocum G3","country_name":"AUSTRALIA","country_ship":null,"country_iso_reporting":"AU","country_sensor_provider":null}},{"type":"Feature","geometry":{"type":"Point","coordinates":[-63.81063,31.34185]},"properties":{"ptf_id":1361937,"ptf_ref":"4802992_003","category":"oceangliders","ptf_model":"Slocum","country_name":"BERMUDA","country_ship":null,"country_iso_reporting":"BM","country_sensor_provider":null}},{"type":"Feature","geometry":{"type":"Point","coordinates":[-124.3085,44.6403]},"properties":{"ptf_id":1361957,"ptf_ref":"8901112_001","category":"oceangliders","ptf_model":"Slocum","country_name":"USA","country_ship":null,"country_iso_reporting":"US","country_sensor_provider":null}},{"type":"Feature","geometry":{"type":"Point","coordinates":[-74.84855,37.61914]},"properties":{"ptf_id":1362017,"ptf_ref":"4803929_008","category":"oceangliders","ptf_model":"Slocum","country_name":"USA","country_ship":null,"country_iso_reporting":"US","country_sensor_provider":null}},{"type":"Feature","geometry":{"type":"Point","coordinates":[-65.060201705,37.144775882]},"properties":{"ptf_id":1362077,"ptf_ref":"4802934_003","category":"oceangliders","ptf_model":"Slocum","country_name":"USA","country_ship":null,"country_iso_reporting":"US","country_sensor_provider":null}},{"type":"Feature","geometry":{"type":"Point","coordinates":[146.94518,11.91771]},"properties":{"ptf_id":1362097,"ptf_ref":"4803942_002","category":"oceangliders","ptf_model":"Slocum","country_name":"USA","country_ship":null,"country_iso_reporting":"US","country_sensor_provider":null}},{"type":"Feature","geometry":{"type":"Point","coordinates":[-64.5888,37.2389]},"properties":{"ptf_id":1362157,"ptf_ref":"8901153_001","category":"oceangliders","ptf_model":"Slocum","country_name":"USA","country_ship":null,"country_iso_reporting":"US","country_sensor_provider":null}},{"type":"Feature","geometry":{"type":"Point","coordinates":[-70.96975,32.80005]},"properties":{"ptf_id":1362177,"ptf_ref":"4802968_003","category":"oceangliders","ptf_model":"Slocum","country_name":"USA","country_ship":null,"country_iso_reporting":"US","country_sensor_provider":null}},{"type":"Feature","geometry":{"type":"Point","coordinates":[141.868373881,13.522726045]},"properties":{"ptf_id":1362217,"ptf_ref":"4803943_004","category":"oceangliders","ptf_model":"Slocum","country_name":"USA","country_ship":null,"country_iso_reporting":"US","country_sensor_provider":null}},{"type":"Feature","geometry":{"type":"Point","coordinates":[-73.867,40.3674]},"properties":{"ptf_id":1362257,"ptf_ref":"8901068_010","category":"oceangliders","ptf_model":"Slocum","country_name":"USA","country_ship":null,"country_iso_reporting":"US","country_sensor_provider":null}},{"type":"Feature","geometry":{"type":"Point","coordinates":[-158.2714,21.4168]},"properties":{"ptf_id":1362297,"ptf_ref":"8901075_001","category":"oceangliders","ptf_model":"Seaglider","country_name":"USA","country_ship":null,"country_iso_reporting":"US","country_sensor_provider":null}},{"type":"Feature","geometry":{"type":"Point","coordinates":[-96.5334,15.5873]},"properties":{"ptf_id":1362337,"ptf_ref":"8901007_002","category":"oceangliders","ptf_model":"Seaglider","country_name":"MEXICO","country_ship":null,"country_iso_reporting":"MX","country_sensor_provider":null}},{"type":"Feature","geometry":{"type":"Point","coordinates":[-104.4726,18.8554]},"properties":{"ptf_id":1362357,"ptf_ref":"8901011_003","category":"oceangliders","ptf_model":"Seaglider","country_name":"MEXICO","country_ship":null,"country_iso_reporting":"MX","country_sensor_provider":null}},{"type":"Feature","geometry":{"type":"Point","coordinates":[-65.69975,20.85417]},"properties":{"ptf_id":1362397,"ptf_ref":"4803960_002","category":"oceangliders","ptf_model":"Seaglider","country_name":"USA","country_ship":null,"country_iso_reporting":"US","country_sensor_provider":null}},{"type":"Feature","geometry":{"type":"Point","coordinates":[-117.2871,32.8813]},"properties":{"ptf_id":1213657,"ptf_ref":"5801911_001","category":"oceangliders","ptf_model":"Spray","country_name":"USA","country_ship":null,"country_iso_reporting":"US","country_sensor_provider":null}},{"type":"Feature","geometry":{"type":"Point","coordinates":[-2.31,58.99]},"properties":{"ptf_id":1224076,"ptf_ref":"8901130","category":"oceangliders","ptf_model":"Slocum G2","country_name":"UK","country_ship":null,"country_iso_reporting":"GB","country_sensor_provider":null}},{"type":"Feature","geometry":{"type":"Point","coordinates":[146.36,-17.77]},"properties":{"ptf_id":1259677,"ptf_ref":"8901099_003","category":"oceangliders","ptf_model":"Slocum G3","country_name":"AUSTRALIA","country_ship":null,"country_iso_reporting":"AU","country_sensor_provider":null}},{"type":"Feature","geometry":{"type":"Point","coordinates":[11.132534027,58.176017761]},"properties":{"ptf_id":1267997,"ptf_ref":"6801602_008","category":"oceangliders","ptf_model":"SeaExplorer X2","country_name":"SWEDEN","country_ship":"UK","country_iso_reporting":"SE","country_sensor_provider":null}},{"type":"Feature","geometry":{"type":"Point","coordinates":[16.328701019,55.582965851]},"properties":{"ptf_id":1268237,"ptf_ref":"6801507_029","category":"oceangliders","ptf_model":"SeaExplorer X2","country_name":"SWEDEN","country_ship":"UK","country_iso_reporting":"SE","country_sensor_provider":null}},{"type":"Feature","geometry":{"type":"Point","coordinates":[19.693149567,60.001178741]},"properties":{"ptf_id":1268337,"ptf_ref":"8901001_015","category":"oceangliders","ptf_model":"SeaExplorer X2","country_name":"SWEDEN","country_ship":"UK","country_iso_reporting":"SE","country_sensor_provider":null}},{"type":"Feature","geometry":{"type":"Point","coordinates":[-67.02584,17.86462]},"properties":{"ptf_id":1270817,"ptf_ref":"4802947_004","category":"oceangliders","ptf_model":"Seaglider","country_name":"USA","country_ship":null,"country_iso_reporting":"US","country_sensor_provider":null}},{"type":"Feature","geometry":{"type":"Point","coordinates":[-69.60191,18.33001]},"properties":{"ptf_id":1270837,"ptf_ref":"4802949_005","category":"oceangliders","ptf_model":"Seaglider","country_name":"USA","country_ship":null,"country_iso_reporting":"US","country_sensor_provider":null}},{"type":"Feature","geometry":{"type":"Point","coordinates":[-68.27184,21.05724]},"properties":{"ptf_id":1270857,"ptf_ref":"4802952_003","category":"oceangliders","ptf_model":"Seaglider","country_name":"USA","country_ship":null,"country_iso_reporting":"US","country_sensor_provider":null}},{"type":"Feature","geometry":{"type":"Point","coordinates":[-67.01987,17.86272]},"properties":{"ptf_id":1270877,"ptf_ref":"4802954_003","category":"oceangliders","ptf_model":"Seaglider","country_name":"USA","country_ship":null,"country_iso_reporting":"US","country_sensor_provider":null}},{"type":"Feature","geometry":{"type":"Point","coordinates":[-76.07282,24.64466]},"properties":{"ptf_id":1270897,"ptf_ref":"4803960_001","category":"oceangliders","ptf_model":"Seaglider","country_name":"USA","country_ship":null,"country_iso_reporting":"US","country_sensor_provider":null}},{"type":"Feature","geometry":{"type":"Point","coordinates":[-119.7866,34.2873]},"properties":{"ptf_id":1270937,"ptf_ref":"4802946_010","category":"oceangliders","ptf_model":"Spray","country_name":"USA","country_ship":null,"country_iso_reporting":"US","country_sensor_provider":null}},{"type":"Feature","geometry":{"type":"Point","coordinates":[-123.2942,38.2346]},"properties":{"ptf_id":1270957,"ptf_ref":"3801503_007","category":"oceangliders","ptf_model":"Spray","country_name":"USA","country_ship":null,"country_iso_reporting":"US","country_sensor_provider":null}},{"type":"Feature","geometry":{"type":"Point","coordinates":[-125.51403,38.15695]},"properties":{"ptf_id":1270997,"ptf_ref":"4801921_015","category":"oceangliders","ptf_model":"Spray","country_name":"USA","country_ship":null,"country_iso_reporting":"US","country_sensor_provider":null}},{"type":"Feature","geometry":{"type":"Point","coordinates":[-117.29015,32.8779]},"properties":{"ptf_id":1271017,"ptf_ref":"4801910_009","category":"oceangliders","ptf_model":"Spray","country_name":"USA","country_ship":null,"country_iso_reporting":"US","country_sensor_provider":null}},{"type":"Feature","geometry":{"type":"Point","coordinates":[-117.31615,32.90505]},"properties":{"ptf_id":1271037,"ptf_ref":"4801948_010","category":"oceangliders","ptf_model":"Spray","country_name":"USA","country_ship":null,"country_iso_reporting":"US","country_sensor_provider":null}},{"type":"Feature","geometry":{"type":"Point","coordinates":[-121.90427,36.8104]},"properties":{"ptf_id":1271097,"ptf_ref":"4801922_014","category":"oceangliders","ptf_model":"Spray","country_name":"USA","country_ship":null,"country_iso_reporting":"US","country_sensor_provider":null}},{"type":"Feature","geometry":{"type":"Point","coordinates":[-117.28592,32.88182]},"properties":{"ptf_id":1271117,"ptf_ref":"4801976_009","category":"oceangliders","ptf_model":"Spray","country_name":"USA","country_ship":null,"country_iso_reporting":"US","country_sensor_provider":null}},{"type":"Feature","geometry":{"type":"Point","coordinates":[-67.02626,17.86342]},"properties":{"ptf_id":1271257,"ptf_ref":"4802996_003","category":"oceangliders","ptf_model":"Seaglider","country_name":"USA","country_ship":null,"country_iso_reporting":"US","country_sensor_provider":null}},{"type":"Feature","geometry":{"type":"Point","coordinates":[-83.47917,26.87844]},"properties":{"ptf_id":1271357,"ptf_ref":"4801915_002","category":"oceangliders","ptf_model":"Slocum","country_name":"USA","country_ship":null,"country_iso_reporting":"US","country_sensor_provider":null}},{"type":"Feature","geometry":{"type":"Point","coordinates":[-95.70418,26.87054]},"properties":{"ptf_id":1271397,"ptf_ref":"4801938_004","category":"oceangliders","ptf_model":"Slocum","country_name":"USA","country_ship":null,"country_iso_reporting":"US","country_sensor_provider":null}},{"type":"Feature","geometry":{"type":"Point","coordinates":[-83.56464,28.08587]},"properties":{"ptf_id":1271477,"ptf_ref":"4801918_015","category":"oceangliders","ptf_model":"Slocum","country_name":"USA","country_ship":null,"country_iso_reporting":"US","country_sensor_provider":null}},{"type":"Feature","geometry":{"type":"Point","coordinates":[-83.71509,27.88178]},"properties":{"ptf_id":1271537,"ptf_ref":"4803937_013","category":"oceangliders","ptf_model":"Slocum","country_name":"USA","country_ship":null,"country_iso_reporting":"US","country_sensor_provider":null}},{"type":"Feature","geometry":{"type":"Point","coordinates":[-124.9029,46.9076]},"properties":{"ptf_id":1273672,"ptf_ref":"8901158","category":"oceangliders","ptf_model":"Seaglider","country_name":"USA","country_ship":null,"country_iso_reporting":"US","country_sensor_provider":null}},{"type":"Feature","geometry":{"type":"Point","coordinates":[-80.0615,25.7452]},"properties":{"ptf_id":1279322,"ptf_ref":"8901160","category":"oceangliders","ptf_model":"Spray","country_name":"USA","country_ship":null,"country_iso_reporting":"US","country_sensor_provider":null}},{"type":"Feature","geometry":{"type":"Point","coordinates":[-63.40081,44.52146]},"properties":{"ptf_id":1285177,"ptf_ref":"4800937_014","category":"oceangliders","ptf_model":"SeaExplorer X2","country_name":"CANADA","country_ship":null,"country_iso_reporting":"CA","country_sensor_provider":null}},{"type":"Feature","geometry":{"type":"Point","coordinates":[-125.186,48.887]},"properties":{"ptf_id":1285197,"ptf_ref":"4803917_016","category":"oceangliders","ptf_model":"SeaExplorer X2","country_name":"CANADA","country_ship":null,"country_iso_reporting":"CA","country_sensor_provider":null}},{"type":"Feature","geometry":{"type":"Point","coordinates":[-63.298,44.249]},"properties":{"ptf_id":1285417,"ptf_ref":"4800993_022","category":"oceangliders","ptf_model":"SeaExplorer X2","country_name":"CANADA","country_ship":null,"country_iso_reporting":"CA","country_sensor_provider":null}},{"type":"Feature","geometry":{"type":"Point","coordinates":[-63.25635,44.21638]},"properties":{"ptf_id":1285437,"ptf_ref":"4800937_015","category":"oceangliders","ptf_model":"SeaExplorer X2","country_name":"CANADA","country_ship":null,"country_iso_reporting":"CA","country_sensor_provider":null}},{"type":"Feature","geometry":{"type":"Point","coordinates":[-117.3031,32.8918]},"properties":{"ptf_id":1298897,"ptf_ref":"8901178","category":"oceangliders","ptf_model":"Spray","country_name":"USA","country_ship":null,"country_iso_reporting":"US","country_sensor_provider":null}},{"type":"Feature","geometry":{"type":"Point","coordinates":[-126.1,48.8]},"properties":{"ptf_id":1306397,"ptf_ref":"8900994_005","category":"oceangliders","ptf_model":"Slocum G3","country_name":"CANADA","country_ship":null,"country_iso_reporting":"CA","country_sensor_provider":null}},{"type":"Feature","geometry":{"type":"Point","coordinates":[-62.037,43.13]},"properties":{"ptf_id":1307417,"ptf_ref":"4800937_016","category":"oceangliders","ptf_model":"SeaExplorer X2","country_name":"CANADA","country_ship":null,"country_iso_reporting":"CA","country_sensor_provider":null}},{"type":"Feature","geometry":{"type":"Point","coordinates":[-63.411,44.52]},"properties":{"ptf_id":1321317,"ptf_ref":"4800925_019","category":"oceangliders","ptf_model":"SeaExplorer X2","country_name":"CANADA","country_ship":null,"country_iso_reporting":"CA","country_sensor_provider":null}},{"type":"Feature","geometry":{"type":"Point","coordinates":[7.297,43.658]},"properties":{"ptf_id":1321717,"ptf_ref":"8901012_012","category":"oceangliders","ptf_model":"SeaExplorer X2","country_name":"FRANCE","country_ship":null,"country_iso_reporting":"FR","country_sensor_provider":null}},{"type":"Feature","geometry":{"type":"Point","coordinates":[45.3231,-12.8908]},"properties":{"ptf_id":1321737,"ptf_ref":"6801558_013","category":"oceangliders","ptf_model":"SeaExplorer X2","country_name":"FRANCE","country_ship":null,"country_iso_reporting":"FR","country_sensor_provider":null}},{"type":"Feature","geometry":{"type":"Point","coordinates":[45.30987,-12.88128]},"properties":{"ptf_id":1321757,"ptf_ref":"6801558_014","category":"oceangliders","ptf_model":"SeaExplorer X2","country_name":"FRANCE","country_ship":null,"country_iso_reporting":"FR","country_sensor_provider":null}},{"type":"Feature","geometry":{"type":"Point","coordinates":[45.34122,-12.84075]},"properties":{"ptf_id":1321777,"ptf_ref":"6801558_015","category":"oceangliders","ptf_model":"SeaExplorer X2","country_name":"FRANCE","country_ship":null,"country_iso_reporting":"FR","country_sensor_provider":null}},{"type":"Feature","geometry":{"type":"Point","coordinates":[45.3231,-12.8908]},"properties":{"ptf_id":1321797,"ptf_ref":"6801558_016","category":"oceangliders","ptf_model":"SeaExplorer X2","country_name":"FRANCE","country_ship":null,"country_iso_reporting":"FR","country_sensor_provider":null}},{"type":"Feature","geometry":{"type":"Point","coordinates":[45.30286,-12.88026]},"properties":{"ptf_id":1321817,"ptf_ref":"6801558_017","category":"oceangliders","ptf_model":"SeaExplorer X2","country_name":"FRANCE","country_ship":null,"country_iso_reporting":"FR","country_sensor_provider":null}},{"type":"Feature","geometry":{"type":"Point","coordinates":[45.3231,-12.8908]},"properties":{"ptf_id":1321877,"ptf_ref":"8901048_003","category":"oceangliders","ptf_model":"SeaExplorer X2","country_name":"FRANCE","country_ship":null,"country_iso_reporting":"FR","country_sensor_provider":null}},{"type":"Feature","geometry":{"type":"Point","coordinates":[45.38,-12.821]},"properties":{"ptf_id":1321897,"ptf_ref":"8901048_004","category":"oceangliders","ptf_model":"SeaExplorer X2","country_name":"FRANCE","country_ship":null,"country_iso_reporting":"FR","country_sensor_provider":null}},{"type":"Feature","geometry":{"type":"Point","coordinates":[45.381,-12.832]},"properties":{"ptf_id":1321917,"ptf_ref":"8901048_005","category":"oceangliders","ptf_model":"SeaExplorer X2","country_name":"FRANCE","country_ship":null,"country_iso_reporting":"FR","country_sensor_provider":null}},{"type":"Feature","geometry":{"type":"Point","coordinates":[-80.0443,25.7181]},"properties":{"ptf_id":1321937,"ptf_ref":"8901189","category":"oceangliders","ptf_model":"Spray","country_name":"USA","country_ship":null,"country_iso_reporting":"US","country_sensor_provider":null}},{"type":"Feature","geometry":{"type":"Point","coordinates":[1.96322,39.36693]},"properties":{"ptf_id":1321957,"ptf_ref":"6801637_008","category":"oceangliders","ptf_model":"Slocum G3","country_name":"SPAIN","country_ship":"SPAIN","country_iso_reporting":"ES","country_sensor_provider":null}},{"type":"Feature","geometry":{"type":"Point","coordinates":[19.449249268,59.948265076]},"properties":{"ptf_id":1335117,"ptf_ref":"8901050_022","category":"oceangliders","ptf_model":"SeaExplorer X2","country_name":"SWEDEN","country_ship":"UK","country_iso_reporting":"SE","country_sensor_provider":null}},{"type":"Feature","geometry":{"type":"Point","coordinates":[146.3679,-17.7759]},"properties":{"ptf_id":1340417,"ptf_ref":"6801517_053","category":"oceangliders","ptf_model":"Slocum G2","country_name":"AUSTRALIA","country_ship":null,"country_iso_reporting":"AU","country_sensor_provider":null}},{"type":"Feature","geometry":{"type":"Point","coordinates":[115.6102,-31.8997]},"properties":{"ptf_id":1340437,"ptf_ref":"6801511_047","category":"oceangliders","ptf_model":"Slocum G2","country_name":"AUSTRALIA","country_ship":null,"country_iso_reporting":"AU","country_sensor_provider":null}},{"type":"Feature","geometry":{"type":"Point","coordinates":[15.98,55.25]},"properties":{"ptf_id":1343026,"ptf_ref":"6801675_016","category":"oceangliders","ptf_model":"SeaExplorer X2","country_name":"SWEDEN","country_ship":null,"country_iso_reporting":"SE","country_sensor_provider":null}},{"type":"Feature","geometry":{"type":"Point","coordinates":[-82.882245374,26.261118713]},"properties":{"ptf_id":1343317,"ptf_ref":"4802994_017","category":"oceangliders","ptf_model":"Slocum","country_name":"USA","country_ship":null,"country_iso_reporting":"US","country_sensor_provider":null}},{"type":"Feature","geometry":{"type":"Point","coordinates":[-64.051434206,-64.817792014]},"properties":{"ptf_id":1343337,"ptf_ref":"4802966_003","category":"oceangliders","ptf_model":"Slocum G2","country_name":"USA","country_ship":null,"country_iso_reporting":"US","country_sensor_provider":null}},{"type":"Feature","geometry":{"type":"Point","coordinates":[-73.763217578,39.182321153]},"properties":{"ptf_id":1343357,"ptf_ref":"4801946_013","category":"oceangliders","ptf_model":"Slocum G2","country_name":"USA","country_ship":null,"country_iso_reporting":"US","country_sensor_provider":null}},{"type":"Feature","geometry":{"type":"Point","coordinates":[-74.24,38.86]},"properties":{"ptf_id":1343377,"ptf_ref":"8901042_009","category":"oceangliders","ptf_model":"Slocum G3","country_name":"USA","country_ship":null,"country_iso_reporting":"US","country_sensor_provider":null}},{"type":"Feature","geometry":{"type":"Point","coordinates":[-74.23,38.86]},"properties":{"ptf_id":1343397,"ptf_ref":"8901068_005","category":"oceangliders","ptf_model":"Slocum G3","country_name":"USA","country_ship":null,"country_iso_reporting":"US","country_sensor_provider":null}},{"type":"Feature","geometry":{"type":"Point","coordinates":[-71.964307004,39.719559304]},"properties":{"ptf_id":1343417,"ptf_ref":"4802959_013","category":"oceangliders","ptf_model":"Slocum","country_name":"USA","country_ship":null,"country_iso_reporting":"US","country_sensor_provider":null}},{"type":"Feature","geometry":{"type":"Point","coordinates":[-77.04,24.68]},"properties":{"ptf_id":1343437,"ptf_ref":"8901095_003","category":"oceangliders","ptf_model":"Seaglider SGX","country_name":"USA","country_ship":null,"country_iso_reporting":"US","country_sensor_provider":null}},{"type":"Feature","geometry":{"type":"Point","coordinates":[-124.5278,40.8341]},"properties":{"ptf_id":1343457,"ptf_ref":"8901088_002","category":"oceangliders","ptf_model":"Seaglider","country_name":"USA","country_ship":null,"country_iso_reporting":"US","country_sensor_provider":null}},{"type":"Feature","geometry":{"type":"Point","coordinates":[-117.28745,32.8858]},"properties":{"ptf_id":1343477,"ptf_ref":"4801912_015","category":"oceangliders","ptf_model":"Spray","country_name":"USA","country_ship":null,"country_iso_reporting":"US","country_sensor_provider":null}},{"type":"Feature","geometry":{"type":"Point","coordinates":[-119.72975,34.35005]},"properties":{"ptf_id":1343497,"ptf_ref":"4802946_012","category":"oceangliders","ptf_model":"Spray","country_name":"USA","country_ship":null,"country_iso_reporting":"US","country_sensor_provider":null}},{"type":"Feature","geometry":{"type":"Point","coordinates":[-123.174775,38.254325]},"properties":{"ptf_id":1343517,"ptf_ref":"4801921_017","category":"oceangliders","ptf_model":"Spray","country_name":"USA","country_ship":null,"country_iso_reporting":"US","country_sensor_provider":null}},{"type":"Feature","geometry":{"type":"Point","coordinates":[-120.458725,33.159775]},"properties":{"ptf_id":1343537,"ptf_ref":"4801948_012","category":"oceangliders","ptf_model":"Spray","country_name":"USA","country_ship":null,"country_iso_reporting":"US","country_sensor_provider":null}},{"type":"Feature","geometry":{"type":"Point","coordinates":[-121.887588806,36.789545522]},"properties":{"ptf_id":1343557,"ptf_ref":"4801922_016","category":"oceangliders","ptf_model":"Spray","country_name":"USA","country_ship":null,"country_iso_reporting":"US","country_sensor_provider":null}},{"type":"Feature","geometry":{"type":"Point","coordinates":[-117.59965,33.176525]},"properties":{"ptf_id":1343577,"ptf_ref":"4801976_012","category":"oceangliders","ptf_model":"Spray","country_name":"USA","country_ship":null,"country_iso_reporting":"US","country_sensor_provider":null}},{"type":"Feature","geometry":{"type":"Point","coordinates":[-71.4,40.94]},"properties":{"ptf_id":1343597,"ptf_ref":"8901118_002","category":"oceangliders","ptf_model":"Slocum","country_name":"USA","country_ship":null,"country_iso_reporting":"US","country_sensor_provider":null}},{"type":"Feature","geometry":{"type":"Point","coordinates":[-71.4,40.96]},"properties":{"ptf_id":1343617,"ptf_ref":"8901118_003","category":"oceangliders","ptf_model":"Slocum","country_name":"USA","country_ship":null,"country_iso_reporting":"US","country_sensor_provider":null}},{"type":"Feature","geometry":{"type":"Point","coordinates":[-148.731828756,59.028628143]},"properties":{"ptf_id":1343637,"ptf_ref":"4802987_002","category":"oceangliders","ptf_model":"Slocum","country_name":"USA","country_ship":null,"country_iso_reporting":"US","country_sensor_provider":null}},{"type":"Feature","geometry":{"type":"Point","coordinates":[-84.11231122,27.349022761]},"properties":{"ptf_id":1343657,"ptf_ref":"4801918_017","category":"oceangliders","ptf_model":"Slocum","country_name":"USA","country_ship":null,"country_iso_reporting":"US","country_sensor_provider":null}},{"type":"Feature","geometry":{"type":"Point","coordinates":[-83.274559678,27.831008777]},"properties":{"ptf_id":1343677,"ptf_ref":"4801918_018","category":"oceangliders","ptf_model":"Slocum","country_name":"USA","country_ship":null,"country_iso_reporting":"US","country_sensor_provider":null}},{"type":"Feature","geometry":{"type":"Point","coordinates":[-83.762122269,27.530091628]},"properties":{"ptf_id":1343697,"ptf_ref":"4803937_019","category":"oceangliders","ptf_model":"Slocum","country_name":"USA","country_ship":null,"country_iso_reporting":"US","country_sensor_provider":null}},{"type":"Feature","geometry":{"type":"Point","coordinates":[-83.82688,27.56511]},"properties":{"ptf_id":1343717,"ptf_ref":"4801942_024","category":"oceangliders","ptf_model":"Slocum","country_name":"USA","country_ship":null,"country_iso_reporting":"US","country_sensor_provider":null}},{"type":"Feature","geometry":{"type":"Point","coordinates":[-69.04,12.36]},"properties":{"ptf_id":1343737,"ptf_ref":"8901044_006","category":"oceangliders","ptf_model":"Slocum","country_name":"USA","country_ship":null,"country_iso_reporting":"US","country_sensor_provider":null}},{"type":"Feature","geometry":{"type":"Point","coordinates":[19.540283203,60.045669556]},"properties":{"ptf_id":1343757,"ptf_ref":"6801506_022","category":"oceangliders","ptf_model":"SeaExplorer X2","country_name":"SWEDEN","country_ship":"UK","country_iso_reporting":"SE","country_sensor_provider":null}},{"type":"Feature","geometry":{"type":"Point","coordinates":[10.828816414,58.361049652]},"properties":{"ptf_id":1343758,"ptf_ref":"6801602_009","category":"oceangliders","ptf_model":"SeaExplorer X2","country_name":"SWEDEN","country_ship":"UK","country_iso_reporting":"SE","country_sensor_provider":null}},{"type":"Feature","geometry":{"type":"Point","coordinates":[19.67886734,57.916202545]},"properties":{"ptf_id":1343759,"ptf_ref":"6801665_021","category":"oceangliders","ptf_model":"SeaExplorer X2","country_name":"SWEDEN","country_ship":"UK","country_iso_reporting":"SE","country_sensor_provider":null}},{"type":"Feature","geometry":{"type":"Point","coordinates":[16.340314865,55.583049774]},"properties":{"ptf_id":1343763,"ptf_ref":"6801507_031","category":"oceangliders","ptf_model":"SeaExplorer X2","country_name":"SWEDEN","country_ship":"UK","country_iso_reporting":"SE","country_sensor_provider":null}},{"type":"Feature","geometry":{"type":"Point","coordinates":[-63.4061,44.52027]},"properties":{"ptf_id":1344357,"ptf_ref":"4800937_017","category":"oceangliders","ptf_model":"SeaExplorer X2","country_name":"CANADA","country_ship":null,"country_iso_reporting":"CA","country_sensor_provider":null}},{"type":"Feature","geometry":{"type":"Point","coordinates":[-63.314,44.386]},"properties":{"ptf_id":1344477,"ptf_ref":"4800994_013","category":"oceangliders","ptf_model":"SeaExplorer X2","country_name":"CANADA","country_ship":null,"country_iso_reporting":"CA","country_sensor_provider":null}},{"type":"Feature","geometry":{"type":"Point","coordinates":[-63.318,44.366]},"properties":{"ptf_id":1344497,"ptf_ref":"4800926_014","category":"oceangliders","ptf_model":"SeaExplorer X2","country_name":"CANADA","country_ship":null,"country_iso_reporting":"CA","country_sensor_provider":null}},{"type":"Feature","geometry":{"type":"Point","coordinates":[-58.656,13.096]},"properties":{"ptf_id":1344517,"ptf_ref":"8901203","category":"oceangliders","ptf_model":"SeaExplorer X2","country_name":"FRANCE","country_ship":null,"country_iso_reporting":"FR","country_sensor_provider":null}},{"type":"Feature","geometry":{"type":"Point","coordinates":[-2.357,59.05]},"properties":{"ptf_id":1344677,"ptf_ref":"6801585","category":"oceangliders","ptf_model":"Slocum G3","country_name":"UK","country_ship":null,"country_iso_reporting":"GB","country_sensor_provider":null}},{"type":"Feature","geometry":{"type":"Point","coordinates":[-9.448,57.14]},"properties":{"ptf_id":1344717,"ptf_ref":"6800942_001","category":"oceangliders","ptf_model":"Seaglider","country_name":"UK","country_ship":null,"country_iso_reporting":"GB","country_sensor_provider":null}},{"type":"Feature","geometry":{"type":"Point","coordinates":[-6.957,56.77]},"properties":{"ptf_id":1344737,"ptf_ref":"6801562_002","category":"oceangliders","ptf_model":"Seaglider","country_name":"UK","country_ship":null,"country_iso_reporting":"GB","country_sensor_provider":null}},{"type":"Feature","geometry":{"type":"Point","coordinates":[-64.141,35.83]},"properties":{"ptf_id":1344757,"ptf_ref":"6801548","category":"oceangliders","ptf_model":"Slocum G2","country_name":"UK","country_ship":null,"country_iso_reporting":"GB","country_sensor_provider":null}},{"type":"Feature","geometry":{"type":"Point","coordinates":[-72.237,34.95]},"properties":{"ptf_id":1344797,"ptf_ref":"6801588","category":"oceangliders","ptf_model":"Slocum G3 Shallow","country_name":"UK","country_ship":null,"country_iso_reporting":"GB","country_sensor_provider":null}},{"type":"Feature","geometry":{"type":"Point","coordinates":[-69.085,35.24]},"properties":{"ptf_id":1344817,"ptf_ref":"6801556_032","category":"oceangliders","ptf_model":"Slocum G3 Shallow","country_name":"UK","country_ship":null,"country_iso_reporting":"GB","country_sensor_provider":null}},{"type":"Feature","geometry":{"type":"Point","coordinates":[-74.8978,35.8639]},"properties":{"ptf_id":1346277,"ptf_ref":"8901206","category":"oceangliders","ptf_model":"Slocum","country_name":"USA","country_ship":null,"country_iso_reporting":"US","country_sensor_provider":null}},{"type":"Feature","geometry":{"type":"Point","coordinates":[-75.1409,35.8619]},"properties":{"ptf_id":1346278,"ptf_ref":"8901207","category":"oceangliders","ptf_model":"Slocum","country_name":"USA","country_ship":null,"country_iso_reporting":"US","country_sensor_provider":null}},{"type":"Feature","geometry":{"type":"Point","coordinates":[5.2053,59.4872]},"properties":{"ptf_id":1346600,"ptf_ref":"8901208","category":"oceangliders","ptf_model":"SeaExplorer X3","country_name":"NORWAY","country_ship":null,"country_iso_reporting":"NO","country_sensor_provider":null}},{"type":"Feature","geometry":{"type":"Point","coordinates":[-125.24003,48.86806]},"properties":{"ptf_id":1346717,"ptf_ref":"4803917_017","category":"oceangliders","ptf_model":"SeaExplorer X2","country_name":"CANADA","country_ship":null,"country_iso_reporting":"CA","country_sensor_provider":null}},{"type":"Feature","geometry":{"type":"Point","coordinates":[-125.954728065,48.62216391]},"properties":{"ptf_id":1347117,"ptf_ref":"4803917_018","category":"oceangliders","ptf_model":"SeaExplorer X2","country_name":"CANADA","country_ship":null,"country_iso_reporting":"CA","country_sensor_provider":null}},{"type":"Feature","geometry":{"type":"Point","coordinates":[-65.6038,43.1602]},"properties":{"ptf_id":1347137,"ptf_ref":"8901107_001","category":"oceangliders","ptf_model":"Slocum G3","country_name":"CANADA","country_ship":null,"country_iso_reporting":"CA","country_sensor_provider":null}},{"type":"Feature","geometry":{"type":"Point","coordinates":[-130.361,73.4312]},"properties":{"ptf_id":1347157,"ptf_ref":"4803927_004","category":"oceangliders","ptf_model":"Slocum G2","country_name":"CANADA","country_ship":null,"country_iso_reporting":"CA","country_sensor_provider":null}},{"type":"Feature","geometry":{"type":"Point","coordinates":[-134.4502,49.3046]},"properties":{"ptf_id":1347177,"ptf_ref":"8900994_007","category":"oceangliders","ptf_model":"Slocum","country_name":"CANADA","country_ship":null,"country_iso_reporting":"CA","country_sensor_provider":null}},{"type":"Feature","geometry":{"type":"Point","coordinates":[7.295,43.663]},"properties":{"ptf_id":1347977,"ptf_ref":"8901012_014","category":"oceangliders","ptf_model":"SeaExplorer X2","country_name":"FRANCE","country_ship":null,"country_iso_reporting":"FR","country_sensor_provider":null}},{"type":"Feature","geometry":{"type":"Point","coordinates":[7.484,43.35]},"properties":{"ptf_id":1347997,"ptf_ref":"6801701_002","category":"oceangliders","ptf_model":"SeaExplorer X2","country_name":"FRANCE","country_ship":null,"country_iso_reporting":"FR","country_sensor_provider":null}},{"type":"Feature","geometry":{"type":"Point","coordinates":[45.3231,-12.8908]},"properties":{"ptf_id":1348017,"ptf_ref":"8901048_007","category":"oceangliders","ptf_model":"SeaExplorer X2","country_name":"FRANCE","country_ship":null,"country_iso_reporting":"FR","country_sensor_provider":null}},{"type":"Feature","geometry":{"type":"Point","coordinates":[45.3231,-12.8908]},"properties":{"ptf_id":1348037,"ptf_ref":"8901048_008","category":"oceangliders","ptf_model":"SeaExplorer X2","country_name":"FRANCE","country_ship":null,"country_iso_reporting":"FR","country_sensor_provider":null}},{"type":"Feature","geometry":{"type":"Point","coordinates":[45.3231,-12.8908]},"properties":{"ptf_id":1348057,"ptf_ref":"8901048_009","category":"oceangliders","ptf_model":"SeaExplorer X2","country_name":"FRANCE","country_ship":null,"country_iso_reporting":"FR","country_sensor_provider":null}},{"type":"Feature","geometry":{"type":"Point","coordinates":[-74.633908993,36.073373689]},"properties":{"ptf_id":1349537,"ptf_ref":"4801968_009","category":"oceangliders","ptf_model":"Slocum","country_name":"USA","country_ship":null,"country_iso_reporting":"US","country_sensor_provider":null}},{"type":"Feature","geometry":{"type":"Point","coordinates":[-74.689517678,36.153865144]},"properties":{"ptf_id":1349557,"ptf_ref":"4801989_005","category":"oceangliders","ptf_model":"Slocum","country_name":"USA","country_ship":null,"country_iso_reporting":"US","country_sensor_provider":null}},{"type":"Feature","geometry":{"type":"Point","coordinates":[-124.994,47.5004]},"properties":{"ptf_id":1349577,"ptf_ref":"8901087_004","category":"oceangliders","ptf_model":"Slocum","country_name":"USA","country_ship":null,"country_iso_reporting":"US","country_sensor_provider":null}},{"type":"Feature","geometry":{"type":"Point","coordinates":[-80.12541,19.49925]},"properties":{"ptf_id":1349597,"ptf_ref":"4803972_002","category":"oceangliders","ptf_model":"Slocum","country_name":"USA","country_ship":null,"country_iso_reporting":"US","country_sensor_provider":null}},{"type":"Feature","geometry":{"type":"Point","coordinates":[-74.3094,38.8696]},"properties":{"ptf_id":1349617,"ptf_ref":"8901042_010","category":"oceangliders","ptf_model":"Slocum","country_name":"USA","country_ship":null,"country_iso_reporting":"US","country_sensor_provider":null}},{"type":"Feature","geometry":{"type":"Point","coordinates":[-74.3031,38.8814]},"properties":{"ptf_id":1349637,"ptf_ref":"8901068_008","category":"oceangliders","ptf_model":"Slocum","country_name":"USA","country_ship":null,"country_iso_reporting":"US","country_sensor_provider":null}},{"type":"Feature","geometry":{"type":"Point","coordinates":[-72.325617591,40.738295255]},"properties":{"ptf_id":1349657,"ptf_ref":"4802959_014","category":"oceangliders","ptf_model":"Slocum","country_name":"USA","country_ship":null,"country_iso_reporting":"US","country_sensor_provider":null}},{"type":"Feature","geometry":{"type":"Point","coordinates":[-123.6913,36.01003]},"properties":{"ptf_id":1349677,"ptf_ref":"4801900_017","category":"oceangliders","ptf_model":"Spray","country_name":"USA","country_ship":null,"country_iso_reporting":"US","country_sensor_provider":null}},{"type":"Feature","geometry":{"type":"Point","coordinates":[-149.005443885,59.474270319]},"properties":{"ptf_id":1349697,"ptf_ref":"6801537_002","category":"oceangliders","ptf_model":"Slocum","country_name":"USA","country_ship":null,"country_iso_reporting":"US","country_sensor_provider":null}},{"type":"Feature","geometry":{"type":"Point","coordinates":[-148.698846019,59.042581232]},"properties":{"ptf_id":1349717,"ptf_ref":"6801538_003","category":"oceangliders","ptf_model":"Slocum","country_name":"USA","country_ship":null,"country_iso_reporting":"US","country_sensor_provider":null}},{"type":"Feature","geometry":{"type":"Point","coordinates":[-67.1852,18.5653]},"properties":{"ptf_id":1349737,"ptf_ref":"8901045_004","category":"oceangliders","ptf_model":"Slocum","country_name":"USA","country_ship":null,"country_iso_reporting":"US","country_sensor_provider":null}},{"type":"Feature","geometry":{"type":"Point","coordinates":[-54.66613,11.9885]},"properties":{"ptf_id":1349777,"ptf_ref":"4802960_011","category":"oceangliders","ptf_model":"Slocum","country_name":"USA","country_ship":null,"country_iso_reporting":"US","country_sensor_provider":null}},{"type":"Feature","geometry":{"type":"Point","coordinates":[-73.8668,40.2424]},"properties":{"ptf_id":1349797,"ptf_ref":"8901068_009","category":"oceangliders","ptf_model":"Slocum","country_name":"USA","country_ship":null,"country_iso_reporting":"US","country_sensor_provider":null}},{"type":"Feature","geometry":{"type":"Point","coordinates":[-71.803525,39.845926667]},"properties":{"ptf_id":1349817,"ptf_ref":"4802959_015","category":"oceangliders","ptf_model":"Slocum","country_name":"USA","country_ship":null,"country_iso_reporting":"US","country_sensor_provider":null}},{"type":"Feature","geometry":{"type":"Point","coordinates":[-123.57425,38.38605]},"properties":{"ptf_id":1349837,"ptf_ref":"3801503_010","category":"oceangliders","ptf_model":"Spray","country_name":"USA","country_ship":null,"country_iso_reporting":"US","country_sensor_provider":null}},{"type":"Feature","geometry":{"type":"Point","coordinates":[-121.4697,34.014]},"properties":{"ptf_id":1349857,"ptf_ref":"4801930_019","category":"oceangliders","ptf_model":"Spray","country_name":"USA","country_ship":null,"country_iso_reporting":"US","country_sensor_provider":null}},{"type":"Feature","geometry":{"type":"Point","coordinates":[-80.6876,31.342]},"properties":{"ptf_id":1355077,"ptf_ref":"8901043_007","category":"oceangliders","ptf_model":"Slocum","country_name":"USA","country_ship":null,"country_iso_reporting":"US","country_sensor_provider":null}},{"type":"Feature","geometry":{"type":"Point","coordinates":[19.669565201,57.932697296]},"properties":{"ptf_id":1355197,"ptf_ref":"6801506_024","category":"oceangliders","ptf_model":"SeaExplorer X2","country_name":"SWEDEN","country_ship":"UK","country_iso_reporting":"SE","country_sensor_provider":null}},{"type":"Feature","geometry":{"type":"Point","coordinates":[19.66,57.91]},"properties":{"ptf_id":1355217,"ptf_ref":"6801506_025","category":"oceangliders","ptf_model":"SeaExplorer X2","country_name":"SWEDEN","country_ship":null,"country_iso_reporting":"SE","country_sensor_provider":null}},{"type":"Feature","geometry":{"type":"Point","coordinates":[16.664899826,55.719703674]},"properties":{"ptf_id":1355237,"ptf_ref":"6801507_032","category":"oceangliders","ptf_model":"SeaExplorer X2","country_name":"SWEDEN","country_ship":"UK","country_iso_reporting":"SE","country_sensor_provider":null}},{"type":"Feature","geometry":{"type":"Point","coordinates":[16.352182388,55.568603516]},"properties":{"ptf_id":1355257,"ptf_ref":"6801675_018","category":"oceangliders","ptf_model":"SeaExplorer X2","country_name":"SWEDEN","country_ship":"UK","country_iso_reporting":"SE","country_sensor_provider":null}},{"type":"Feature","geometry":{"type":"Point","coordinates":[19.933584213,58.153629303]},"properties":{"ptf_id":1355277,"ptf_ref":"6801665_022","category":"oceangliders","ptf_model":"SeaExplorer X2","country_name":"SWEDEN","country_ship":"UK","country_iso_reporting":"SE","country_sensor_provider":null}},{"type":"Feature","geometry":{"type":"Point","coordinates":[-127.9348,51.757]},"properties":{"ptf_id":1357537,"ptf_ref":"TMP1128267501","category":"oceangliders","ptf_model":"Slocum","country_name":"CANADA","country_ship":null,"country_iso_reporting":"CA","country_sensor_provider":null}},{"type":"Feature","geometry":{"type":"Point","coordinates":[-125.195,48.882]},"properties":{"ptf_id":1357557,"ptf_ref":"TMP-1375951549","category":"oceangliders","ptf_model":"Slocum G3","country_name":"CANADA","country_ship":null,"country_iso_reporting":"CA","country_sensor_provider":null}},{"type":"Feature","geometry":{"type":"Point","coordinates":[10.891149521,58.146549225]},"properties":{"ptf_id":1357777,"ptf_ref":"6801506_026","category":"oceangliders","ptf_model":"SeaExplorer X2","country_name":"SWEDEN","country_ship":"UK","country_iso_reporting":"SE","country_sensor_provider":null}},{"type":"Feature","geometry":{"type":"Point","coordinates":[10.986216545,58.285449982]},"properties":{"ptf_id":1357797,"ptf_ref":"6801506_027","category":"oceangliders","ptf_model":"SeaExplorer X2","country_name":"SWEDEN","country_ship":"UK","country_iso_reporting":"SE","country_sensor_provider":null}},{"type":"Feature","geometry":{"type":"Point","coordinates":[-87,29.5]},"properties":{"ptf_id":1358757,"ptf_ref":"8901235","category":"oceangliders","ptf_model":"Slocum G3 Shallow","country_name":"USA","country_ship":null,"country_iso_reporting":"US","country_sensor_provider":null}},{"type":"Feature","geometry":{"type":"Point","coordinates":[19.67,57.91]},"properties":{"ptf_id":1360517,"ptf_ref":"6801506_028","category":"oceangliders","ptf_model":"SeaExplorer X2","country_name":"SWEDEN","country_ship":null,"country_iso_reporting":"SE","country_sensor_provider":null}},{"type":"Feature","geometry":{"type":"Point","coordinates":[19.35,59.99]},"properties":{"ptf_id":1360537,"ptf_ref":"8901001_017","category":"oceangliders","ptf_model":"SeaExplorer X2","country_name":"SWEDEN","country_ship":null,"country_iso_reporting":"SE","country_sensor_provider":null}},{"type":"Feature","geometry":{"type":"Point","coordinates":[19.72,57.31]},"properties":{"ptf_id":1360557,"ptf_ref":"6801505_015","category":"oceangliders","ptf_model":"SeaExplorer X2","country_name":"SWEDEN","country_ship":null,"country_iso_reporting":"SE","country_sensor_provider":null}},{"type":"Feature","geometry":{"type":"Point","coordinates":[19.95,57.31]},"properties":{"ptf_id":1360577,"ptf_ref":"6801665_023","category":"oceangliders","ptf_model":"SeaExplorer X2","country_name":"SWEDEN","country_ship":null,"country_iso_reporting":"SE","country_sensor_provider":null}},{"type":"Feature","geometry":{"type":"Point","coordinates":[-55.38462,12.83389]},"properties":{"ptf_id":1360617,"ptf_ref":"6801672_030","category":"oceangliders","ptf_model":"SeaExplorer X2","country_name":"SWEDEN","country_ship":null,"country_iso_reporting":"SE","country_sensor_provider":null}},{"type":"Feature","geometry":{"type":"Point","coordinates":[19.72,57.28]},"properties":{"ptf_id":1360637,"ptf_ref":"6801707_031","category":"oceangliders","ptf_model":"SeaExplorer X2","country_name":"SWEDEN","country_ship":null,"country_iso_reporting":"SE","country_sensor_provider":null}}]}
