{"type":"FeatureCollection","features":[{"type":"Feature","geometry":{"type":"LineString","coordinates":[[-23.528748485,64.08081638],[-29.04361325,63.065983451],[-34.152788567,61.851567037],[-38.846695199,60.462142111],[-43.813323456,58.65110692],[-38.155468632,59.774176833],[-32.151722064,60.637998813],[-25.873650633,61.219198212],[-20.349679763,61.47908759],[-14.773600729,61.512441799],[-8.309963969,61.26428477],[-2.007805299,60.714796397],[4.029588215,59.8804751],[-0.180694825,61.430613876],[-4.007502796,62.613638159],[-8.997706544,63.882695748],[-13.488908349,64.797947819]]},"properties":{"line_id":1000301,"category":"ship_based_oceanographic_sot","line_name":"AX01","line_style":"solid","line_status":"active","edition_status":"Not sampled since 2024","last_cruise_by":"United States","last_cruise_ref":"NRAT8OIVQZ","last_cruise_date":"2017-01-01","last_cruise_ship":"","sampled_in_edition":false,"last_cruise_country":"United States","last_cruise_display":"2017-01-01 (NRAT8OIVQZ)","edition_country_codes":"","last_cruise_countries":"United States","last_cruise_ship_country":""}},{"type":"Feature","geometry":{"type":"LineString","coordinates":[[-53.246755661,46.03895989],[-52.402599838,46.62337546],[-49.507609711,49.624522648],[-46.239129731,52.542370391],[-43.008820733,55.010796966],[-39.913356014,57.049564436],[-35.855042654,59.318446121],[-31.934515343,61.14920952],[-27.550085513,62.852311946],[-23.506496663,64.155842555]]},"properties":{"line_id":1000302,"category":"ship_based_oceanographic_sot","line_name":"AX02","line_style":"solid","line_status":"active","edition_status":"No cruise recorded","last_cruise_by":"Unknown","last_cruise_ref":null,"last_cruise_date":null,"last_cruise_ship":"","sampled_in_edition":false,"last_cruise_country":"","last_cruise_display":"No cruise recorded","edition_country_codes":"","last_cruise_countries":"","last_cruise_ship_country":""}},{"type":"Feature","geometry":{"type":"MultiLineString","coordinates":[[[-6.3855,36.1695],[-74.6604,38.0196]]]},"properties":{"line_id":1000901,"category":"ship_based_oceanographic_sot","line_name":"AX04","line_style":"solid","line_status":"active","edition_status":"No cruise recorded","last_cruise_by":"Unknown","last_cruise_ref":null,"last_cruise_date":null,"last_cruise_ship":"","sampled_in_edition":false,"last_cruise_country":"","last_cruise_display":"No cruise recorded","edition_country_codes":"","last_cruise_countries":"","last_cruise_ship_country":""}},{"type":"Feature","geometry":{"type":"LineString","coordinates":[[-79.792532872,25.394190238],[-6.597513952,36.224065486]]},"properties":{"line_id":1000243,"category":"ship_based_oceanographic_sot","line_name":"AX07","line_style":"solid","line_status":"active","edition_status":"Not sampled since 2024","last_cruise_by":"United States","last_cruise_ref":"NRAT8OIVQZ","last_cruise_date":"2017-01-01","last_cruise_ship":"","sampled_in_edition":false,"last_cruise_country":"United States","last_cruise_display":"2017-01-01 (NRAT8OIVQZ)","edition_country_codes":"","last_cruise_countries":"United States","last_cruise_ship_country":""}},{"type":"Feature","geometry":{"type":"LineString","coordinates":[[-74.243,40.534],[-66.176,37.349],[-58.495848496,33.48541182],[-50.927,28.8],[-44.575,24.021],[-38.406642724,18.730682034],[-32.131,12.767],[-26.148382661,6.66305737],[-10.945,-9.375],[-2.832327111,-17.32916514],[3.694083097,-23.280204675],[8.096,-26.987],[13.078,-30.753],[17.836,-33.929]]},"properties":{"line_id":1000244,"category":"ship_based_oceanographic_sot","line_name":"AX08","line_style":"dash","line_status":"reactivate","edition_status":"Not sampled since 2024","last_cruise_by":"United States","last_cruise_ref":"NRAT8OIVQZ","last_cruise_date":"2017-01-01","last_cruise_ship":"","sampled_in_edition":false,"last_cruise_country":"United States","last_cruise_display":"2017-01-01 (NRAT8OIVQZ)","edition_country_codes":"","last_cruise_countries":"United States","last_cruise_ship_country":""}},{"type":"Feature","geometry":{"type":"LineString","coordinates":[[-73.782811412,39.679747598],[-70.797226767,30.144825666],[-67.931619795,18.788826416]]},"properties":{"line_id":1000245,"category":"ship_based_oceanographic_sot","line_name":"AX10","line_style":"solid","line_status":"active","edition_status":"Not sampled since 2024","last_cruise_by":"United States","last_cruise_ref":"C5G38DX85P","last_cruise_date":"2016-02-23","last_cruise_ship":"ARIANA","sampled_in_edition":false,"last_cruise_country":"United States","last_cruise_display":"2016-02-23 (ARIANA)","edition_country_codes":"","last_cruise_countries":"United States","last_cruise_ship_country":"Portugal"}},{"type":"Feature","geometry":{"type":"LineString","coordinates":[[18.049788337,-34.73028959],[-54.771786608,-35.103733564]]},"properties":{"line_id":1000212,"category":"ship_based_oceanographic_sot","line_name":"AX18","line_style":"solid","line_status":"active","edition_status":"Not sampled since 2024","last_cruise_by":"United States","last_cruise_ref":"NRAT8OIVQZ","last_cruise_date":"2017-01-01","last_cruise_ship":"","sampled_in_edition":false,"last_cruise_country":"United States","last_cruise_display":"2017-01-01 (NRAT8OIVQZ)","edition_country_codes":"","last_cruise_countries":"United States","last_cruise_ship_country":""}},{"type":"Feature","geometry":{"type":"LineString","coordinates":[[-64.860885922,-54.648116476],[-63.650358943,-59.440115367],[-62.209494826,-63.780685806]]},"properties":{"line_id":1000214,"category":"ship_based_oceanographic_sot","line_name":"AX22","line_style":"solid","line_status":"active","edition_status":"Not sampled since 2024","last_cruise_by":"United States","last_cruise_ref":"UEQS9Q8Y1W","last_cruise_date":"2020-12-01","last_cruise_ship":"LAURENCE M. GOULD","sampled_in_edition":false,"last_cruise_country":"United States","last_cruise_display":"2020-12-01 (LAURENCE M. GOULD)","edition_country_codes":"","last_cruise_countries":"United States","last_cruise_ship_country":"United States"}},{"type":"Feature","geometry":{"type":"LineString","coordinates":[[19.689030136,-35.499180783],[11.734856848,-37.561373859],[-0.049103578,-51.112928348],[-0.049103578,-66.137477891]]},"properties":{"line_id":1000215,"category":"ship_based_oceanographic_sot","line_name":"AX25","line_style":"solid","line_status":"active","edition_status":"Not sampled since 2024","last_cruise_by":"United States","last_cruise_ref":"NRAT8OIVQZ","last_cruise_date":"2017-01-01","last_cruise_ship":"","sampled_in_edition":false,"last_cruise_country":"United States","last_cruise_display":"2017-01-01 (NRAT8OIVQZ)","edition_country_codes":"","last_cruise_countries":"United States","last_cruise_ship_country":""}},{"type":"Feature","geometry":{"type":"LineString","coordinates":[[-72.696981063,40.137027961],[-68.264064035,36.12820753],[-63.95204201,31.616318115]]},"properties":{"line_id":1000303,"category":"ship_based_oceanographic_sot","line_name":"AX32","line_style":"solid","line_status":"active","edition_status":"Not sampled since 2024","last_cruise_by":"United States","last_cruise_ref":"NRAT8OIVQZ","last_cruise_date":"2017-01-01","last_cruise_ship":"","sampled_in_edition":false,"last_cruise_country":"United States","last_cruise_display":"2017-01-01 (NRAT8OIVQZ)","edition_country_codes":"","last_cruise_countries":"United States","last_cruise_ship_country":""}},{"type":"Feature","geometry":{"type":"LineString","coordinates":[[7.482563791,56.816418543],[2.725986073,59.311289891],[-2.021827551,61.330947254],[-7.389800566,63.162081535],[-13.431455305,64.7637458]]},"properties":{"line_id":1000304,"category":"ship_based_oceanographic_sot","line_name":"AX90","line_style":"solid","line_status":"active","edition_status":"No cruise recorded","last_cruise_by":"Unknown","last_cruise_ref":null,"last_cruise_date":null,"last_cruise_ship":"","sampled_in_edition":false,"last_cruise_country":"","last_cruise_display":"No cruise recorded","edition_country_codes":"","last_cruise_countries":"","last_cruise_ship_country":""}},{"type":"Feature","geometry":{"type":"LineString","coordinates":[[-41.456240894,-23.353987991],[-34.906418361,-22.018329699],[-28.489549054,-20.426025317]]},"properties":{"line_id":1000300,"category":"ship_based_oceanographic_sot","line_name":"AX97","line_style":"solid","line_status":"active","edition_status":"Not sampled since 2024","last_cruise_by":"United States","last_cruise_ref":"NRAT8OIVQZ","last_cruise_date":"2017-01-01","last_cruise_ship":"","sampled_in_edition":false,"last_cruise_country":"United States","last_cruise_display":"2017-01-01 (NRAT8OIVQZ)","edition_country_codes":"","last_cruise_countries":"United States","last_cruise_ship_country":""}},{"type":"Feature","geometry":{"type":"LineString","coordinates":[[-78.912991275,27.051148643],[-80.080044825,27.036740575]]},"properties":{"line_id":1000305,"category":"ship_based_oceanographic_sot","line_name":"AXWBTS","line_style":"solid","line_status":"active","edition_status":"Not sampled since 2024","last_cruise_by":"United States","last_cruise_ref":"NRAT8OIVQZ","last_cruise_date":"2017-01-01","last_cruise_ship":"","sampled_in_edition":false,"last_cruise_country":"United States","last_cruise_display":"2017-01-01 (NRAT8OIVQZ)","edition_country_codes":"","last_cruise_countries":"United States","last_cruise_ship_country":""}},{"type":"Feature","geometry":{"type":"LineString","coordinates":[[115.461,-31.796],[113.110657182,-26.773567684],[110.718,-21.12],[105.333,-6.721]]},"properties":{"line_id":1000218,"category":"ship_based_oceanographic_sot","line_name":"IX01","line_style":"solid","line_status":"active","edition_status":"Not sampled since 2024","last_cruise_by":"Australia","last_cruise_ref":"UIXN18NWCB","last_cruise_date":"2022-12-25","last_cruise_ship":"SWAN RIVER BRIDGE","sampled_in_edition":false,"last_cruise_country":"Australia","last_cruise_display":"2022-12-25 (SWAN RIVER BRIDGE)","edition_country_codes":"","last_cruise_countries":"Australia","last_cruise_ship_country":"Singapore"}},{"type":"Feature","geometry":{"type":"LineString","coordinates":[[57.602,-20.222],[61.291,-11.098],[69.11,9.685],[72.751,18.818]]},"properties":{"line_id":1000221,"category":"ship_based_oceanographic_sot","line_name":"IX08","line_style":"dash","line_status":"reactivate","edition_status":"No cruise recorded","last_cruise_by":"Unknown","last_cruise_ref":null,"last_cruise_date":null,"last_cruise_ship":"","sampled_in_edition":false,"last_cruise_country":"","last_cruise_display":"No cruise recorded","edition_country_codes":"","last_cruise_countries":"","last_cruise_ship_country":""}},{"type":"Feature","geometry":{"type":"LineString","coordinates":[[57.883817428,15.124481328],[66.011328999,7.849138661],[84.341624408,-9.473417349],[92.922676746,-16.988195529],[98.382483022,-21.321199809],[103.767992638,-25.195151338],[109.073736736,-28.605022197],[114.273858921,-31.556016597]]},"properties":{"line_id":1000223,"category":"ship_based_oceanographic_sot","line_name":"IX12","line_style":"dash","line_status":"reactivate","edition_status":"No cruise recorded","last_cruise_by":"Unknown","last_cruise_ref":"9U6UPLZE9R","last_cruise_date":null,"last_cruise_ship":"RENA P","sampled_in_edition":false,"last_cruise_country":"","last_cruise_display":"No cruise recorded","edition_country_codes":"","last_cruise_countries":"","last_cruise_ship_country":"Bahamas"}},{"type":"Feature","geometry":{"type":"LineString","coordinates":[[80.344800013,13.343196899],[87.257714001,14.755041463],[94.253491419,15.957704476]]},"properties":{"line_id":1000280,"category":"ship_based_oceanographic_sot","line_name":"IX14","line_style":"solid","line_status":"active","edition_status":"No cruise recorded","last_cruise_by":"Unknown","last_cruise_ref":null,"last_cruise_date":null,"last_cruise_ship":"","sampled_in_edition":false,"last_cruise_country":"","last_cruise_display":"No cruise recorded","edition_country_codes":"","last_cruise_countries":"","last_cruise_ship_country":""}},{"type":"Feature","geometry":{"type":"LineString","coordinates":[[57.001541624,-20.62692703],[52.215402703,-24.315002041],[47.150565262,-27.841726618],[42.609448975,-29.935347468],[38.363309353,-31.68036999],[32.418693749,-32.85034598],[26.847379239,-33.669064748]]},"properties":{"line_id":1000225,"category":"ship_based_oceanographic_sot","line_name":"IX21","line_style":"solid","line_status":"active","edition_status":"Not sampled since 2024","last_cruise_by":"United States","last_cruise_ref":"BU3N3HSPIW","last_cruise_date":"2020-11-18","last_cruise_ship":"SANTA INES","sampled_in_edition":false,"last_cruise_country":"United States","last_cruise_display":"2020-11-18 (SANTA INES)","edition_country_codes":"","last_cruise_countries":"United States","last_cruise_ship_country":"Denmark"}},{"type":"Feature","geometry":{"type":"LineString","coordinates":[[113.139,-21.174],[118.236748705,-15.840609617],[123.48,-9.917]]},"properties":{"line_id":1000234,"category":"ship_based_oceanographic_sot","line_name":"IX22","line_style":"solid","line_status":"active","edition_status":"Not sampled since 2024","last_cruise_by":"Australia","last_cruise_ref":"GUS8G1KTLG","last_cruise_date":"2022-12-17","last_cruise_ship":"NORTHWEST SANDERLING","sampled_in_edition":false,"last_cruise_country":"Australia","last_cruise_display":"2022-12-17 (NORTHWEST SANDERLING)","edition_country_codes":"","last_cruise_countries":"Australia","last_cruise_ship_country":"Australia"}},{"type":"Feature","geometry":{"type":"LineString","coordinates":[[147.304,-42.886],[145.660505467,-50.721533188],[143.891859513,-56.9675502],[141.846,-62.251],[139.534,-66.57]]},"properties":{"line_id":1000235,"category":"ship_based_oceanographic_sot","line_name":"IX28","line_style":"solid","line_status":"active","edition_status":"Not sampled since 2024","last_cruise_by":"Australia","last_cruise_ref":"2CB2UFLNLO","last_cruise_date":"2022-12-29","last_cruise_ship":"ASTROLABE","sampled_in_edition":false,"last_cruise_country":"Australia","last_cruise_display":"2022-12-29 (ASTROLABE)","edition_country_codes":"","last_cruise_countries":"Australia","last_cruise_ship_country":"France"}},{"type":"Feature","geometry":{"type":"LineString","coordinates":[[15.262182602,36.257825412],[12.12500626,37.393699604],[9.186157159,44.082736515]]},"properties":{"line_id":1000307,"category":"ship_based_oceanographic_sot","line_name":"MX04","line_style":"solid","line_status":"active","edition_status":"No cruise recorded","last_cruise_by":"Unknown","last_cruise_ref":null,"last_cruise_date":null,"last_cruise_ship":"","sampled_in_edition":false,"last_cruise_country":"","last_cruise_display":"No cruise recorded","edition_country_codes":"","last_cruise_countries":"","last_cruise_ship_country":""}},{"type":"Feature","geometry":{"type":"LineString","coordinates":[[116.956,-6.535],[126.619,-7.976],[135.694,-9.119]]},"properties":{"line_id":1000236,"category":"ship_based_oceanographic_sot","line_name":"PX02","line_style":"solid","line_status":"active","edition_status":"Not sampled since 2024","last_cruise_by":"Australia","last_cruise_ref":"G4WYPRG24F","last_cruise_date":"2022-12-12","last_cruise_ship":"OOCL PANAMA","sampled_in_edition":false,"last_cruise_country":"Australia","last_cruise_display":"2022-12-12 (OOCL PANAMA)","edition_country_codes":"","last_cruise_countries":"Australia","last_cruise_ship_country":"Hong Kong (China)"}},{"type":"Feature","geometry":{"type":"LineString","coordinates":[[140.03187251,34.852589642],[142.460552694,29.880940115],[145.006414195,24.02560868],[147.648318645,17.281835391],[150.549800797,9.227091634],[154.565737052,-11.235059761],[154.087649402,-24.621513945],[153.513944223,-26.247011953]]},"properties":{"line_id":1000238,"category":"ship_based_oceanographic_sot","line_name":"PX05","line_style":"dash","line_status":"reactivate","edition_status":"Not sampled since 2024","last_cruise_by":"United States","last_cruise_ref":"CPP1NRQSYH","last_cruise_date":"2020-11-03","last_cruise_ship":"WIDE ALPHA","sampled_in_edition":false,"last_cruise_country":"United States","last_cruise_display":"2020-11-03 (WIDE ALPHA)","edition_country_codes":"","last_cruise_countries":"United States","last_cruise_ship_country":"Marshall Islands"}},{"type":"Feature","geometry":{"type":"LineString","coordinates":[[179.486,-18.371],[177.651679245,-28.674020709],[175.863,-37.083]]},"properties":{"line_id":1000239,"category":"ship_based_oceanographic_sot","line_name":"PX06","line_style":"solid","line_status":"active","edition_status":"Not sampled since 2024","last_cruise_by":"Australia","last_cruise_ref":"PATKSDPC6K","last_cruise_date":"2022-09-03","last_cruise_ship":"SAMOA CHIEF","sampled_in_edition":false,"last_cruise_country":"Australia","last_cruise_display":"2022-09-03 (SAMOA CHIEF)","edition_country_codes":"","last_cruise_countries":"Australia","last_cruise_ship_country":"Singapore"}},{"type":"Feature","geometry":{"type":"MultiLineString","coordinates":[[[-157.7,21.146],[-164.879638878,9.7140428],[-175.337381253,-8.348036564],[-179.922,-15.918],[-180,-16.475]],[[180,-16.475],[179.726,-16.475],[178.66,-18.144],[178.595848484,-18.543307201]]]},"properties":{"line_id":1000226,"category":"ship_based_oceanographic_sot","line_name":"PX09","line_style":"solid","line_status":"active","edition_status":"Not sampled since 2024","last_cruise_by":"United States","last_cruise_ref":"I0UZPPB5UR","last_cruise_date":"2020-12-13","last_cruise_ship":"PFL Matai","sampled_in_edition":false,"last_cruise_country":"United States","last_cruise_display":"2020-12-13 (PFL Matai)","edition_country_codes":"","last_cruise_countries":"United States","last_cruise_ship_country":"Singapore"}},{"type":"Feature","geometry":{"type":"LineString","coordinates":[[122.462,-8.566],[127.353,10.851],[129.885,20.225],[131.411349421,22.810226544]]},"properties":{"line_id":1000230,"category":"ship_based_oceanographic_sot","line_name":"PX11","line_style":"solid","line_status":"active","edition_status":"Not sampled since 2024","last_cruise_by":"Australia","last_cruise_ref":"GUS8G1KTLG","last_cruise_date":"2022-12-17","last_cruise_ship":"NORTHWEST SANDERLING","sampled_in_edition":false,"last_cruise_country":"Australia","last_cruise_display":"2022-12-17 (NORTHWEST SANDERLING)","edition_country_codes":"","last_cruise_countries":"Australia","last_cruise_ship_country":"Australia"}},{"type":"Feature","geometry":{"type":"MultiLineString","coordinates":[[[174.628,-36.922],[180,-32.234]],[[-180,-32.234],[-176.705,-28.991],[-173.377427815,-25.394214404],[-166.599,-17.137],[-160.614,-8.967],[-146.281,11.673],[-138.763,21.506],[-134.893,26.015],[-130.718,30.413],[-126.749,34.144],[-122.421,37.735]]]},"properties":{"line_id":1000232,"category":"ship_based_oceanographic_sot","line_name":"PX13","line_style":"solid","line_status":"active","edition_status":"Not sampled since 2024","last_cruise_by":"United States","last_cruise_ref":"L4IDPBWC8J","last_cruise_date":"2020-12-24","last_cruise_ship":"ANL WARRNAMBOOL","sampled_in_edition":false,"last_cruise_country":"United States","last_cruise_display":"2020-12-24 (ANL WARRNAMBOOL)","edition_country_codes":"","last_cruise_countries":"United States","last_cruise_ship_country":"Germany"}},{"type":"Feature","geometry":{"type":"LineString","coordinates":[[153.552160421,-26.877536405],[160.783771156,-25.461435955],[168.290761518,-23.568870852],[173.294891807,-21.083847532],[178.130818811,-18.455478635]]},"properties":{"line_id":1000250,"category":"ship_based_oceanographic_sot","line_name":"PX30","line_style":"solid","line_status":"active","edition_status":"Not sampled since 2024","last_cruise_by":"Australia","last_cruise_ref":"XU4VUWF6QN","last_cruise_date":"2022-10-17","last_cruise_ship":"MARINER","sampled_in_edition":false,"last_cruise_country":"Australia","last_cruise_display":"2022-10-17 (MARINER)","edition_country_codes":"","last_cruise_countries":"Australia","last_cruise_ship_country":"Singapore"}},{"type":"Feature","geometry":{"type":"MultiLineString","coordinates":[[[179.816,-16.312],[180,-15.919]],[[-180,-15.919],[-179.646,-15.919],[-174.110810884,-11.718118602],[-151.728,6.568],[-145.323180953,11.543617738],[-139.771,15.613],[-135.403,22.106],[-131.241997119,27.685160396],[-127.1,32.615],[-122.74,37.147]]]},"properties":{"line_id":1000252,"category":"ship_based_oceanographic_sot","line_name":"PX31","line_style":"solid","line_status":"active","edition_status":"Not sampled since 2024","last_cruise_by":"United States","last_cruise_ref":"NRAT8OIVQZ","last_cruise_date":"2017-01-01","last_cruise_ship":"","sampled_in_edition":false,"last_cruise_country":"United States","last_cruise_display":"2017-01-01 (NRAT8OIVQZ)","edition_country_codes":"","last_cruise_countries":"United States","last_cruise_ship_country":""}},{"type":"Feature","geometry":{"type":"LineString","coordinates":[[151.233,-33.8864],[151.3397,-33.8983],[151.4465,-33.9101],[151.5534,-33.9218],[151.6602,-33.9335],[151.7671,-33.945],[151.874,-33.9565],[151.981,-33.9679],[152.0879,-33.9791],[152.1949,-33.9903],[152.302,-34.0014],[152.409,-34.0124],[152.5161,-34.0233],[152.6232,-34.0341],[152.7304,-34.0448],[152.8375,-34.0554],[152.9447,-34.0659],[153.0519,-34.0764],[153.1592,-34.0867],[153.2664,-34.097],[153.3737,-34.1071],[153.4811,-34.1172],[153.5884,-34.1271],[153.6958,-34.137],[153.8032,-34.1468],[153.9106,-34.1565],[154.018,-34.166],[154.1255,-34.1755],[154.233,-34.1849],[154.3405,-34.1942],[154.448,-34.2035],[154.5556,-34.2126],[154.6632,-34.2216],[154.7708,-34.2305],[154.8784,-34.2394],[154.9861,-34.2481],[155.0938,-34.2567],[155.2015,-34.2653],[155.3092,-34.2737],[155.4169,-34.2821],[155.5247,-34.2904],[155.6325,-34.2985],[155.7403,-34.3066],[155.8481,-34.3146],[155.9559,-34.3225],[156.0638,-34.3303],[156.1717,-34.338],[156.2796,-34.3456],[156.3875,-34.3531],[156.4955,-34.3605],[156.6034,-34.3678],[156.7114,-34.375],[156.8194,-34.3822],[156.9274,-34.3892],[157.0355,-34.3961],[157.1435,-34.403],[157.2516,-34.4097],[157.3597,-34.4163],[157.4678,-34.4229],[157.5759,-34.4294],[157.684,-34.4357],[157.7922,-34.442],[157.9004,-34.4482],[158.0085,-34.4542],[158.1167,-34.4602],[158.225,-34.4661],[158.3332,-34.4719],[158.4414,-34.4776],[158.5497,-34.4832],[158.658,-34.4887],[158.7663,-34.4941],[158.8746,-34.4994],[158.9829,-34.5046],[159.0912,-34.5097],[159.1996,-34.5147],[159.3079,-34.5196],[159.4163,-34.5245],[159.5247,-34.5292],[159.6331,-34.5338],[159.7415,-34.5384],[159.8499,-34.5428],[159.9583,-34.5472],[160.0667,-34.5514],[160.1752,-34.5556],[160.2837,-34.5596],[160.3921,-34.5636],[160.5006,-34.5674],[160.6091,-34.5712],[160.7176,-34.5749],[160.8261,-34.5785],[160.9346,-34.5819],[161.0432,-34.5853],[161.1517,-34.5886],[161.2602,-34.5918],[161.3688,-34.5949],[161.4774,-34.5979],[161.5859,-34.6008],[161.6945,-34.6036],[161.8031,-34.6063],[161.9117,-34.6089],[162.0203,-34.6114],[162.1289,-34.6138],[162.2375,-34.6161],[162.3461,-34.6184],[162.4547,-34.6205],[162.5634,-34.6225],[162.672,-34.6245],[162.7806,-34.6263],[162.8893,-34.628],[162.9979,-34.6297],[163.1066,-34.6312],[163.2152,-34.6327],[163.3239,-34.634],[163.4325,-34.6353],[163.5412,-34.6364],[163.6499,-34.6375],[163.7585,-34.6385],[163.8672,-34.6393],[163.9759,-34.6401],[164.0846,-34.6408],[164.1932,-34.6413],[164.3019,-34.6418],[164.4106,-34.6422],[164.5193,-34.6425],[164.628,-34.6427],[164.7366,-34.6428],[164.8453,-34.6428],[164.954,-34.6427],[165.0627,-34.6425],[165.1714,-34.6422],[165.2801,-34.6418],[165.3887,-34.6413],[165.4974,-34.6407],[165.6061,-34.64],[165.7148,-34.6393],[165.8234,-34.6384],[165.9321,-34.6374],[166.0408,-34.6363],[166.1494,-34.6352],[166.2581,-34.6339],[166.3668,-34.6326],[166.4754,-34.6311],[166.5841,-34.6295],[166.6927,-34.6279],[166.8013,-34.6261],[166.91,-34.6243],[167.0186,-34.6224],[167.1272,-34.6203],[167.2359,-34.6182],[167.3445,-34.616],[167.4531,-34.6136],[167.5617,-34.6112],[167.6703,-34.6087],[167.7789,-34.6061],[167.8875,-34.6034],[167.996,-34.6005],[168.1046,-34.5976],[168.2132,-34.5946],[168.3217,-34.5915],[168.4303,-34.5883],[168.5388,-34.585],[168.6473,-34.5817],[168.7558,-34.5782],[168.8644,-34.5746],[168.9729,-34.5709],[169.0813,-34.5671],[169.1898,-34.5633],[169.2983,-34.5593],[169.4068,-34.5552],[169.5152,-34.5511],[169.6236,-34.5468],[169.7321,-34.5425],[169.8405,-34.538],[169.9489,-34.5335],[170.0573,-34.5288],[170.1657,-34.5241],[170.274,-34.5192],[170.3824,-34.5143],[170.4907,-34.5093],[170.5991,-34.5042],[170.7074,-34.4989],[170.8157,-34.4936],[170.924,-34.4882],[171.0322,-34.4827],[171.1405,-34.4771],[171.2487,-34.4714],[171.357,-34.4656],[171.4652,-34.4597],[171.5734,-34.4537],[171.6816,-34.4477],[171.7897,-34.4415],[171.8979,-34.4352],[172.006,-34.4288],[172.1141,-34.4224],[172.2222,-34.4158],[172.3303,-34.4092],[172.4384,-34.4024],[172.5465,-34.3956]]},"properties":{"line_id":1000500,"category":"ship_based_oceanographic_sot","line_name":"PX32","line_style":"solid","line_status":"active","edition_status":"Not sampled since 2024","last_cruise_by":"Australia","last_cruise_ref":"MT6TKOG8VV","last_cruise_date":"2022-11-16","last_cruise_ship":"MV Tasman Chief","sampled_in_edition":false,"last_cruise_country":"Australia","last_cruise_display":"2022-11-16 (MV Tasman Chief)","edition_country_codes":"","last_cruise_countries":"Australia","last_cruise_ship_country":"Liberia"}},{"type":"Feature","geometry":{"type":"LineString","coordinates":[[151.028,-33.791],[156.929372229,-36.275037407],[162.815381842,-38.331610363],[169.017427985,-40.078181091],[175.099,-41.401]]},"properties":{"line_id":1000253,"category":"ship_based_oceanographic_sot","line_name":"PX34","line_style":"dash","line_status":"reactivate","edition_status":"Not sampled since 2024","last_cruise_by":"United States","last_cruise_ref":"NRAT8OIVQZ","last_cruise_date":"2017-01-01","last_cruise_ship":"","sampled_in_edition":false,"last_cruise_country":"United States","last_cruise_display":"2017-01-01 (NRAT8OIVQZ)","edition_country_codes":"","last_cruise_countries":"United States","last_cruise_ship_country":""}},{"type":"Feature","geometry":{"type":"LineString","coordinates":[[172.76,-43.337],[172.338,-62.138],[171.709,-73.158],[167.825340691,-75.739040004],[163.72,-77.687]]},"properties":{"line_id":1000254,"category":"ship_based_oceanographic_sot","line_name":"PX36","line_style":"solid","line_status":"active","edition_status":"No cruise recorded","last_cruise_by":"Unknown","last_cruise_ref":null,"last_cruise_date":null,"last_cruise_ship":"","sampled_in_edition":false,"last_cruise_country":"","last_cruise_display":"No cruise recorded","edition_country_codes":"","last_cruise_countries":"","last_cruise_ship_country":""}},{"type":"Feature","geometry":{"type":"LineString","coordinates":[[-157.913,21.25],[-153.37,24.229],[-148.918963646,26.893828147],[-144.575504009,29.249877771],[-140.366,31.307],[-136.319,33.079],[-131.755059375,34.844529675],[-127.001,36.432],[-122.447,37.725]]},"properties":{"line_id":1000255,"category":"ship_based_oceanographic_sot","line_name":"PX37","line_style":"solid","line_status":"active","edition_status":"Not sampled since 2024","last_cruise_by":"United States","last_cruise_ref":"XMF394VQLA","last_cruise_date":"2020-10-02","last_cruise_ship":"HORIZON ENTERPRISE","sampled_in_edition":false,"last_cruise_country":"United States","last_cruise_display":"2020-10-02 (HORIZON ENTERPRISE)","edition_country_codes":"","last_cruise_countries":"United States","last_cruise_ship_country":"United States"}},{"type":"Feature","geometry":{"type":"LineString","coordinates":[[-157.666251365,21.698629596],[-154.07391402,25.990120872],[-150.213722212,30.183274149],[-146.381563464,33.916995587],[-142.601663569,37.197416743],[-138.487022195,40.34475002],[-134.451780442,43.039783786],[-130.058421218,45.578589369],[-125.81971534,47.680548234]]},"properties":{"line_id":1000306,"category":"ship_based_oceanographic_sot","line_name":"PX39","line_style":"solid","line_status":"active","edition_status":"Not sampled since 2024","last_cruise_by":"United States","last_cruise_ref":"NRAT8OIVQZ","last_cruise_date":"2017-01-01","last_cruise_ship":"","sampled_in_edition":false,"last_cruise_country":"United States","last_cruise_display":"2017-01-01 (NRAT8OIVQZ)","edition_country_codes":"","last_cruise_countries":"United States","last_cruise_ship_country":""}},{"type":"Feature","geometry":{"type":"MultiLineString","coordinates":[[[-157.493,21.42],[-162.866127913,24.044341065],[-168.120106221,26.33539162],[-173.229,28.304],[-180,30.618]],[[180,30.618],[169.598831267,33.093087265],[164.95778292,33.926619449],[159.839,34.629],[154.646142436,35.114666631],[149.810062274,35.364175286],[144.954982483,35.42017908],[139.702,35.262]]]},"properties":{"line_id":1000258,"category":"ship_based_oceanographic_sot","line_name":"PX40","line_style":"solid","line_status":"active","edition_status":"Not sampled since 2024","last_cruise_by":"United States","last_cruise_ref":"TUGX5GGBXX","last_cruise_date":"2020-12-25","last_cruise_ship":"TALLAHASSEE","sampled_in_edition":false,"last_cruise_country":"United States","last_cruise_display":"2020-12-25 (TALLAHASSEE)","edition_country_codes":"","last_cruise_countries":"United States","last_cruise_ship_country":"Singapore"}}]}
