{"type":"FeatureCollection","features":[{"type":"Feature","properties":{"line_id":1000301,"category":"ship_based_oceanographic_sot","line_name":"AX01","line_style":"solid","line_status":"active","edition_status":"Not sampled since 2024","last_cruise_by":"United States","edition_cruises":"[]","last_cruise_ref":"NRAT8OIVQZ","next_cruise_ref":null,"last_cruise_date":"2017-01-01","last_cruise_ship":"","next_cruise_date":null,"next_cruise_ship":"","sampled_in_edition":false,"last_cruise_country":"United States","last_cruise_display":"2017-01-01 (NRAT8OIVQZ)","next_cruise_country":"","next_cruise_display":"","edition_country_codes":"","last_cruise_countries":"United States","next_cruise_countries":"","last_cruise_ship_masked":false,"next_cruise_ship_masked":false,"last_cruise_ship_country":"","next_cruise_ship_country":""},"geometry":{"type":"LineString","coordinates":[[-23.52874848500005,64.08081638],[-24.944046999999955,63.847127],[-26.33535699999993,63.599837],[-27.702048999999988,63.339327],[-29.043612999999993,63.065983],[-30.35979199999997,62.780078],[-31.65015299999999,62.482115],[-32.914514,62.172482],[-34.152788999999984,61.851567],[-35.36512600000003,61.519624],[-36.551444000000004,61.177158],[-37.71189500000003,60.824542],[-38.84669500000001,60.462142],[-39.883105,60.115244],[-40.89766099999997,59.760417],[-41.890660000000025,59.39794],[-42.86243000000002,59.028082],[-43.81332299999997,58.651107],[-42.711862999999994,58.895154],[-41.59504900000002,59.129702],[-40.46315500000003,59.354533],[-39.31650500000001,59.569429],[-38.15546899999998,59.774177],[-36.980591000000004,59.968449],[-35.79223000000002,60.152161],[-34.59090800000001,60.325115],[-33.377197000000024,60.487122],[-32.15172200000001,60.637999],[-30.915250000000015,60.777465],[-29.668416999999977,60.905465],[-28.411991,61.021846],[-27.146784000000025,61.126467],[-25.873650999999995,61.219198],[-24.50185799999997,61.305129],[-23.123139000000037,61.377155],[-21.738675000000057,61.43517],[-20.349680000000035,61.479088],[-18.957419000000073,61.508755],[-17.563135999999986,61.524215],[-16.16810399999997,61.525444],[-14.773600999999985,61.512442],[-13.473655000000008,61.487394],[-12.176314000000048,61.449998],[-10.882593000000043,61.400302],[-9.593484999999987,61.338371],[-8.309964000000036,61.264285],[-7.032925999999975,61.178038],[-5.763335999999981,61.079837],[-4.502070000000003,60.969805],[-3.2499619999999823,60.848075],[-2.007804999999962,60.714796],[-0.7762639999999692,60.570018],[0.4438720000000558,60.414015],[1.6519510000000537,60.246965],[2.8473730000000614,60.069053],[4.02958799999999,59.880475],[3.0147870000000694,60.28023],[1.9751260000000457,60.672056],[0.9101170000000138,61.055629],[-0.18069500000001426,61.430614],[-1.4233020000000352,61.836634],[-2.698763999999983,62.231142],[-4.0075030000000424,62.613638],[-5.213942999999972,62.947078],[-6.447751000000039,63.269994],[-7.70900800000004,63.581998],[-8.997706999999991,63.882696],[-10.461495000000014,64.202953],[-11.958718999999974,64.508219],[-13.488908000000038,64.797948]]}},{"type":"Feature","properties":{"line_id":1000901,"category":"ship_based_oceanographic_sot","line_name":"AX04","line_style":"solid","line_status":"active","edition_status":"No cruise recorded","last_cruise_by":"Unknown","edition_cruises":"[]","last_cruise_ref":null,"next_cruise_ref":null,"last_cruise_date":null,"last_cruise_ship":"","next_cruise_date":null,"next_cruise_ship":"","sampled_in_edition":false,"last_cruise_country":"","last_cruise_display":"No cruise recorded","next_cruise_country":"","next_cruise_display":"","edition_country_codes":"","last_cruise_countries":"","next_cruise_countries":"","last_cruise_ship_masked":false,"next_cruise_ship_masked":false,"last_cruise_ship_country":"","next_cruise_ship_country":""},"geometry":{"type":"LineString","coordinates":[[-6.385499999999979,36.1695],[-7.202501999999981,36.458649],[-8.025560000000041,36.742188],[-8.854659999999967,37.020018],[-9.689782000000037,37.292039],[-10.530898999999977,37.55815],[-11.37797599999999,37.818251],[-12.230972999999949,38.072245],[-13.089841999999976,38.320031],[-13.954526999999985,38.561511],[-14.824964000000023,38.796588],[-15.701082000000042,39.025165],[-16.582801000000018,39.247147],[-17.470035000000053,39.46244],[-18.362687999999935,39.670949],[-19.260657000000037,39.872584],[-20.163827999999967,40.067254],[-21.072082000000023,40.254871],[-21.985288999999966,40.435349],[-22.903314000000023,40.608604],[-23.826009999999997,40.774553],[-24.753222999999934,40.933116],[-25.684793000000013,41.084218],[-26.620548999999983,41.227783],[-27.56031299999995,41.36374],[-28.50390200000004,41.492021],[-29.451121,41.61256],[-30.401771999999994,41.725295],[-31.355647999999974,41.830169],[-32.31253700000002,41.927126],[-33.27221800000001,42.016114],[-34.234466999999995,42.097088],[-35.19905399999999,42.170002],[-36.16574400000002,42.234819],[-37.134296000000006,42.291503],[-38.104467,42.340023],[-39.07601,42.380353],[-40.048675,42.412471],[-41.02220799999998,42.436358],[-41.99635599999999,42.452002],[-42.97086200000001,42.459394],[-43.94547,42.45853],[-44.919921999999985,42.44941],[-45.89396199999999,42.43204],[-46.867335000000026,42.40643],[-47.839786000000004,42.372592],[-48.81106199999999,42.330546],[-49.78091499999999,42.280315],[-50.749098000000004,42.221926],[-51.715367000000015,42.155412],[-52.679484,42.080807],[-53.64121399999999,41.998153],[-54.600329999999985,41.907492],[-55.55660499999999,41.808875],[-56.50982399999998,41.702351],[-57.45977400000004,41.587978],[-58.40625,41.465813],[-59.349054000000024,41.33592],[-60.28799500000002,41.198365],[-61.22288900000001,41.053217],[-62.15355999999997,40.900548],[-63.079841999999985,40.740432],[-64.00157200000001,40.572947],[-64.91859999999997,40.398174],[-65.830783,40.216195],[-66.73798299999999,40.027095],[-67.64007500000002,39.83096],[-68.53694000000002,39.627879],[-69.42846700000001,39.417942],[-70.31455499999998,39.201242],[-71.195109,38.977872],[-72.070044,38.747926],[-72.93928299999999,38.511501],[-73.80275599999999,38.268693],[-74.66039999999998,38.0196]]}},{"type":"Feature","properties":{"line_id":1000245,"category":"ship_based_oceanographic_sot","line_name":"AX10","line_style":"solid","line_status":"active","edition_status":"Not sampled since 2024","last_cruise_by":"United States","edition_cruises":"[]","last_cruise_ref":"C5G38DX85P","next_cruise_ref":null,"last_cruise_date":"2016-02-23","last_cruise_ship":"ARIANA","next_cruise_date":null,"next_cruise_ship":"","sampled_in_edition":false,"last_cruise_country":"United States","last_cruise_display":"2016-02-23 (ARIANA)","next_cruise_country":"","next_cruise_display":"","edition_country_codes":"","last_cruise_countries":"United States","next_cruise_countries":"","last_cruise_ship_masked":false,"next_cruise_ship_masked":false,"last_cruise_ship_country":"Portugal","next_cruise_ship_country":""},"geometry":{"type":"LineString","coordinates":[[-81.338348897,30.365143484],[-80.68791799999997,29.925281],[-80.04323199999999,29.482254],[-79.404176,29.036146],[-78.77064000000001,28.58704],[-78.14251000000002,28.135016],[-77.519675,27.680152],[-76.90202,27.222526],[-76.28943600000002,26.762214],[-75.68180899999999,26.29929],[-75.07902899999999,25.833827],[-74.48098500000003,25.365896],[-73.887565,24.895568],[-73.29866099999998,24.42291],[-72.71416299999999,23.947991],[-72.133963,23.470876],[-71.557953,22.99163],[-70.98602599999998,22.510317],[-70.41807499999999,22.026998],[-69.853996,21.541736],[-69.29368299999999,21.054589],[-68.737033,20.565618],[-68.183942,20.074879],[-67.63430900000003,19.58243],[-67.088033,19.088326],[-66.54501299999998,18.592622]]}},{"type":"Feature","properties":{"line_id":1000212,"category":"ship_based_oceanographic_sot","line_name":"AX18","line_style":"solid","line_status":"active","edition_status":"Not sampled since 2024","last_cruise_by":"United States","edition_cruises":"[]","last_cruise_ref":"NRAT8OIVQZ","next_cruise_ref":null,"last_cruise_date":"2017-01-01","last_cruise_ship":"","next_cruise_date":null,"next_cruise_ship":"","sampled_in_edition":false,"last_cruise_country":"United States","last_cruise_display":"2017-01-01 (NRAT8OIVQZ)","next_cruise_country":"","next_cruise_display":"","edition_country_codes":"","last_cruise_countries":"United States","next_cruise_countries":"","last_cruise_ship_masked":false,"next_cruise_ship_masked":false,"last_cruise_ship_country":"","next_cruise_ship_country":""},"geometry":{"type":"LineString","coordinates":[[18.049788336999995,-34.73028959],[17.24273100000005,-35.010896],[16.430169999999976,-35.286125],[15.612122,-35.555882],[14.788605999999959,-35.820078],[13.95965000000001,-36.078619],[13.12528599999996,-36.331414],[12.285552999999936,-36.578373],[11.44049599999994,-36.819405],[10.590165999999954,-37.05442],[9.734621999999945,-37.283328],[8.873928999999976,-37.506043],[8.008156999999983,-37.722476],[7.13738699999999,-37.93254],[6.261703000000011,-38.136152],[5.381196999999929,-38.333227],[4.495969999999943,-38.523684],[3.60612900000001,-38.707441],[2.7117869999999584,-38.88442],[1.8130650000000514,-39.054543],[0.9100909999999658,-39.217737],[0.0029999999999290594,-39.373928],[-0.9080659999999625,-39.523045],[-1.822958999999969,-39.665021],[-2.7415230000000292,-39.799789],[-3.6635969999999816,-39.927288],[-4.589013000000023,-40.047456],[-5.517596000000026,-40.160236],[-6.4491669999999885,-40.265575],[-7.383540000000039,-40.363422],[-8.320524999999975,-40.453727],[-9.25992599999995,-40.536448],[-10.201542000000018,-40.611543],[-11.14516900000001,-40.678974],[-12.090597000000002,-40.738708],[-13.037613999999962,-40.790715],[-13.986005999999975,-40.834968],[-14.93555200000003,-40.871446],[-15.886033999999995,-40.900128],[-16.837227999999982,-40.921001],[-17.788910999999985,-40.934055],[-18.740857000000005,-40.939281],[-19.692839999999933,-40.936678],[-20.64463599999999,-40.926247],[-21.59601900000007,-40.907994],[-22.54676399999994,-40.881927],[-23.496648999999934,-40.84806],[-24.445451999999932,-40.80641],[-25.39295400000003,-40.756999],[-26.338938999999982,-40.699851],[-27.283192999999983,-40.634996],[-28.225505,-40.562465],[-29.165670999999975,-40.482295],[-30.10348799999997,-40.394527],[-31.03875800000003,-40.299202],[-31.971289000000013,-40.196369],[-32.900893999999994,-40.086076],[-33.82739000000004,-39.968378],[-34.75060300000001,-39.843329],[-35.67036200000001,-39.71099],[-36.58650299999999,-39.571422],[-37.498868000000016,-39.424691],[-38.407307,-39.270863],[-39.311676000000034,-39.110008],[-40.211838,-38.942198],[-41.107662000000005,-38.767508],[-41.99902399999996,-38.586014],[-42.88580999999999,-38.397794],[-43.76790900000003,-38.202928],[-44.645219,-38.001497],[-45.51764600000001,-37.793585],[-46.38510200000002,-37.579277],[-47.24750599999999,-37.358658],[-48.104783,-37.131815],[-48.95686699999999,-36.898837],[-49.803697,-36.659812],[-50.645219999999995,-36.414829],[-51.48138800000004,-36.163979],[-52.312160000000006,-35.907353],[-53.137501999999984,-35.645043],[-53.95738499999999,-35.377139],[-54.77178700000002,-35.103734]]}},{"type":"Feature","properties":{"line_id":1000214,"category":"ship_based_oceanographic_sot","line_name":"AX22","line_style":"solid","line_status":"active","edition_status":"Not sampled since 2024","last_cruise_by":"United States","edition_cruises":"[]","last_cruise_ref":"UEQS9Q8Y1W","next_cruise_ref":null,"last_cruise_date":"2020-12-01","last_cruise_ship":"LAURENCE M. GOULD","next_cruise_date":null,"next_cruise_ship":"","sampled_in_edition":false,"last_cruise_country":"United States","last_cruise_display":"2020-12-01 (LAURENCE M. GOULD)","next_cruise_country":"","next_cruise_display":"","edition_country_codes":"","last_cruise_countries":"United States","next_cruise_countries":"","last_cruise_ship_masked":false,"next_cruise_ship_masked":false,"last_cruise_ship_country":"United States","next_cruise_ship_country":""},"geometry":{"type":"LineString","coordinates":[[-64.86088592199997,-54.648116476],[-64.70613700000001,-55.333364],[-64.54594099999997,-56.018409],[-64.37996099999998,-56.703239],[-64.207828,-57.38784],[-64.02914499999997,-58.072198],[-63.843479,-58.756295],[-63.65035899999998,-59.440115],[-63.467985,-60.061072],[-63.278616,-60.681768],[-63.08179899999999,-61.302186],[-62.87704099999996,-61.922308],[-62.66380400000003,-62.542114],[-62.441502000000014,-63.161581],[-62.209495000000004,-63.780686]]}},{"type":"Feature","properties":{"line_id":1000215,"category":"ship_based_oceanographic_sot","line_name":"AX25","line_style":"solid","line_status":"active","edition_status":"Not sampled since 2024","last_cruise_by":"United States","edition_cruises":"[]","last_cruise_ref":"NRAT8OIVQZ","next_cruise_ref":null,"last_cruise_date":"2017-01-01","last_cruise_ship":"","next_cruise_date":null,"next_cruise_ship":"","sampled_in_edition":false,"last_cruise_country":"United States","last_cruise_display":"2017-01-01 (NRAT8OIVQZ)","next_cruise_country":"","next_cruise_display":"","edition_country_codes":"","last_cruise_countries":"United States","next_cruise_countries":"","last_cruise_ship_masked":false,"next_cruise_ship_masked":false,"last_cruise_ship_country":"","next_cruise_ship_country":""},"geometry":{"type":"LineString","coordinates":[[19.68903013599993,-35.499180783],[18.91302900000005,-35.728779],[18.132591000000048,-35.953366],[17.34775400000001,-36.172872],[16.55855900000006,-36.387227],[15.765052999999966,-36.596363],[14.967290000000048,-36.80021],[14.165324000000055,-36.998701],[13.35921899999994,-37.19177],[12.549038999999993,-37.379349],[11.734857000000034,-37.561374],[11.323335000000043,-38.17231],[10.904862999999978,-38.781785],[10.47918500000003,-39.389742],[10.046033999999963,-39.996121],[9.605132000000026,-40.600859],[9.156191000000035,-41.20389],[8.698912000000064,-41.805145],[8.232980999999995,-42.404552],[7.75807599999996,-43.002036],[7.273859000000016,-43.597518],[6.779979000000026,-44.190916],[6.276071000000002,-44.782142],[5.761755999999991,-45.371107],[5.236637999999971,-45.957716],[4.700305999999955,-46.541868],[4.152332999999999,-47.123459],[3.592273999999975,-47.702379],[3.0196670000000267,-48.278513],[2.4340310000000045,-48.851739],[1.8348650000000362,-49.421931],[1.2216510000000653,-49.988955],[0.59384799999998,-50.55267],[-0.04910399999994297,-51.112928],[-0.04910399999994297,-51.828383],[-0.04910399999994297,-52.543838],[-0.04910399999994297,-53.259292],[-0.04910399999994297,-53.974747],[-0.04910399999994297,-54.690202],[-0.04910399999994297,-55.405657],[-0.04910399999994297,-56.121111],[-0.04910399999994297,-56.836566],[-0.04910399999994297,-57.552021],[-0.04910399999994297,-58.267476],[-0.04910399999994297,-58.98293],[-0.04910399999994297,-59.698385],[-0.04910399999994297,-60.41384],[-0.04910399999994297,-61.129295],[-0.04910399999994297,-61.844749],[-0.04910399999994297,-62.560204],[-0.04910399999994297,-63.275659],[-0.04910399999994297,-63.991114],[-0.04910399999994297,-64.706568],[-0.04910399999994297,-65.422023],[-0.04910399999994297,-66.137478]]}},{"type":"Feature","properties":{"line_id":1000303,"category":"ship_based_oceanographic_sot","line_name":"AX32","line_style":"solid","line_status":"active","edition_status":"Not sampled since 2024","last_cruise_by":"United States","edition_cruises":"[]","last_cruise_ref":"NRAT8OIVQZ","next_cruise_ref":null,"last_cruise_date":"2017-01-01","last_cruise_ship":"","next_cruise_date":null,"next_cruise_ship":"","sampled_in_edition":false,"last_cruise_country":"United States","last_cruise_display":"2017-01-01 (NRAT8OIVQZ)","next_cruise_country":"","next_cruise_display":"","edition_country_codes":"","last_cruise_countries":"United States","next_cruise_countries":"","last_cruise_ship_masked":false,"next_cruise_ship_masked":false,"last_cruise_ship_country":"","next_cruise_ship_country":""},"geometry":{"type":"LineString","coordinates":[[-72.69698106300001,40.137027961],[-72.11549300000001,39.645328],[-71.54224099999999,39.150769],[-70.977012,38.653442],[-70.41959700000001,38.153432],[-69.86979400000001,37.650823],[-69.32740000000001,37.145698],[-68.79222099999998,36.638134],[-68.26406400000002,36.128208],[-67.76169400000003,35.634573],[-67.26550400000002,35.138877],[-66.77533199999999,34.641183],[-66.29102,34.141552],[-65.812412,33.640042],[-65.339358,33.136709],[-64.87170800000001,32.631608],[-64.40931699999999,32.124794],[-63.952042000000006,31.616318]]}},{"type":"Feature","properties":{"line_id":1000304,"category":"ship_based_oceanographic_sot","line_name":"AX90","line_style":"solid","line_status":"active","edition_status":"No cruise recorded","last_cruise_by":"Unknown","edition_cruises":"[]","last_cruise_ref":null,"next_cruise_ref":null,"last_cruise_date":null,"last_cruise_ship":"","next_cruise_date":null,"next_cruise_ship":"","sampled_in_edition":false,"last_cruise_country":"","last_cruise_display":"No cruise recorded","next_cruise_country":"","next_cruise_display":"","edition_country_codes":"","last_cruise_countries":"","next_cruise_countries":"","last_cruise_ship_masked":false,"next_cruise_ship_masked":false,"last_cruise_ship_country":"","next_cruise_ship_country":""},"geometry":{"type":"LineString","coordinates":[[7.482563790999961,56.816418543],[6.583573000000001,57.329229],[5.659298000000035,57.835448],[4.70886500000006,58.334758],[3.7313910000000305,58.826823],[2.7259860000000344,59.31129],[1.822862999999984,59.728475],[0.8970990000000256,60.139306],[-0.051888999999960106,60.543516],[-1.0246779999999944,60.940826],[-2.0218280000000277,61.330947],[-3.0436789999999974,61.713413],[-4.090934000000061,62.088085],[-5.164079000000015,62.454642],[-6.263564999999971,62.812754],[-7.389801000000034,63.162082],[-8.542952000000014,63.50213],[-9.723494999999957,63.83269],[-10.931667000000061,64.153395],[-12.167627000000039,64.463873],[-13.431455000000028,64.763746]]}},{"type":"Feature","properties":{"line_id":1000300,"category":"ship_based_oceanographic_sot","line_name":"AX97","line_style":"solid","line_status":"active","edition_status":"Not sampled since 2024","last_cruise_by":"United States","edition_cruises":"[]","last_cruise_ref":"NRAT8OIVQZ","next_cruise_ref":null,"last_cruise_date":"2017-01-01","last_cruise_ship":"","next_cruise_date":null,"next_cruise_ship":"","sampled_in_edition":false,"last_cruise_country":"United States","last_cruise_display":"2017-01-01 (NRAT8OIVQZ)","next_cruise_country":"","next_cruise_display":"","edition_country_codes":"","last_cruise_countries":"United States","next_cruise_countries":"","last_cruise_ship_masked":false,"next_cruise_ship_masked":false,"last_cruise_ship_country":"","next_cruise_ship_country":""},"geometry":{"type":"LineString","coordinates":[[-41.45624089399996,-23.353987991],[-40.72227099999998,-23.218896],[-39.989802,-23.080405],[-39.25885900000003,-22.938544],[-38.529465000000016,-22.793343],[-37.80164000000002,-22.644833],[-37.07540399999999,-22.493045],[-36.350776999999994,-22.33801],[-35.62777599999998,-22.179761],[-34.90641800000003,-22.01833],[-34.18663300000003,-21.853556],[-33.468523000000005,-21.685665],[-32.75209899999999,-21.514691],[-32.037374,-21.340667],[-31.32435799999996,-21.163629],[-30.61306000000002,-20.983611],[-29.90348800000004,-20.800647],[-29.195649000000003,-20.614774],[-28.48954900000001,-20.426025]]}},{"type":"Feature","properties":{"line_id":1000305,"category":"ship_based_oceanographic_sot","line_name":"AXWBTS","line_style":"solid","line_status":"active","edition_status":"Not sampled since 2024","last_cruise_by":"United States","edition_cruises":"[]","last_cruise_ref":"NRAT8OIVQZ","next_cruise_ref":null,"last_cruise_date":"2017-01-01","last_cruise_ship":"","next_cruise_date":null,"next_cruise_ship":"","sampled_in_edition":false,"last_cruise_country":"United States","last_cruise_display":"2017-01-01 (NRAT8OIVQZ)","next_cruise_country":"","next_cruise_display":"","edition_country_codes":"","last_cruise_countries":"United States","next_cruise_countries":"","last_cruise_ship_masked":false,"next_cruise_ship_masked":false,"last_cruise_ship_country":"","next_cruise_ship_country":""},"geometry":{"type":"LineString","coordinates":[[-78.91299127499997,27.051148643],[-79.496556,27.045148],[-80.08004499999998,27.036741]]}},{"type":"Feature","properties":{"line_id":1000218,"category":"ship_based_oceanographic_sot","line_name":"IX01","line_style":"solid","line_status":"active","edition_status":"Not sampled since 2024","last_cruise_by":"Australia","edition_cruises":"[]","last_cruise_ref":"UIXN18NWCB","next_cruise_ref":null,"last_cruise_date":"2022-12-25","last_cruise_ship":"SWAN RIVER BRIDGE","next_cruise_date":null,"next_cruise_ship":"","sampled_in_edition":false,"last_cruise_country":"Australia","last_cruise_display":"2022-12-25 (SWAN RIVER BRIDGE)","next_cruise_country":"","next_cruise_display":"","edition_country_codes":"","last_cruise_countries":"Australia","next_cruise_countries":"","last_cruise_ship_masked":false,"next_cruise_ship_masked":false,"last_cruise_ship_country":"Singapore","next_cruise_ship_country":""},"geometry":{"type":"LineString","coordinates":[[115.46100000000001,-31.796],[115.15408000000002,-31.170532],[114.85118999999997,-30.544346],[114.55218300000001,-29.917467],[114.25692000000004,-29.289923],[113.96526500000004,-28.661737],[113.67708600000003,-28.032934],[113.39225799999997,-27.403537],[113.11065699999995,-26.773568],[112.83396199999993,-26.14731],[112.56022200000007,-25.520528],[112.28932699999996,-24.893244],[112.02117299999998,-24.265475],[111.75565499999993,-23.637241],[111.49267399999997,-23.00856],[111.23213399999997,-22.379448],[110.97393999999997,-21.749922],[110.71800000000007,-21.12],[110.45580500000005,-20.468555],[110.19582600000001,-19.816721],[109.93797100000006,-19.164513],[109.68214899999998,-18.511948],[109.428271,-17.859042],[109.17625099999998,-17.20581],[108.92600500000003,-16.552267],[108.67745000000002,-15.898428],[108.43050599999992,-15.244306],[108.18509399999994,-14.589916],[107.94113800000002,-13.935271],[107.69856099999993,-13.280385],[107.45729000000006,-12.62527],[107.21725200000003,-11.96994],[106.97837500000003,-11.314407],[106.74059,-10.658683],[106.503827,-10.00278],[106.26801799999998,-9.346711],[106.033097,-8.690487],[105.79899699999999,-8.03412],[105.565653,-7.37762],[105.33299999999997,-6.721]]}},{"type":"Feature","properties":{"line_id":1000225,"category":"ship_based_oceanographic_sot","line_name":"IX21","line_style":"solid","line_status":"active","edition_status":"Not sampled since 2024","last_cruise_by":"United States","edition_cruises":"[]","last_cruise_ref":"BU3N3HSPIW","next_cruise_ref":null,"last_cruise_date":"2020-11-18","last_cruise_ship":"SANTA INES","next_cruise_date":null,"next_cruise_ship":"","sampled_in_edition":false,"last_cruise_country":"United States","last_cruise_display":"2020-11-18 (SANTA INES)","next_cruise_country":"","next_cruise_display":"","edition_country_codes":"","last_cruise_countries":"United States","next_cruise_countries":"","last_cruise_ship_masked":false,"next_cruise_ship_masked":false,"last_cruise_ship_country":"Denmark","next_cruise_ship_country":""},"geometry":{"type":"LineString","coordinates":[[57.00154162399997,-20.62692703],[56.48202500000002,-21.043479],[55.959599000000026,-21.458444],[55.434195000000045,-21.871778],[54.90574700000002,-22.283436],[54.374183000000016,-22.693374],[53.839436999999975,-23.101547],[53.301436999999964,-23.507907],[52.760115999999925,-23.912408],[52.21540300000004,-24.315002],[51.598656000000005,-24.765256],[50.97743400000002,-25.212967],[50.35163699999998,-25.658063],[49.72116600000004,-26.100471],[49.08592299999998,-26.540117],[48.44580700000006,-26.976927],[47.80072100000007,-27.410822],[47.15056500000003,-27.841727],[46.512977999999976,-28.15],[45.871726999999964,-28.455305],[45.22677999999996,-28.757585],[44.578107000000045,-29.056787],[43.92567800000006,-29.352852],[43.26946799999996,-29.645724],[42.60944900000004,-29.935347],[41.912442000000055,-30.235687],[41.21118899999999,-30.532316],[40.505668000000014,-30.825167],[39.795859000000064,-31.114171],[39.081744999999955,-31.399262],[38.36330900000007,-31.68037],[37.62879099999998,-31.841716],[36.89173299999993,-31.998827],[36.152180000000044,-32.151663],[35.41017799999997,-32.300184],[34.66577600000005,-32.444351],[33.91902500000003,-32.584125],[33.16997900000001,-32.719469],[32.41869399999996,-32.850346],[31.62937999999997,-32.982433],[30.83774500000004,-33.109541],[30.04386199999999,-33.231629],[29.24780499999997,-33.348661],[28.449652000000015,-33.460601],[27.649483000000032,-33.567413],[26.847379000000046,-33.669065]]}},{"type":"Feature","properties":{"line_id":1000234,"category":"ship_based_oceanographic_sot","line_name":"IX22","line_style":"solid","line_status":"active","edition_status":"Not sampled since 2024","last_cruise_by":"Australia","edition_cruises":"[]","last_cruise_ref":"GUS8G1KTLG","next_cruise_ref":null,"last_cruise_date":"2022-12-17","last_cruise_ship":"NORTHWEST SANDERLING","next_cruise_date":null,"next_cruise_ship":"","sampled_in_edition":false,"last_cruise_country":"Australia","last_cruise_display":"2022-12-17 (NORTHWEST SANDERLING)","next_cruise_country":"","next_cruise_display":"","edition_country_codes":"","last_cruise_countries":"Australia","next_cruise_countries":"","last_cruise_ship_masked":false,"next_cruise_ship_masked":false,"last_cruise_ship_country":"Australia","next_cruise_ship_country":""},"geometry":{"type":"LineString","coordinates":[[113.13900000000001,-21.174],[113.61620500000004,-20.695082],[114.09040200000004,-20.214859],[114.56167700000003,-19.733371],[115.03011500000002,-19.250658],[115.49580200000003,-18.76676],[115.95882000000006,-18.281716],[116.41925300000003,-17.795563],[116.87718199999995,-17.30834],[117.33268799999996,-16.820083],[117.78584999999998,-16.330827],[118.23674900000003,-15.84061],[118.72438199999999,-15.306723],[119.20953199999997,-14.771786],[119.69229700000005,-14.23584],[120.172774,-13.698929],[120.65105900000003,-13.161096],[121.12724700000001,-12.622381],[121.60143300000004,-12.082826],[122.07370900000001,-11.542471],[122.54416800000001,-11.001355],[123.01290100000006,-10.459519],[123.48000000000002,-9.917]]}},{"type":"Feature","properties":{"line_id":1000235,"category":"ship_based_oceanographic_sot","line_name":"IX28","line_style":"solid","line_status":"active","edition_status":"Not sampled since 2024","last_cruise_by":"Australia","edition_cruises":"[]","last_cruise_ref":"2CB2UFLNLO","next_cruise_ref":null,"last_cruise_date":"2022-12-29","last_cruise_ship":"ASTROLABE","next_cruise_date":null,"next_cruise_ship":"","sampled_in_edition":false,"last_cruise_country":"Australia","last_cruise_display":"2022-12-29 (ASTROLABE)","next_cruise_country":"","next_cruise_display":"","edition_country_codes":"","last_cruise_countries":"Australia","next_cruise_countries":"","last_cruise_ship_masked":false,"next_cruise_ship_masked":false,"last_cruise_ship_country":"France","next_cruise_ship_country":""},"geometry":{"type":"LineString","coordinates":[[147.30399999999997,-42.886],[147.18402500000002,-43.53979],[147.06142,-44.193451],[146.93606499999999,-44.846978],[146.80783299999996,-45.500365],[146.67659000000003,-46.153605],[146.542194,-46.806692],[146.404495,-47.459617],[146.263333,-48.112373],[146.11853900000006,-48.764952],[145.96993199999997,-49.417345],[145.817323,-50.069542],[145.66050500000006,-50.721533],[145.48841800000002,-51.41673],[145.311016,-52.111668],[145.12799700000005,-52.806331],[144.939036,-53.500703],[144.743784,-54.194767],[144.54186300000003,-54.888505],[144.33286699999996,-55.581896],[144.116358,-56.274919],[143.89185999999995,-56.96755],[143.66918799999996,-57.629607],[143.43825000000004,-58.291258],[143.19851600000004,-58.952477],[142.94941399999993,-59.613235],[142.69032100000004,-60.273502],[142.42055900000003,-60.933244],[142.13938800000005,-61.592423],[141.846,-62.251],[141.55779499999994,-62.870085],[141.25717899999995,-63.488556],[140.94327099999998,-64.10637],[140.61510899999996,-64.723477],[140.27163700000006,-65.339824],[139.911693,-65.955354],[139.534,-66.57]]}},{"type":"Feature","properties":{"line_id":1000236,"category":"ship_based_oceanographic_sot","line_name":"PX02","line_style":"solid","line_status":"active","edition_status":"Not sampled since 2024","last_cruise_by":"Australia","edition_cruises":"[]","last_cruise_ref":"G4WYPRG24F","next_cruise_ref":null,"last_cruise_date":"2022-12-12","last_cruise_ship":"OOCL PANAMA","next_cruise_date":null,"next_cruise_ship":"","sampled_in_edition":false,"last_cruise_country":"Australia","last_cruise_display":"2022-12-12 (OOCL PANAMA)","next_cruise_country":"","next_cruise_display":"","edition_country_codes":"","last_cruise_countries":"Australia","next_cruise_countries":"","last_cruise_ship_masked":false,"next_cruise_ship_masked":false,"last_cruise_ship_country":"Hong Kong (China)","next_cruise_ship_country":""},"geometry":{"type":"LineString","coordinates":[[116.95600000000002,-6.535],[117.64418,-6.644516],[118.33266400000002,-6.753082],[119.02145700000005,-6.860681],[119.71055899999999,-6.967298],[120.39997399999993,-7.072917],[121.08970199999999,-7.177521],[121.77974599999993,-7.281096],[122.47010699999998,-7.383625],[123.16078700000003,-7.485094],[123.85178700000006,-7.585487],[124.54310699999996,-7.684789],[125.23474899999997,-7.782985],[125.92671300000006,-7.88006],[126.61900000000003,-7.976],[127.31513199999995,-8.07129],[128.01159000000007,-8.165404],[128.70837400000005,-8.258327],[129.405485,-8.350045],[130.10292100000004,-8.440544],[130.80068099999994,-8.529809],[131.49876599999993,-8.617828],[132.19717300000002,-8.704586],[132.89590199999998,-8.790069],[133.59495100000004,-8.874266],[134.29431799999998,-8.957162],[134.99400200000002,-9.038744],[135.69399999999996,-9.119]]}},{"type":"Feature","properties":{"line_id":1000239,"category":"ship_based_oceanographic_sot","line_name":"PX06","line_style":"solid","line_status":"active","edition_status":"Not sampled since 2024","last_cruise_by":"Australia","edition_cruises":"[]","last_cruise_ref":"PATKSDPC6K","next_cruise_ref":null,"last_cruise_date":"2022-09-03","last_cruise_ship":"SAMOA CHIEF","next_cruise_date":null,"next_cruise_ship":"","sampled_in_edition":false,"last_cruise_country":"Australia","last_cruise_display":"2022-09-03 (SAMOA CHIEF)","next_cruise_country":"","next_cruise_display":"","edition_country_codes":"","last_cruise_countries":"Australia","next_cruise_countries":"","last_cruise_ship_masked":false,"next_cruise_ship_masked":false,"last_cruise_ship_country":"Singapore","next_cruise_ship_country":""},"geometry":{"type":"LineString","coordinates":[[179.486,-18.371],[179.37187900000004,-19.058476],[179.25680699999998,-19.745882],[179.14074000000005,-20.433214],[179.02363100000002,-21.120468],[178.90543200000002,-21.807641],[178.78609299999994,-22.494729],[178.66556200000002,-23.181728],[178.54378799999995,-23.868634],[178.42071499999997,-24.555444],[178.296286,-25.242152],[178.17044299999998,-25.928756],[178.04312500000003,-26.615249],[177.914269,-27.301627],[177.78381000000002,-27.987886],[177.65167900000006,-28.674021],[177.51474099999996,-29.375674],[177.375901,-30.077186],[177.23507900000004,-30.778549],[177.09218899999996,-31.479758],[176.94714,-32.180806],[176.79984100000001,-32.881686],[176.65019400000006,-33.58239],[176.49809700000003,-34.282911],[176.34344399999998,-34.983242],[176.18612200000007,-35.683373],[176.02601500000003,-36.383295],[175.86300000000006,-37.083]]}},{"type":"Feature","properties":{"line_id":1000230,"category":"ship_based_oceanographic_sot","line_name":"PX11","line_style":"solid","line_status":"active","edition_status":"Not sampled since 2024","last_cruise_by":"Australia","edition_cruises":"[]","last_cruise_ref":"GUS8G1KTLG","next_cruise_ref":null,"last_cruise_date":"2022-12-17","last_cruise_ship":"NORTHWEST SANDERLING","next_cruise_date":null,"next_cruise_ship":"","sampled_in_edition":false,"last_cruise_country":"Australia","last_cruise_display":"2022-12-17 (NORTHWEST SANDERLING)","next_cruise_country":"","next_cruise_display":"","edition_country_codes":"","last_cruise_countries":"Australia","next_cruise_countries":"","last_cruise_ship_masked":false,"next_cruise_ship_masked":false,"last_cruise_ship_country":"Australia","next_cruise_ship_country":""},"geometry":{"type":"LineString","coordinates":[[122.46199999999999,-8.566],[122.63854300000003,-7.872768],[122.81449599999996,-7.179463],[122.989913,-6.486091],[123.164849,-5.792658],[123.33935500000007,-5.099173],[123.51348499999995,-4.40564],[123.68729000000008,-3.712067],[123.86082199999998,-3.018459],[124.034133,-2.324825],[124.20727399999998,-1.631168],[124.38029499999993,-0.937498],[124.55324799999994,-0.243818],[124.72618299999999,0.449864],[124.89915100000007,1.143541],[125.07220200000006,1.837208],[125.24538800000005,2.530859],[125.41876000000002,3.224486],[125.59236799999996,3.918084],[125.76626399999998,4.611646],[125.94049999999993,5.305165],[126.11512800000003,5.998636],[126.29020100000002,6.692051],[126.46577200000002,7.385404],[126.64189499999998,8.078688],[126.818623,8.771897],[126.99601299999995,9.465023],[127.17412000000002,10.15806],[127.35300000000007,10.851],[127.52696300000002,11.521433],[127.70175700000004,12.191762],[127.87743799999998,12.861981],[128.05405900000005,13.532082],[128.231678,14.202058],[128.410351,14.871903],[128.59013600000003,15.541609],[128.77109399999995,16.211168],[128.95328599999993,16.880572],[129.13677499999994,17.549815],[129.32162300000005,18.218888],[129.50789899999995,18.887782],[129.69566800000007,19.556489],[129.885,20.225],[130.18599399999994,20.743137],[130.489057,21.260746],[130.79425600000002,21.77781],[131.10166300000003,22.29431],[131.41134899999997,22.810227]]}},{"type":"Feature","properties":{"line_id":1000232,"category":"ship_based_oceanographic_sot","line_name":"PX13","line_style":"solid","line_status":"active","edition_status":"Not sampled since 2024","last_cruise_by":"United States","edition_cruises":"[]","last_cruise_ref":"L4IDPBWC8J","next_cruise_ref":null,"last_cruise_date":"2020-12-24","last_cruise_ship":"ANL WARRNAMBOOL","next_cruise_date":null,"next_cruise_ship":"","sampled_in_edition":false,"last_cruise_country":"United States","last_cruise_display":"2020-12-24 (ANL WARRNAMBOOL)","next_cruise_country":"","next_cruise_display":"","edition_country_codes":"","last_cruise_countries":"United States","next_cruise_countries":"","last_cruise_ship_masked":false,"next_cruise_ship_masked":false,"last_cruise_ship_country":"Germany","next_cruise_ship_country":""},"geometry":{"type":"MultiLineString","coordinates":[[[174.62799999999993,-36.922],[175.25578700000005,-36.413176],[175.87537699999996,-35.901109],[176.48697600000003,-35.385901],[177.09078999999997,-34.867649],[177.68701999999996,-34.346451],[178.27586199999996,-33.822397],[178.85751200000004,-33.29558],[179.43216200000006,-32.766086]],[[-180,-32.234],[-179.435205,-31.699394],[-178.87689699999999,-31.162328],[-178.32489699999996,-30.62288],[-177.77902900000004,-30.081127],[-177.23912,-29.537143],[-176.70500000000004,-28.991],[-176.21617100000003,-28.48211],[-175.732039,-27.971489],[-175.252475,-27.45919],[-174.777355,-26.945263],[-174.306554,-26.429759],[-173.83995100000004,-25.912727],[-173.377428,-25.394214],[-172.90002500000003,-24.852851],[-172.426788,-24.309984],[-171.95758999999998,-23.765663],[-171.49230599999999,-23.219937],[-171.03081399999996,-22.672853],[-170.572994,-22.124457],[-170.11872700000004,-21.574795],[-169.66789700000004,-21.023911],[-169.220391,-20.471847],[-168.776096,-19.918647],[-168.334902,-19.36435],[-167.896701,-18.808998],[-167.461387,-18.252631],[-167.02885400000002,-17.695285],[-166.599,-17.137],[-166.15700700000002,-16.558471],[-165.71766300000002,-15.979016],[-165.28085699999997,-15.398674],[-164.84648400000003,-14.817485],[-164.41443800000002,-14.235485],[-163.98461399999997,-13.652714],[-163.55691000000002,-13.069206],[-163.13122499999997,-12.484999],[-162.70745899999997,-11.900127],[-162.28551300000004,-11.314625],[-161.86528999999996,-10.728528],[-161.44669299999998,-10.141869],[-161.029628,-9.554682],[-160.61400000000003,-8.967],[-160.199745,-8.378913],[-159.786742,-7.790396],[-159.37489800000003,-7.20148],[-158.96412199999997,-6.612196],[-158.554326,-6.022577],[-158.145418,-5.432652],[-157.73731099999998,-4.842453],[-157.32991500000003,-4.25201],[-156.92314399999998,-3.661353],[-156.516909,-3.070512],[-156.11112300000002,-2.479518],[-155.70569899999998,-1.888399],[-155.30055100000004,-1.297186],[-154.89559299999996,-0.705908],[-154.49073699999997,-0.114595],[-154.08589900000004,0.476724],[-153.68099,1.068019],[-153.27592600000003,1.659261],[-152.87062000000003,2.25042],[-152.464985,2.841466],[-152.05893400000002,3.43237],[-151.652381,4.023102],[-151.24523699999997,4.613632],[-150.83741599999996,5.203929],[-150.42883,5.793964],[-150.019388,6.383705],[-149.60900300000003,6.973122],[-149.197584,7.562184],[-148.78503999999998,8.15086],[-148.371282,8.739118],[-147.956215,9.326925],[-147.53974800000003,9.91425],[-147.121786,10.50106],[-146.70223599999997,11.087321],[-146.281,11.673],[-145.85798799999998,12.258118],[-145.43309499999998,12.842586],[-145.00622299999998,13.426367],[-144.57727,14.009427],[-144.14613499999996,14.591728],[-143.712714,15.173235],[-143.276903,15.753908],[-142.838594,16.333711],[-142.39767900000004,16.912603],[-141.954049,17.490545],[-141.50759300000004,18.067496],[-141.058196,18.643414],[-140.60574299999996,19.218258],[-140.15011800000002,19.791983],[-139.69119999999998,20.364546],[-139.22886900000003,20.9359],[-138.76300000000003,21.506],[-138.293455,22.074714],[-137.82011899999998,22.642077],[-137.34286099999997,23.20804],[-136.86154899999997,23.77255],[-136.37604599999997,24.335556],[-135.886215,24.897003],[-135.39191400000004,25.456837],[-134.89300000000003,26.015],[-134.38939700000003,26.571455],[-133.88088500000003,27.126121],[-133.36731199999997,27.678938],[-132.848524,28.229842],[-132.324362,28.778768],[-131.794664,29.325649],[-131.25926600000003,29.870417],[-130.71799999999996,30.413],[-130.17055,30.953398],[-129.61688500000002,31.491463],[-129.056827,32.027117],[-128.49019499999997,32.560281],[-127.91680500000001,33.090873],[-127.33647000000002,33.618808],[-126.74900000000002,34.144],[-126.15430200000003,34.666262],[-125.55207899999999,35.185601],[-124.94213300000001,35.70192],[-124.32425899999998,36.215121],[-123.69825300000002,36.725105],[-123.06390299999998,37.231767],[-122.42099999999999,37.735]]]}},{"type":"Feature","properties":{"line_id":1000250,"category":"ship_based_oceanographic_sot","line_name":"PX30","line_style":"solid","line_status":"active","edition_status":"Not sampled since 2024","last_cruise_by":"Australia","edition_cruises":"[]","last_cruise_ref":"XU4VUWF6QN","next_cruise_ref":null,"last_cruise_date":"2022-10-17","last_cruise_ship":"MARINER","next_cruise_date":null,"next_cruise_ship":"","sampled_in_edition":false,"last_cruise_country":"Australia","last_cruise_display":"2022-10-17 (MARINER)","next_cruise_country":"","next_cruise_display":"","edition_country_codes":"","last_cruise_countries":"Australia","next_cruise_countries":"","last_cruise_ship_masked":false,"next_cruise_ship_masked":false,"last_cruise_ship_country":"Singapore","next_cruise_ship_country":""},"geometry":{"type":"LineString","coordinates":[[153.55216042100005,-26.877536405],[154.28305,-26.752389],[155.01230899999996,-26.623502],[155.73990100000003,-26.490905],[156.46579299999996,-26.354628],[157.18995399999994,-26.214702],[157.91235200000006,-26.071157],[158.63296000000003,-25.924026],[159.35175000000004,-25.77334],[160.06869499999993,-25.619132],[160.783771,-25.461436],[161.54454499999997,-25.289172],[162.303136,-25.113017],[163.05952100000002,-24.933014],[163.813676,-24.749205],[164.56557999999995,-24.561633],[165.31521699999996,-24.370342],[166.06256699999994,-24.175375],[166.80761600000005,-23.976778],[167.55035199999998,-23.774595],[168.29076199999997,-23.568871],[168.926151,-23.266815],[169.55865300000005,-22.962213],[170.18830100000002,-22.655115],[170.81512699999996,-22.345568],[171.439164,-22.033621],[172.06044700000007,-21.71932],[172.67901099999995,-21.402713],[173.294892,-21.083848],[173.90824799999996,-20.762569],[174.51899400000002,-20.439123],[175.127166,-20.113556],[175.73280499999998,-19.785913],[176.33594900000003,-19.456239],[176.936639,-19.124579],[177.53491499999996,-18.790978],[178.13081899999997,-18.455479]]}},{"type":"Feature","properties":{"line_id":1000500,"category":"ship_based_oceanographic_sot","line_name":"PX32","line_style":"solid","line_status":"active","edition_status":"Not sampled since 2024","last_cruise_by":"Australia","edition_cruises":"[]","last_cruise_ref":"MT6TKOG8VV","next_cruise_ref":null,"last_cruise_date":"2022-11-16","last_cruise_ship":"MV Tasman Chief","next_cruise_date":null,"next_cruise_ship":"","sampled_in_edition":false,"last_cruise_country":"Australia","last_cruise_display":"2022-11-16 (MV Tasman Chief)","next_cruise_country":"","next_cruise_display":"","edition_country_codes":"","last_cruise_countries":"Australia","next_cruise_countries":"","last_cruise_ship_masked":false,"next_cruise_ship_masked":false,"last_cruise_ship_country":"Liberia","next_cruise_ship_country":""},"geometry":{"type":"LineString","coordinates":[[151.23299999999995,-33.8864],[151.3397,-33.8983],[151.44650000000001,-33.9101],[151.5534,-33.9218],[151.66020000000003,-33.9335],[151.76710000000003,-33.945],[151.87400000000002,-33.9565],[151.981,-33.9679],[152.0879,-33.9791],[152.19489999999996,-33.9903],[152.30200000000002,-34.0014],[152.409,-34.0124],[152.51610000000005,-34.0233],[152.6232,-34.0341],[152.73040000000003,-34.0448],[152.83749999999998,-34.0554],[152.9447,-34.0659],[153.05189999999993,-34.0764],[153.15920000000006,-34.0867],[153.26639999999998,-34.097],[153.37369999999999,-34.1071],[153.48109999999997,-34.1172],[153.58839999999998,-34.1271],[153.69579999999996,-34.137],[153.80320000000006,-34.1468],[153.91059999999993,-34.1565],[154.01800000000003,-34.166],[154.1255,-34.1755],[154.23299999999995,-34.1849],[154.34050000000002,-34.1942],[154.44799999999998,-34.2035],[154.55560000000003,-34.2126],[154.66319999999996,-34.2216],[154.7708,-34.2305],[154.87840000000006,-34.2394],[154.98609999999996,-34.2481],[155.0938,-34.2567],[155.2015,-34.2653],[155.30920000000003,-34.2737],[155.41689999999994,-34.2821],[155.52469999999994,-34.2904],[155.63249999999994,-34.2985],[155.74029999999993,-34.3066],[155.84809999999993,-34.3146],[155.95590000000004,-34.3225],[156.06380000000001,-34.3303],[156.1717,-34.338],[156.27959999999996,-34.3456],[156.38750000000005,-34.3531],[156.4955,-34.3605],[156.60339999999997,-34.3678],[156.71140000000003,-34.375],[156.81939999999997,-34.3822],[156.92740000000003,-34.3892],[157.03549999999996,-34.3961],[157.14350000000002,-34.403],[157.25160000000005,-34.4097],[157.35969999999998,-34.4163],[157.4678,-34.4229],[157.57590000000005,-34.4294],[157.68399999999997,-34.4357],[157.79219999999998,-34.442],[157.9004,-34.4482],[158.00850000000003,-34.4542],[158.11670000000004,-34.4602],[158.22500000000002,-34.4661],[158.33320000000003,-34.4719],[158.44139999999993,-34.4776],[158.54970000000003,-34.4832],[158.65800000000002,-34.4887],[158.7663,-34.4941],[158.8746,-34.4994],[158.98289999999997,-34.5046],[159.09119999999996,-34.5097],[159.19960000000003,-34.5147],[159.30790000000002,-34.5196],[159.41629999999998,-34.5245],[159.52469999999994,-34.5292],[159.6331,-34.5338],[159.74149999999997,-34.5384],[159.84989999999993,-34.5428],[159.9583,-34.5472],[160.06669999999997,-34.5514],[160.17520000000002,-34.5556],[160.28369999999995,-34.5596],[160.39210000000003,-34.5636],[160.50059999999996,-34.5674],[160.6091,-34.5712],[160.71759999999995,-34.5749],[160.8261,-34.5785],[160.93460000000005,-34.5819],[161.04320000000007,-34.5853],[161.1517,-34.5886],[161.26019999999994,-34.5918],[161.36879999999996,-34.5949],[161.4774,-34.5979],[161.58590000000004,-34.6008],[161.69450000000006,-34.6036],[161.80309999999997,-34.6063],[161.9117,-34.6089],[162.02030000000002,-34.6114],[162.12889999999993,-34.6138],[162.23749999999995,-34.6161],[162.34609999999998,-34.6184],[162.4547,-34.6205],[162.5634,-34.6225],[162.67200000000003,-34.6245],[162.78060000000005,-34.6263],[162.88930000000005,-34.628],[162.99789999999996,-34.6297],[163.10659999999996,-34.6312],[163.21519999999998,-34.6327],[163.32389999999998,-34.634],[163.4325,-34.6353],[163.5412,-34.6364],[163.6499,-34.6375],[163.75850000000003,-34.6385],[163.86720000000003,-34.6393],[163.97590000000002,-34.6401],[164.08460000000002,-34.6408],[164.19319999999993,-34.6413],[164.30189999999993,-34.6418],[164.41059999999993,-34.6422],[164.51929999999993,-34.6425],[164.62799999999993,-34.6427],[164.73659999999995,-34.6428],[164.84529999999995,-34.6428],[164.95399999999995,-34.6427],[165.06269999999995,-34.6425],[165.17139999999995,-34.6422],[165.28009999999995,-34.6418],[165.38869999999997,-34.6413],[165.49739999999997,-34.6407],[165.60609999999997,-34.64],[165.71479999999997,-34.6393],[165.8234,-34.6384],[165.9321,-34.6374],[166.0408,-34.6363],[166.1494,-34.6352],[166.2581,-34.6339],[166.3668,-34.6326],[166.47540000000004,-34.6311],[166.58410000000003,-34.6295],[166.69270000000006,-34.6279],[166.80129999999997,-34.6261],[166.90999999999997,-34.6243],[167.0186,-34.6224],[167.12720000000002,-34.6203],[167.23590000000002,-34.6182],[167.34450000000004,-34.616],[167.45309999999995,-34.6136],[167.56169999999997,-34.6112],[167.6703,-34.6087],[167.77890000000002,-34.6061],[167.88750000000005,-34.6034],[167.99599999999998,-34.6005],[168.1046,-34.5976],[168.21320000000003,-34.5946],[168.32169999999996,-34.5915],[168.4303,-34.5883],[168.53880000000004,-34.585],[168.64729999999997,-34.5817],[168.75580000000002,-34.5782],[168.86439999999993,-34.5746],[168.97289999999998,-34.5709],[169.08130000000006,-34.5671],[169.1898,-34.5633],[169.29830000000004,-34.5593],[169.40679999999998,-34.5552],[169.51520000000005,-34.5511],[169.6236,-34.5468],[169.73209999999995,-34.5425],[169.84050000000002,-34.538],[169.94889999999998,-34.5335],[170.05729999999994,-34.5288],[170.16570000000002,-34.5241],[170.274,-34.5192],[170.38239999999996,-34.5143],[170.49070000000006,-34.5093],[170.59910000000002,-34.5042],[170.7074,-34.4989],[170.8157,-34.4936],[170.92399999999998,-34.4882],[171.0322,-34.4827],[171.14049999999997,-34.4771],[171.24869999999999,-34.4714],[171.35699999999997,-34.4656],[171.46519999999998,-34.4597],[171.5734,-34.4537],[171.6816,-34.4477],[171.78970000000004,-34.4415],[171.89789999999994,-34.4352],[172.00599999999997,-34.4288],[172.1141,-34.4224],[172.22219999999993,-34.4158],[172.33029999999997,-34.4092],[172.4384,-34.4024],[172.54650000000004,-34.3956]]}},{"type":"Feature","properties":{"line_id":1000254,"category":"ship_based_oceanographic_sot","line_name":"PX36","line_style":"solid","line_status":"active","edition_status":"No cruise recorded","last_cruise_by":"Unknown","edition_cruises":"[]","last_cruise_ref":null,"next_cruise_ref":null,"last_cruise_date":null,"last_cruise_ship":"","next_cruise_date":null,"next_cruise_ship":"","sampled_in_edition":false,"last_cruise_country":"","last_cruise_display":"No cruise recorded","next_cruise_country":"","next_cruise_display":"","edition_country_codes":"","last_cruise_countries":"","next_cruise_countries":"","last_cruise_ship_masked":false,"next_cruise_ship_masked":false,"last_cruise_ship_country":"","next_cruise_ship_country":""},"geometry":{"type":"LineString","coordinates":[[172.76,-43.337],[172.74965599999996,-44.033354],[172.73906499999998,-44.729707],[172.72821699999997,-45.426059],[172.71709699999997,-46.12241],[172.705693,-46.818759],[172.69398999999999,-47.515108],[172.68197099999998,-48.211455],[172.669622,-48.907801],[172.656923,-49.604146],[172.64385600000003,-50.300489],[172.630401,-50.996831],[172.616536,-51.693171],[172.60223799999994,-52.38951],[172.58748100000003,-53.085846],[172.57223899999997,-53.782181],[172.55648199999996,-54.478514],[172.54017999999996,-55.174845],[172.52329800000007,-55.871173],[172.50579900000002,-56.567499],[172.48764400000005,-57.263823],[172.46879,-57.960144],[172.44918800000005,-58.656462],[172.42878799999994,-59.352776],[172.40753399999994,-60.049088],[172.38536399999998,-60.745396],[172.362211,-61.4417],[172.33799999999997,-62.138],[172.312905,-62.826805],[172.286607,-63.515606],[172.259009,-64.204401],[172.230002,-64.893192],[172.19946800000002,-65.581976],[172.16727200000003,-66.270753],[172.13326699999993,-66.959524],[172.09728199999995,-67.648287],[172.05913099999998,-68.337041],[172.018597,-69.025787],[171.97543999999994,-69.714522],[171.92938100000003,-70.403245],[171.88010199999997,-71.091957],[171.82723899999996,-71.780654],[171.77036899999996,-72.469336],[171.70900000000006,-73.158],[170.85154599999998,-73.809339],[169.92442000000005,-74.456963],[168.91901299999995,-75.100386],[167.82534099999998,-75.73904],[166.90623800000003,-76.231948],[165.92050800000004,-76.721201],[164.86109,-77.206379],[163.72000000000003,-77.687]]}},{"type":"Feature","properties":{"line_id":1000255,"category":"ship_based_oceanographic_sot","line_name":"PX37","line_style":"solid","line_status":"active","edition_status":"Not sampled since 2024","last_cruise_by":"United States","edition_cruises":"[]","last_cruise_ref":"XMF394VQLA","next_cruise_ref":null,"last_cruise_date":"2020-10-02","last_cruise_ship":"HORIZON ENTERPRISE","next_cruise_date":null,"next_cruise_ship":"","sampled_in_edition":false,"last_cruise_country":"United States","last_cruise_display":"2020-10-02 (HORIZON ENTERPRISE)","next_cruise_country":"","next_cruise_display":"","edition_country_codes":"","last_cruise_countries":"United States","next_cruise_countries":"","last_cruise_ship_masked":false,"next_cruise_ship_masked":false,"last_cruise_ship_country":"United States","next_cruise_ship_country":""},"geometry":{"type":"LineString","coordinates":[[-157.913,21.25],[-157.35576200000003,21.629236],[-156.79559900000004,22.006605],[-156.23245299999996,22.382062],[-155.666268,22.755559],[-155.096987,23.127049],[-154.52455199999997,23.496485],[-153.94890799999996,23.863819],[-153.37,24.229],[-152.746105,24.617774],[-152.118332,25.003958],[-151.48661200000004,25.387492],[-150.85088099999996,25.76831],[-150.211072,26.146349],[-149.567121,26.521544],[-148.91896399999996,26.893828],[-148.310021,27.238638],[-147.69730800000002,27.580799],[-147.08077600000001,27.920253],[-146.460376,28.256946],[-145.83606099999997,28.590819],[-145.207785,28.921816],[-144.57550400000002,29.249878],[-143.8861,29.601957],[-143.191891,29.950449],[-142.49282400000004,30.295277],[-141.78885100000002,30.636363],[-141.079925,30.973631],[-140.36599999999999,31.307],[-139.702405,31.611179],[-139.03448500000002,31.911905],[-138.362209,32.209114],[-137.68555200000003,32.502743],[-137.00449000000003,32.792726],[-136.31899999999996,33.079],[-135.571485,33.384816],[-134.818733,33.686119],[-134.060725,33.982827],[-133.29744900000003,34.274854],[-132.52889500000003,34.562117],[-131.75505899999996,34.84453],[-130.975864,35.121943],[-130.191392,35.394335],[-129.401653,35.661622],[-128.60666100000003,35.923718],[-127.80643499999996,36.180539],[-127.00099999999998,36.432],[-126.25285400000001,36.659485],[-125.50031899999999,36.882264],[-124.743427,37.10027],[-123.982216,37.313438],[-123.216725,37.521703],[-122.447,37.725]]}},{"type":"Feature","properties":{"line_id":1000258,"category":"ship_based_oceanographic_sot","line_name":"PX40","line_style":"solid","line_status":"active","edition_status":"Not sampled since 2024","last_cruise_by":"United States","edition_cruises":"[]","last_cruise_ref":"TUGX5GGBXX","next_cruise_ref":null,"last_cruise_date":"2020-12-25","last_cruise_ship":"TALLAHASSEE","next_cruise_date":null,"next_cruise_ship":"","sampled_in_edition":false,"last_cruise_country":"United States","last_cruise_display":"2020-12-25 (TALLAHASSEE)","next_cruise_country":"","next_cruise_display":"","edition_country_codes":"","last_cruise_countries":"United States","next_cruise_countries":"","last_cruise_ship_masked":false,"next_cruise_ship_masked":false,"last_cruise_ship_country":"Singapore","next_cruise_ship_country":""},"geometry":{"type":"MultiLineString","coordinates":[[[-157.493,21.42],[-158.15349500000002,21.757667],[-158.817092,22.092699],[-159.483834,22.425041],[-160.15376300000003,22.754634],[-160.82691799999998,23.081419],[-161.50333899999998,23.405338],[-162.183063,23.726332],[-162.866128,24.044341],[-163.51214400000003,24.340697],[-164.16117499999996,24.634305],[-164.81325000000004,24.925115],[-165.468393,25.213075],[-166.12662799999998,25.498134],[-166.787978,25.780241],[-167.45246399999996,26.059344],[-168.12010599999996,26.335392],[-168.83887400000003,26.627839],[-169.561306,26.916654],[-170.287422,27.201774],[-171.01723700000002,27.483133],[-171.750765,27.760668],[-172.488017,28.034312],[-173.22900000000004,28.304],[-173.966053,28.57774],[-174.70692399999996,28.847477],[-175.451618,29.113145],[-176.20013800000004,29.374677],[-176.95248300000003,29.632007],[-177.70864900000004,29.88507],[-178.46863099999996,30.133801],[-179.232419,30.378132],[-180,30.618]],[[179.220278,30.837857],[178.43701399999998,31.053022],[177.65023999999994,31.263434],[176.85998900000004,31.469032],[176.06630100000007,31.669756],[175.26921700000003,31.865545],[174.46878400000003,32.056343],[173.66504899999995,32.242089],[172.858066,32.422727],[172.04789099999994,32.598201],[171.23458400000004,32.768455],[170.41820899999993,32.933435],[169.59883100000002,33.093087],[168.831642,33.243962],[168.06184099999996,33.390112],[167.28949,33.531493],[166.51465200000007,33.668065],[165.737393,33.799787],[164.95778300000006,33.926619],[164.110766,34.058397],[163.261169,34.184348],[162.409091,34.304426],[161.55463299999997,34.418588],[160.6979,34.526793],[159.83899999999994,34.629],[158.977986,34.725231],[158.11502900000005,34.81539],[157.25024499999995,34.899443],[156.38375399999995,34.97736],[155.51567899999998,35.04911],[154.64614200000005,35.114667],[153.84236899999996,35.169592],[153.03756199999998,35.219201],[152.23182399999996,35.263477],[151.42525799999999,35.302407],[150.61796900000002,35.335977],[149.81006200000002,35.364175],[149.001531,35.386997],[148.19259599999998,35.40443],[147.38336600000002,35.416468],[146.57394799999997,35.423107],[145.76445,35.424344],[144.95498199999997,35.420179],[144.07828300000006,35.40962],[143.20188299999995,35.392728],[142.325918,35.36951],[141.45052599999997,35.339974],[140.57584199999997,35.304133],[139.702,35.262]]]}}]}
