{"type":"FeatureCollection","features":[{"type":"Feature","properties":{"line_id":1000243,"category":"ship_based_oceanographic_sot","line_name":"AX07"},"geometry":{"type":"LineString","coordinates":[[-79.79253287,25.39419024],[-79.09889518688277,25.74354615462898],[-78.4011860703808,26.089597448091922],[-77.69935809696985,26.432273201709553],[-76.99336563323057,26.771501868956683],[-76.28316493971718,27.107211291516933],[-75.56871427775597,27.439328717336547],[-74.84997401905778,27.767780820754435],[-74.12690675800927,28.092493724783754],[-73.39947742648587,28.413393025619648],[-72.66765341100638,28.73040381944554],[-71.93140467202608,29.043450731608118],[-71.1907038651399,29.352457948228242],[-70.44552646394227,29.657349250311537],[-69.69585088426285,29.9580480504183],[-68.94165860947128,30.254477431947606],[-68.18293431651523,30.54656019108535],[-67.41966600232888,30.834218881459392],[-66.65184511021934,31.117375861538715],[-65.87946665581103,31.39595334480566],[-65.10252935209908,31.66987345272201],[-64.3210357331347,31.93905827050086],[-63.53499227583872,32.20342990568624],[-62.744409519411974,32.462910549531934],[-61.94930218178748,32.717422541159635],[-61.149689272543895,32.96688843446466],[-60.34559420167959,33.211231067724384],[-59.53704488362566,33.45037363585151],[-58.72407383586005,33.6842397652199],[-57.906718271470375,33.91275359097626],[-57.0850201850024,34.13583983673586],[-56.259026430923534,34.35342389654467],[-55.4287887940282,34.565431918974525],[-54.59436405111225,34.77179089320172],[-53.75581402325006,34.97242873690303],[-52.91320561801851,35.16727438578688],[-52.066610861027876,35.356257884560804],[-51.21610691614158,35.53931047912073],[-50.36177609379357,35.716364709731366],[-49.503705846845385,35.887354504952256],[-48.641988753463465,36.05221527604907],[-47.77672248654246,36.2108840116165],[-46.908009769250626,36.36329937212591],[-46.03595831633011,36.50940178409953],[-45.16068076084651,36.64913353360274],[-44.28229456614977,36.78243885873711],[-43.40092192288033,36.909264040809546],[-42.51668963093147,37.02955749384746],[-41.629728966359195,37.143269852126444],[-40.740175533315586,37.250354055374935],[-39.84816910116796,37.35076543132125],[-38.95385342705556,37.444461775250616],[-38.05737606422562,37.53140342624494],[-37.15888815658121,37.61155333978518],[-36.258544219963845,37.684877156405385],[-35.356501910782235,37.751343266099525],[-34.45292178268595,37.810922868195995],[-33.5479670320656,37.86359002643068],[-32.6418032332411,37.90932171896835],[-31.734598064273698,37.94809788314162],[-30.826521024406354,37.97990145469957],[-29.91774314419905,38.004718401381524],[-29.008436689480256,38.0225377506574],[-28.098774860282635,38.03335161150199],[-27.18893148596911,38.03715519009948],[-26.27908071778479,38.03394679940226],[-25.369396720089732,38.02372786249826],[-24.46005336153799,38.00650290977037],[-23.55122390746854,37.98227956986179],[-22.643080714764555,37.95106855449072],[-21.73579493041844,37.912883637187576],[-20.829536195011496,37.8677416260564],[-19.92447235228014,37.815662330690394],[-19.02076916589387,37.756668523398254],[-18.118590044516807,37.690785894923394],[-17.21809577616264,37.618043004862436],[-16.319444272785006,37.5384712270114],[-15.422790325971127,37.45210468988856],[-14.528285374527476,37.35898021270156],[-13.636077284663232,37.25913723704236],[-12.746310143390586,37.152617754608215],[-11.85912406567227,37.03946623125823],[-10.974655015756634,36.91972952772536],[-10.093034643049627,36.793456817310314],[-9.214390132783063,36.66069950088947],[-8.33884407164912,36.52151111957143],[-7.466514328484111,36.37594726533749],[-6.597513949999999,36.22406549000001]]}},{"type":"Feature","properties":{"line_id":1000303,"category":"ship_based_oceanographic_sot","line_name":"AX32"},"geometry":{"type":"LineString","coordinates":[[-72.69698106,40.13702796],[-72.11549340039879,39.645327661750166],[-71.54224093180844,39.15076906135194],[-70.97701158843242,38.65344156323655],[-70.41959719978655,38.15343175300384],[-69.86979353254567,37.65082348909179],[-69.32740031649668,37.145697992793515],[-68.7922212562205,36.638133936491066],[-68.26406403,36.12820753],[-67.7616937790632,35.63457214495082],[-67.26550358519378,35.138876654320725],[-66.77533169168383,34.64118317545997],[-66.29101968278421,34.141551977810245],[-65.81241244541954,33.6400415462365],[-65.3393581260032,33.136708642638595],[-64.87170808298215,32.63160836584358],[-64.4093168356856,32.12479420978749],[-63.95204200999999,31.61631812]]}},{"type":"Feature","properties":{"line_id":1000225,"category":"ship_based_oceanographic_sot","line_name":"IX21"},"geometry":{"type":"LineString","coordinates":[[57.00154162,-20.62692703],[56.48202452290214,-21.043479290433012],[55.95959854581788,-21.458444053091053],[55.434195428583145,-21.87177775189425],[54.90574664069453,-22.283436153887312],[54.37418340010454,-22.693374344564702],[53.83943669413424,-23.10154671332745],[53.30143730260998,-23.507906939098326],[52.76011582333377,-23.912407976124676],[52.2154027,-24.31500204],[51.59865586683489,-24.765256322831117],[50.977433673849376,-25.212967031362737],[50.351636892819194,-25.658062745906776],[49.72116628939499,-26.10047077673472],[49.085922700330535,-26.540117142205133],[48.44580711722854,-26.976926547856486],[47.80072077709575,-27.410822366580643],[47.15056526,-27.841726619999996],[46.512978058798396,-28.149999637957364],[45.87172698709053,-28.455304300137872],[45.2267800712726,-28.75758517163003],[44.57810684864259,-29.056786391913736],[43.92567844323141,-29.352851689355102],[43.26946764324241,-29.645724397041754],[42.609448979999996,-29.93534747],[41.91244187101913,-30.235687756412652],[41.2111891953898,-30.53231665901247],[40.505668352221086,-30.825167011345346],[39.79585926688475,-31.11417129329755],[39.081744498796795,-31.39926166285429],[38.36330935,-31.68036999],[37.62879140538887,-31.84171616178125],[36.89173373693804,-31.998827494779356],[36.152180555901644,-32.151663456036026],[35.41017842978501,-32.300184224428584],[34.665776274731144,-32.44435072848369],[33.91902534375684,-32.58412468425906],[33.169979210731135,-32.719468633215676],[32.41869375,-32.85034598],[31.629379715633235,-32.9824333364402],[30.837745062073868,-33.10954058384614],[30.043861978260566,-33.231629031076494],[29.24780526236964,-33.348661210096815],[28.44965226658849,-33.46060092130225],[27.649482835772044,-33.56741327801054],[26.84737924,-33.66906475]]}},{"type":"Feature","properties":{"line_id":1000255,"category":"ship_based_oceanographic_sot","line_name":"PX37"},"geometry":{"type":"LineString","coordinates":[[-157.913,21.25],[-157.35576229675877,21.62923591989162],[-156.7955991723871,22.006605130998608],[-156.232453455316,22.382061597153836],[-155.66626816042665,22.75555869539422],[-155.09698652321964,23.127049208375794],[-154.5245520361241,23.49648531723128],[-153.94890848701448,23.863818594904767],[-153.37,24.228999999999996],[-152.74610514516564,24.617773566411287],[-152.11833165853204,25.003958399004258],[-151.48661247735677,25.387491808516245],[-150.85088123839253,25.768310271265587],[-150.21107235347097,26.14634942514413],[-149.56712108907843,26.52154406678717],[-148.91896365,26.893828149999997],[-148.31002087418105,27.238638378482367],[-147.69730797639698,27.580798611940764],[-147.08077570474032,27.92025313679112],[-146.46037579585084,28.25694560511169],[-145.83606104870813,28.590819038696978],[-145.20778540127662,28.921815834282505],[-144.57550401000003,29.249877769999994],[-143.8861003159908,29.601957094592088],[-143.19189096923435,29.950448815542842],[-142.49282444451993,30.295276539951658],[-141.78885139032477,30.636363079499443],[-141.0799247688155,30.97363047107304],[-140.366,31.307000000000002],[-139.70240530490884,31.611179013381133],[-139.03448463505876,31.91190488922639],[-138.36220918695048,32.20911411518958],[-137.68555237122865,32.50274271743673],[-137.00448992069855,32.79272628564755],[-136.319,33.07899999999999],[-135.57148532672625,33.384815930524816],[-134.81873264515363,33.68611948582798],[-134.0607247855865,33.9828269179134],[-133.29744857207504,34.274854100851364],[-132.52889499274684,34.56211658752619],[-131.75505937,34.84452967],[-130.97586451620472,35.121942362671106],[-130.1913927163406,35.394334732644054],[-129.4016533690307,35.661621692946916],[-128.60666087439347,35.92371817510363],[-127.80643479296799,36.18053920793542],[-127.001,36.431999999999995],[-126.25285359135549,36.65948505967899],[-125.50031856708948,36.88226364280338],[-124.74342710035242,37.10026978175441],[-123.98221561420378,37.313437891782506],[-123.2167248617473,37.52170283728965],[-122.44700000000002,37.725]]}},{"type":"Feature","properties":{"line_id":1000245,"category":"ship_based_oceanographic_sot","line_name":"AX10"},"geometry":{"type":"LineString","coordinates":[[-73.78281141,39.6797476],[-73.54445124293228,39.00131267817618],[-73.31062071779972,38.32240199218744],[-73.0811310562507,37.64303568278402],[-72.8558024343831,36.96323291125659],[-72.63446343763904,36.28301192075102],[-72.41695055330533,35.60239009319509],[-72.20310769766252,34.92138400219801],[-71.99278577507957,34.24000946225036],[-71.78584226658188,33.55828157452295],[-71.58214084563016,32.876214769536084],[-71.38155101903781,32.193822846947064],[-71.18394779112724,31.511119012681732],[-70.9892113493826,30.828115913616614],[-70.79722677,30.144825669999996],[-70.61272409003713,29.478484100797964],[-70.43063199633859,28.81189133673478],[-70.25085605987223,28.145057306925644],[-70.07330536533249,27.477991563891603],[-69.89789232145003,26.810703304246424],[-69.72453248222264,26.14320138816112],[-69.55314437831201,25.47549435769324],[-69.38364935790727,24.807590454060826],[-69.21597143640793,24.139497633935374],[-69.05003715432609,23.471223584822027],[-68.88577544285184,22.8027757395903],[-68.72311749656485,22.134161290214035],[-68.56199665281265,21.465387200774856],[-68.40234827730957,20.79646021977937],[-68.24410965554085,20.12738689183708],[-68.08721988958588,19.458173568742204],[-67.9316198,18.78882642]]}},{"type":"Feature","properties":{"line_id":1000215,"category":"ship_based_oceanographic_sot","line_name":"AX25"},"geometry":{"type":"LineString","coordinates":[[19.68903014,-35.49918078],[18.913029487530974,-35.72877870190803],[18.13259139738833,-35.95336586258851],[17.34775365179104,-36.17287202662123],[16.558558633925355,-36.38722746826769],[15.765053405429166,-36.59636304661915],[14.9672897763086,-36.80021028270981],[14.165324366649417,-36.99870143846236],[13.359218659490677,-37.19176959731957],[12.54903904423704,-37.37934874639975],[11.73485685,-37.56137386],[11.323334442811117,-38.17230953561286],[10.904862735118304,-38.781784862814234],[10.479184789323522,-39.38974214259189],[10.046033648166128,-39.9961211236714],[9.605131879339638,-40.60085886179112],[9.156191102512468,-41.203889570639056],[8.69891149870835,-41.80514446394593],[8.232981302142427,-42.404551588203766],[7.7580762747784835,-43.00203564545418],[7.273859164075888,-43.59751780556561],[6.779979144637114,-44.19091550739541],[6.276071244753932,-44.782142248209524],[5.76175575918943,-45.37110736071273],[5.236637649931905,-45.95771577702431],[4.700305937123516,-46.54186777892047],[4.152333082911619,-47.12345873365562],[3.592274371604447,-47.70237881467207],[3.019667290247635,-48.27851270651312],[2.434030914586911,-48.851739293268814],[1.8348653063601255,-49.42193132991174],[1.2216509289842756,-49.98895509592104],[0.5938480899874597,-50.55267003065343],[-0.049103580000000015,-51.11292835],[-0.049103580000000015,-51.828383089999996],[-0.04910358,-52.543837829999994],[-0.04910358,-53.25929257],[-0.04910358000000001,-53.97474731],[-0.049103580000000015,-54.690202049999996],[-0.04910358000000001,-55.40565679],[-0.04910358000000001,-56.12111153000001],[-0.04910358,-56.83656627],[-0.04910358000000001,-57.552021010000004],[-0.049103580000000015,-58.26747575],[-0.04910358000000001,-58.98293049],[-0.049103580000000015,-59.69838523000001],[-0.04910358,-60.413839970000005],[-0.04910358,-61.12929471],[-0.049103579999999994,-61.844749449999995],[-0.049103580000000015,-62.56020418999999],[-0.04910358,-63.275658930000006],[-0.04910358000000001,-63.991113670000004],[-0.04910358,-64.70656841],[-0.04910358000000001,-65.42202315],[-0.04910358000000001,-66.13747789]]}},{"type":"Feature","properties":{"line_id":1000239,"category":"ship_based_oceanographic_sot","line_name":"PX06"},"geometry":{"type":"LineString","coordinates":[[179.486,-18.371],[179.37187854914916,-19.058476479690864],[179.25680705250505,-19.7458822207566],[179.14074014945973,-20.43321383792071],[179.02363113116448,-21.12046784439638],[178.90543186029817,-21.80764064581236],[178.78609268652494,-22.49472853380863],[178.66556235731753,-23.181727679277035],[178.54378792379902,-23.868634125219845],[178.4207146412267,-24.55544377919712],[178.29628586371356,-25.242152405331556],[178.17044293274887,-25.928755615836717],[178.04312505904474,-26.615248862031816],[177.91426919719538,-27.301627424803158],[177.78380991259337,-27.987886404468895],[177.65167924,-28.67402071],[177.51474092327868,-29.37567396839006],[177.3759016304399,-30.077185382316216],[177.235079396846,-30.778548805278703],[177.09218875322014,-31.479757825241787],[176.94714050744113,-32.180805747934436],[176.79984151108533,-32.88168557896685],[176.65019440942396,-33.582390004661036],[176.49809737346206,-34.282911371483735],[176.3434438124683,-34.98324166395884],[176.1861220652938,-35.68337248092447],[176.02601506860867,-36.38329500998577],[175.863,-37.083]]}},{"type":"Feature","properties":{"line_id":1000244,"category":"ship_based_oceanographic_sot","line_name":"AX08"},"geometry":{"type":"LineString","coordinates":[[-74.243,40.534],[-73.40353807335833,40.2411838140132],[-72.57138009824487,39.94235525324758],[-71.74653019991632,39.63762963055841],[-70.92898468046934,39.32712182400086],[-70.1187323731506,39.01094616127213],[-69.31575499756673,38.68921631189907],[-68.52002751411742,38.362045187051656],[-67.73151847612111,38.02954484683268],[-66.95019037824602,37.69182641486817],[-66.176,37.349],[-65.44686666234065,37.018530846173995],[-64.7240901982652,36.683640012968254],[-64.00762076603945,36.34441912626906],[-63.297404902383946,36.00095878644346],[-62.593385759583214,35.653348531901024],[-61.89550333546797,35.30167680682279],[-61.203694695971656,34.94603093286769],[-60.51789419002469,34.58649708466578],[-59.83803365660739,34.22316026890806],[-59.16404262383537,33.85610430684396],[-58.495848499999994,33.48541182],[-57.83574309410475,33.11255529633978],[-57.181242996943055,32.7362484477926],[-56.532271194469935,32.35656939173486],[-55.88874925528151,31.973595035253663],[-55.25059747902556,31.587401074281374],[-54.617735037250874,31.19806199487129],[-53.990080106839294,30.80565107646412],[-53.367549996182326,30.410240397000994],[-52.75006126427947,30.011900839744275],[-52.137529832947834,29.61070210167385],[-51.5298710923431,29.206712703332485],[-50.92700000000001,28.8],[-50.32706933446665,28.377616085479183],[-49.73191254594182,27.952626244649075],[-49.14143644557495,27.525096769099218],[-48.55554790670002,27.095092742347248],[-47.97415393463187,26.662678059917948],[-47.397161730818475,26.22791545009091],[-46.82447875161382,25.790866495231533],[-46.25601276193153,25.35159165362537],[-45.69167188403263,24.91015028174246],[-45.13136464169436,24.466600656862802],[-44.575,24.020999999999997],[-43.99502042540757,23.549828805851686],[-43.41919288256442,23.076522684844576],[-42.84741321931917,22.601144421480054],[-42.27957798394233,22.12375562638656],[-41.71558445129296,21.644416766822694],[-41.15533064484602,21.163187197180992],[-40.59871535483928,20.680125189446077],[-40.04563815278647,20.195287963565267],[-39.4959994025913,19.70873171769478],[-38.94970026848515,19.220511658288416],[-38.40664272000001,18.730682029999997],[-37.868730028616476,18.24101721250574],[-37.3338436720652,17.74985952195166],[-36.80188905140508,17.257259938039432],[-36.27277235634685,16.763268607818997],[-35.746400558300735,16.26793487384385],[-35.22268140154508,15.77130730204112],[-34.70152339265311,15.273433709288337],[-34.18283578830635,14.774361190691184],[-33.66652858161586,14.274136146558302],[-33.152512487063994,13.772804309070912],[-32.64069892417313,13.270410768646872],[-32.131,12.767],[-31.623327048404995,12.262688703574755],[-31.117594674881975,11.757447373014445],[-30.61371695901132,11.251318783456824],[-30.111608587468883,10.744345195750329],[-29.61118483194492,10.23656838103606],[-29.11236152635823,9.728029645056013],[-28.61505504342612,9.218769852195889],[-28.119182270646274,8.708829449271528],[-27.624660585742745,8.198248489068739],[-27.1314078316245,7.687066653646637],[-26.63934229090149,7.175323277415455],[-26.14838266,6.66305737],[-25.65530679513202,6.146943974496727],[-25.163187129393954,5.630379701699568],[-24.671941867787908,5.113403464696048],[-24.181489530114266,4.59605393546225],[-23.69174892269676,4.07836956755938],[-23.202639109894772,3.56038861868585],[-22.714079385429454,3.042149173098974],[-22.225989243548568,2.523689163920546],[-21.738288350053452,2.0050463953407287],[-21.250896513210478,1.4862585647348208],[-20.76373365456811,0.9673632847075975],[-20.276719779700088,0.44839810508002365],[-19.78977494889427,-0.07059946516685145],[-19.302819247806468,-0.5895919359758288],[-18.81577275809809,-1.1085418143104593],[-18.32855552807631,-1.6274115822498871],[-17.841087543355545,-2.1461636750667066],[-17.35328869755919,-2.6647604592728777],[-16.865078763080888,-3.183164210618817],[-16.37637736192525,-3.7013370920307938],[-15.887103936648582,-4.2192411314719385],[-15.397177721421114,-4.736838199712097],[-14.906517713233326,-5.254089987992106],[-14.415042643270201,-5.770957985568025],[-13.922670948478714,-6.287403457121115],[-13.429320743355573,-6.803387420019584],[-12.934909791983989,-7.31887062141825],[-12.439355480350436,-7.833813515182594],[-11.94257478897455,-8.348176238624031],[-11.44448426588789,-8.861918589033372],[-10.945,-9.375],[-10.452201415724065,-9.87897246832141],[-9.957891819325445,-10.38222633033185],[-9.461989908610306,-10.884721808229225],[-8.964413857239613,-11.38641869358809],[-8.465081292611108,-11.887276324420855],[-7.9639092743633455,-12.387253561986864],[-7.460814273559229,-12.886308767341703],[-6.955712152610886,-13.38439977761995],[-6.448518146012224,-13.88148388204532],[-5.939146841950318,-14.37751779766307],[-5.427512164872032,-14.87245764479058],[-4.91352735908762,-15.366258922182997],[-4.39710497349882,-15.85887648191204],[-3.878156847545084,-16.350264503957412],[-3.356594098467908,-16.840376470511533],[-2.83232711,-17.32916514],[-2.3067211139082855,-17.83383631964237],[-1.7781319581442208,-18.337093806904704],[-1.24646065577594,-18.838886509343638],[-0.7116072751548392,-19.339162434707227],[-0.1734709308043675,-19.83786865954806],[0.3680502234134362,-20.334951297468848],[0.9130589986684814,-20.830355467013753],[1.4616591728730775,-21.32402525922209],[2.0139554895225786,-21.815903704864155],[2.570053653443539,-22.305932741382872],[3.1300603232131796,-22.794053179568767],[3.6940830999999994,-23.28020467],[4.230049391857727,-23.75046688080071],[4.769893334162029,-24.21886747447462],[5.313714096798133,-24.68535112360249],[5.861611708091256,-25.149861399345372],[6.413687034489123,-25.61234074215347],[6.970041756252401,-26.07273043240077],[7.530778338882111,-26.53097056099277],[8.095999999999998,-26.986999999999995],[8.632119649533267,-27.414228796275335],[9.172392149027448,-27.83939138481192],[9.716905229896073,-28.26243370159702],[10.26574707630198,-28.683300637364024],[10.819006281160073,-29.101936016659167],[11.37677179765052,-29.518282577222777],[11.939132886000563,-29.932281949748976],[12.506179055286319,-30.343874638092945],[13.077999999999998,-30.753],[13.654782547026603,-31.15953561490711],[14.236519605217518,-31.56347824059771],[14.823300955068593,-31.96476367577632],[15.415216249105807,-32.363326503109654],[16.01235491822617,-32.75910007391266],[16.614806071195048,-33.15201649392872],[17.222658387029384,-33.54200661032093],[17.835999999999995,-33.929]]}},{"type":"Feature","properties":{"line_id":1000214,"category":"ship_based_oceanographic_sot","line_name":"AX22"},"geometry":{"type":"LineString","coordinates":[[-64.86088592,-54.64811648],[-64.70613668096368,-55.33336397017719],[-64.54594144196165,-56.018409046909106],[-64.37996106768054,-56.7032390398737],[-64.20782837381735,-57.38784022346437],[-64.02914516799356,-58.072197704483926],[-63.84347891090396,-58.75629529526874],[-63.65035894,-59.440115369999994],[-63.46798461998848,-60.061072120980064],[-63.278616121267326,-60.681768187638944],[-63.081799449020245,-61.30218652837591],[-62.877041160415196,-61.92230860672089],[-62.663804010460474,-62.5421142243428],[-62.44150201381293,-63.16158133131951],[-62.20949483,-63.78068581]]}},{"type":"Feature","properties":{"line_id":1000226,"category":"ship_based_oceanographic_sot","line_name":"PX09"},"geometry":{"type":"LineString","coordinates":[[-157.7,21.146],[-158.10034066755,20.550870392352092],[-158.49757308287417,19.954828459282727],[-158.89181377491278,19.357909721106655],[-159.28317686928622,18.760148838969954],[-159.67177418570682,18.161579654257793],[-160.05771533320885,17.56223522662028],[-160.44110780324107,16.96214787068334],[-160.8220570606703,16.361349191509262],[-161.200666632749,15.759870118869339],[-161.57703819610506,15.157740940388772],[-161.9512716618139,14.554991333622114],[-162.32346525861678,13.951650397115364],[-162.69371561435096,13.347746680508884],[-163.06211783565976,12.74330821373367],[-163.42876558605136,12.13836253535149],[-163.79375116237736,11.53293672008781],[-164.15716556980206,10.927057405604941],[-164.51909859533524,10.320750818561132],[-164.87963888,9.7140428],[-165.24701480806453,9.093156630356031],[-165.6131181733043,8.471904136686057],[-165.9780405363745,7.850311869095948],[-166.3418725099851,7.228406061660081],[-166.704703833186,6.6062126577491105],[-167.06662344459798,5.983757334869502],[-167.4277195546762,5.361065529057381],[-167.78807971708943,4.738162458868434],[-168.14779089930101,4.115073149004572],[-168.50693955243477,3.491822453617389],[-168.86561168051057,2.868435079327667],[-169.22389290913262,2.2449356079995297],[-169.58186855371423,1.6213485193074275],[-169.93962368732215,0.9976982131335195],[-170.2972432082233,0.3740090318327453],[-170.65481190721664,-0.2496947175974135],[-171.01241453483323,-0.8733887414057728],[-171.37013586848653,-1.4970487369981966],[-171.72806077965598,-2.1206503708337117],[-172.08627430118582,-2.744169256269385],[-172.44486169478273,-3.367580931317155],[-172.80390851879395,-3.9908608362758073],[-173.1635006963497,-4.613984291200784],[-173.5237245839525,-5.236926473174331],[-173.88466704059678,-5.859662393337977],[-174.24641549750282,-6.482166873648779],[-174.60905802854796,-7.104414523320239],[-174.97268342148055,-7.7263797149080435],[-175.33738125,-8.34803656],[-175.6816637580077,-8.932760341061107],[-176.0270522942789,-9.517165774425923],[-176.37362377286843,-10.101230529900871],[-176.72145595144463,-10.684931995014395],[-177.0706274884895,-11.26824725520633],[-177.4212180014463,-11.851153073564038],[-177.7733081258701,-12.433625870073822],[-178.1269795756376,-13.015641700355097],[-178.48231520427163,-13.597176233843863],[-178.83939906743615,-14.178204731390963],[-179.19831648665618,-14.758702022239573],[-179.55915411431764,-15.338642480345166],[-179.922,-15.918000000000001],[-180,-16.475]]}},{"type":"Feature","properties":{"line_id":1000226,"category":"ship_based_oceanographic_sot","line_name":"PX09"},"geometry":{"type":"LineString","coordinates":[[180,-16.475],[179.726,-16.475],[179.3728034038806,-17.03195512851352],[179.01749810736075,-17.588296856875555],[178.66,-18.144],[178.59584848,-18.5433072]]}},{"type":"Feature","properties":{"line_id":1000232,"category":"ship_based_oceanographic_sot","line_name":"PX13"},"geometry":{"type":"LineString","coordinates":[[174.628,-36.922],[175.25578685424279,-36.413176125948695],[175.87537663051464,-35.901109151950884],[176.48697641494857,-35.385900658619995],[177.09079034752912,-34.86764923105626],[177.68701952347197,-34.34645054769201],[178.2758619134523,-33.82239746843117],[178.85751230102113,-33.29558012186582],[179.43216223565622,-32.766085991382624],[180,-32.23400000000001]]}},{"type":"Feature","properties":{"line_id":1000232,"category":"ship_based_oceanographic_sot","line_name":"PX13"},"geometry":{"type":"LineString","coordinates":[[-180,-32.234],[-179.43520522332034,-31.699394343156314],[-178.87689739129064,-31.162328194706447],[-178.32489729008748,-30.622880292980547],[-177.77902896408153,-30.081127115387055],[-177.23911969944905,-29.537142955767628],[-176.705,-28.991],[-176.21617111526368,-28.48211029019005],[-175.73203881247088,-27.971489232239353],[-175.2524751674526,-27.459189598820117],[-174.7773545392294,-26.945262810625106],[-174.30655353393956,-26.429758982249975],[-173.83995096645756,-25.91272696690969],[-173.37742782,-25.3942144],[-172.90002452056402,-24.852851174232953],[-172.4267874902317,-24.309984169443105],[-171.95758958832454,-23.76566324247186],[-171.49230600975443,-23.219937014208977],[-171.0308142276325,-22.672852916006462],[-170.57299393498812,-22.124457234772716],[-170.11872698579506,-21.574795156780137],[-169.66789733548143,-21.02391081022026],[-169.22039098108027,-20.471847306541726],[-168.77609590116074,-19.918646780606934],[-168.3349019956639,-19.36435042970397],[-167.89670102575175,-18.808998551450475],[-167.4613865537656,-18.252630580626683],[-167.02885388337648,-17.69528512497453],[-166.599,-17.136999999999997],[-166.1570073241244,-16.55847068659468],[-165.71766273696517,-15.979015530321009],[-165.28085744987177,-15.398673953977582],[-164.84648432743535,-14.817484624134998],[-164.4144378193741,-14.235485487042865],[-163.98461389304487,-13.652713803584378],[-163.55690996660022,-13.069206183322503],[-163.13122484280402,-12.484998617680718],[-162.707458643513,-11.900126512300812],[-162.28551274482393,-11.314624718619548],[-161.86528971288405,-10.72852756470508],[-161.44669324035465,-10.141868885393539],[-161.02962808351666,-9.554682051765313],[-160.614,-8.967],[-160.19974527223528,-8.378913075354424],[-159.7867416875653,-7.790395671255432],[-159.37489766446308,-7.20147957904089],[-158.96412237920313,-6.612196265215444],[-158.5543257063941,-6.022576897748023],[-158.14541815997944,-5.43265237196843],[-157.73731083467254,-4.84245333609766],[-157.32991534779222,-4.252010216446284],[-156.923143781462,-3.661353242314681],[-156.5169086251366,-3.070512470628588],[-156.111122718418,-2.4795178103430757],[-155.70569919412125,-1.888399046647704],[-155.3005514215521,-1.2971858650054149],[-154.89559294995496,-0.7059078750574597],[-154.49073745209228,-0.11459463442643948],[-154.08589866791337,0.4767243275505023],[-153.68099034827242,1.0680194861265129],[-153.2759261986546,1.6592612974560057],[-152.87061982286875,2.2504201748800035],[-152.46498466666634,2.8414664651539443],[-152.05893396124517,3.432370424586051],[-151.65238066659762,4.023102195054191],[-151.24523741466362,4.6136317798689985],[-150.8374164522478,5.203929019450846],[-150.42882958366297,5.793963566787951],[-150.01938811306053,6.383704862642688],[-149.60900278641142,6.973122110472752],[-149.1975837331006,7.562184251033545],[-148.78504040709996,8.150859936627631],[-148.37128152768642,8.739117504966785],[-147.95621501967233,9.326924952611543],[-147.53974795311808,9.914249907952746],[-147.12178648249846,10.501059603698922],[-146.70223578529627,11.087320848832857],[-146.28100000000003,11.673000000000002],[-145.85798779260648,12.258118291163846],[-145.4330952438118,12.842585741401626],[-145.00622297867204,13.426367169954306],[-144.57727032844116,14.009426822719862],[-144.14613526531107,14.591728340208597],[-143.71271433648496,15.173234724691845],[-143.27690259758765,15.753908306501927],[-142.83859354542466,16.333710709440556],[-142.3976790501058,16.912602815251937],[-141.95404928655853,17.49054472711662],[-141.5075926654633,18.067495732121046],[-141.05819576365215,18.643414262657473],[-140.6057432540226,19.218257856708355],[-140.15011783502834,19.79198311696875],[-139.69120015982168,20.364545668760105],[-139.22886876513442,20.93590011668848],[-138.763,21.506],[-138.2934549910281,22.07471418454455],[-137.8201189328652,22.6420774326219],[-137.3428612228607,23.208039810647342],[-136.8615487881317,23.772550127497958],[-136.3760460157079,24.335555882683757],[-135.8862146835222,24.89700321294351],[-135.39191389249615,25.456836837223612],[-134.893,26.015],[-134.38939660228,26.57145462191785],[-133.88088482648206,27.12612110852118],[-133.36731242252995,27.678937938430156],[-132.84852415039597,28.22984187208356],[-132.32436172576774,28.778767886285156],[-131.7946637695321,29.325649106925283],[-131.25926576164366,29.870416739867757],[-130.718,30.413000000000004],[-130.1705500484992,30.95339835030947],[-129.61688475681873,31.491463244658338],[-129.0568266030473,32.02711742942653],[-128.49019478220134,32.560281356381324],[-127.91680520177286,33.090873102793275],[-127.33647048742971,33.618808289927856],[-126.749,34.14399999999999],[-126.15430172934376,34.66626242654758],[-125.55207945295167,35.18560059658241],[-124.9421330810543,35.70191951396165],[-124.32425946810154,36.21512130052029],[-123.69825250641132,36.725105107501975],[-123.06390323993622,37.23176702647348],[-122.421,37.735]]}},{"type":"Feature","properties":{"line_id":1000218,"category":"ship_based_oceanographic_sot","line_name":"IX01"},"geometry":{"type":"LineString","coordinates":[[115.461,-31.796],[115.15408005733849,-31.170532133243302],[114.85118950149574,-30.544345713994414],[114.5521829102051,-29.917467454791602],[114.25691986883973,-29.289923089253787],[113.96526473264669,-28.66173742171902],[113.67708640049405,-28.032934374202906],[113.39225809950689,-27.403537030844934],[113.11065718,-26.77356768],[112.83396209956874,-26.14730941006967],[112.56022192774924,-25.520528196179985],[112.28932742931386,-24.893243782325605],[112.02117267615664,-24.265475280904326],[111.75565489107936,-23.637241204018185],[111.49267429863015,-23.00855949323038],[111.23213398260575,-22.379447547872143],[110.97393974985008,-21.749922251987712],[110.718,-21.12],[110.45580454359583,-20.468555175666886],[110.19582589512835,-19.816720585337137],[109.9379708499375,-19.16451283500764],[109.68214861937744,-18.5119480779954],[109.4282707072606,-17.859042038831454],[109.17625079139546,-17.205810036091247],[108.92600460991675,-16.55226700422886],[108.67744985212164,-15.898427514478092],[108.43050605354118,-15.244305794880265],[108.18509449498866,-14.58991574949451],[107.94113810534057,-13.935270976843912],[107.69856136781672,-13.280384787647373],[107.45729022953822,-12.625270221884616],[107.21725201415146,-11.969940065239193],[106.97837533731692,-11.314406864962033],[106.74059002487006,-10.658682945195963],[106.50382703346978,-10.002780421799574],[106.26801837355866,-9.34671121670705],[106.03309703446521,-8.690487071858902],[105.79899691148594,-8.034119562736961],[105.56565273479058,-7.377620111535623],[105.333,-6.721000000000001]]}},{"type":"Feature","properties":{"line_id":1000230,"category":"ship_based_oceanographic_sot","line_name":"PX11"},"geometry":{"type":"LineString","coordinates":[[122.462,-8.566],[122.63854284975326,-7.872768174498027],[122.81449590105593,-7.17946278783321],[122.98991332920059,-6.486090603648389],[123.16484868765372,-5.792658306094184],[123.33935497240516,-5.09917250807471],[123.51348468499015,-4.405639759317371],[123.68728989433913,-3.712066554287451],[123.8608222976062,-3.0184593399674373],[124.03413328012236,-2.3248245235205918],[124.20727397461711,-1.6311684798577373],[124.38029531984887,-0.9374975591258605],[124.55324811878205,-0.24381809413679717],[124.72618309644734,0.4498635922459404],[124.89915095762048,1.1435411797443693],[125.07220244445357,1.8372083433094395],[125.2453883941938,2.530858745752967],[125.41875979712353,3.2244860303502385],[125.59236785485791,3.9180838133954254],[125.76626403913609,4.611645676691679],[125.94050015124576,5.305165159957552],[126.1151283822209,5.998635753131046],[126.29020137395841,6.692050888552168],[126.46577228139998,7.385403933004357],[126.64189483593208,8.078688179594616],[126.81862341016028,8.771896839451466],[126.99601308422017,9.46502303321913],[127.17411971379278,10.158059782325413],[127.353,10.851],[127.52696279576557,11.521433040673369],[127.7017574226823,12.191762215144488],[127.87743792911071,12.86198075698942],[128.05405936541925,13.532081771264982],[128.23167785355423,14.202058225516174],[128.41035065915094,14.871902940443977],[128.59013626637943,15.541608580206892],[128.77109445573186,16.211167642328363],[128.95328638496693,16.880572447180377],[129.13677467344235,17.549815127011648],[129.32162349007893,18.218887614487],[129.5078986452147,18.88778163070216],[129.69566768662497,19.556488672636082],[129.885,20.225000000000005],[130.1859944516505,20.74313680134803],[130.4890567437172,21.26074627029148],[130.79425604352178,21.777810202929704],[131.1016629247068,22.294309978088222],[131.41134942,22.81022654]]}},{"type":"Feature","properties":{"line_id":1000236,"category":"ship_based_oceanographic_sot","line_name":"PX02"},"geometry":{"type":"LineString","coordinates":[[116.956,-6.535],[117.6441796517344,-6.6445162334377414],[118.33266449977869,-6.753082061906818],[119.02145698689564,-6.860681382962362],[119.71055938211876,-6.967298209548379],[120.39997377899205,-7.072916672656618],[121.08970209389805,-7.1775210240018374],[121.77974606447704,-7.281095638712765],[122.47010724813869,-7.383625018037948],[123.16078702066817,-7.485093792065726],[123.85178657492935,-7.585486722457389],[124.54310691966559,-7.684788705192683],[125.23474887840146,-7.782984773326661],[125.926713088446,-7.880060099756902],[126.619,-7.975999999999999],[127.31513173410785,-8.071290092156767],[128.0115898723704,-8.165403883028185],[128.7083742979018,-8.258326912356827],[129.405484700277,-8.350044876850427],[130.1029205751742,-8.440543633060278],[130.80068122413357,-8.529809200261784],[131.49876575443471,-8.617827763335752],[132.1971730790935,-8.704585675649064],[132.8959019169799,-8.790069461933166],[133.59495079305822,-8.874265821158941],[134.29431803875013,-8.957161629406343],[134.9940017924225,-9.038743942727262],[135.694,-9.119]]}},{"type":"Feature","properties":{"line_id":1000254,"category":"ship_based_oceanographic_sot","line_name":"PX36"},"geometry":{"type":"LineString","coordinates":[[172.76,-43.337],[172.7496556338315,-44.03335386161301],[172.7390652654493,-44.72970676776043],[172.72821677095493,-45.42605867135198],[172.71709727180112,-46.122409522366134],[172.7056930736184,-46.81875926761248],[172.6939895990372,-47.51510785047077],[172.68197131380538,-48.21145521060398],[172.66962164540527,-48.90780128364207],[172.65692289326518,-49.604146000833325],[172.64385612953313,-50.300489288658774],[172.63040108923312,-50.99683106840561],[172.61653604845316,-51.6931712556939],[172.60223768901346,-52.38950975995093],[172.58748094783022,-53.085846483826025],[172.57223884891476,-53.78218132253784],[172.55648231562628,-54.47851416314513],[172.5401799604139,-55.17484488372984],[172.5232978488343,-55.8711733524804],[172.50579923409475,-56.56749942666044],[172.48764425773388,-57.26382295144598],[172.46878961129013,-57.96014375861098],[172.4491881528925,-58.65646166503785],[172.4287884716059,-59.352776471024875],[172.40753439103236,-60.049087958357596],[172.38536440204942,-60.74539588810496],[172.36221101259608,-61.441699998093],[172.338,-62.138],[172.3129054961057,-62.826805281367484],[172.28660737078977,-63.51560588318642],[172.2590087379161,-64.20440142873832],[172.23000209644357,-64.89319150002608],[172.19946783351813,-65.58197563195188],[172.16727246698048,-66.27075330548156],[172.13326657278841,-66.95952393958316],[172.097282329428,-67.64828688167533],[172.05913059412188,-68.33704139625432],[172.01859740328047,-69.02578665128058],[171.97543976045205,-69.71452170179332],[171.92938053661405,-70.40324547007064],[171.880102256654,-71.09195672145563],[171.82723947756904,-71.78065403470136],[171.7703693714634,-72.46933576532902],[171.709,-73.158],[170.8515462347444,-73.8093393242392],[169.92442032594948,-74.45696297246717],[168.91901262588237,-75.10038614342983],[167.82534069000002,-75.73904],[166.90623817972943,-76.23194834614611],[165.92050807805805,-76.72120119195212],[164.86108944009032,-77.2063790250424],[163.72,-77.687]]}},{"type":"Feature","properties":{"line_id":1000300,"category":"ship_based_oceanographic_sot","line_name":"AX97"},"geometry":{"type":"LineString","coordinates":[[-41.45624089,-23.35398799],[-40.72227058162805,-23.218896486128745],[-39.98980215913872,-23.080405375893175],[-39.258859372622375,-22.93854428743197],[-38.529464764113605,-22.793343362105233],[-37.8016396631393,-22.644833235753797],[-37.075404183734676,-22.49304502001561],[-36.35077722289017,-22.338010283725552],[-35.627776460389875,-22.179761034424214],[-34.90641836,-22.018329700000002],[-34.1866337587555,-21.8535554705488],[-33.46852324028768,-21.68566449960587],[-32.752099606070686,-21.514690414073854],[-32.0373744574732,-21.34066718915829],[-31.324358203081577,-21.1636291309894],[-30.61306006709196,-20.983610859503674],[-29.903488098721386,-20.800647291602477],[-29.19564918258663,-20.614773624603497],[-28.48954905,-20.426025319999997]]}},{"type":"Feature","properties":{"line_id":1000234,"category":"ship_based_oceanographic_sot","line_name":"IX22"},"geometry":{"type":"LineString","coordinates":[[113.139,-21.174],[113.61620507162905,-20.695082202742846],[114.09040180250936,-20.214858739501167],[114.56167669137186,-19.733370541601538],[115.0301152414589,-19.2506577893798],[115.49580197649115,-18.766759936786737],[115.95882045778129,-18.281715735578825],[116.41925330239224,-17.79556325909628],[116.87718220224416,-17.308339925631632],[117.33268794408211,-16.820082521393342],[117.78585043022211,-16.33082722306981],[118.2367487,-15.840609620000002],[118.7243821425767,-15.30672311842412],[119.20953219810599,-14.771785282550244],[119.6922970848692,-14.235839634515314],[120.17277395015142,-13.698929000066302],[120.65105890679953,-13.161095539279295],[121.12724707035298,-12.62238077671884],[121.6014325966751,-12.082825631056025],[122.07370872001857,-11.542470444164477],[122.54416779146605,-11.001355009713885],[123.01290131769213,-10.459518601281196],[123.48,-9.917]]}},{"type":"Feature","properties":{"line_id":1000252,"category":"ship_based_oceanographic_sot","line_name":"PX31"},"geometry":{"type":"LineString","coordinates":[[179.816,-16.312],[180,-15.919]]}},{"type":"Feature","properties":{"line_id":1000252,"category":"ship_based_oceanographic_sot","line_name":"PX31"},"geometry":{"type":"LineString","coordinates":[[-180,-15.919],[-179.646,-15.919],[-179.08309873542495,-15.50476247042586],[-178.522454772452,-15.089106130888354],[-177.9640033287692,-14.672076321212957],[-177.40767969925784,-14.253717886532995],[-176.85341926750135,-13.834075190885661],[-176.30115751592575,-13.413192130931808],[-175.75083003463564,-12.991112149784012],[-175.20237252900935,-12.567878250928775],[-174.6557208261141,-12.143533012229733],[-174.11081088,-11.718118599999999],[-173.54834328340482,-11.282232561178315],[-172.98758248672476,-10.845290343894996],[-172.42845974018996,-10.407336886303444],[-171.870906429749,-9.968416732437772],[-171.31485407858275,-9.528574048362255],[-170.76023434765412,-9.087852638353839],[-170.2069790353508,-8.64629596111011],[-169.65502007627467,-8.203947145975986],[-169.1042895392313,-7.7608490091832625],[-168.5547196244705,-7.317044070097838],[-168.00624266022643,-6.872574567470248],[-167.45879109860576,-6.427482475685747],[-166.912297510869,-5.9818095210109075],[-166.36669458215027,-5.535597197834114],[-165.82191510565818,-5.088886784898067],[-165.27789197639984,-4.641719361522783],[-164.73455818446837,-4.194135823818058],[-164.19184680793396,-3.746176900884791],[-163.64969100537596,-3.297883171004952],[-163.10802400809462,-2.8492950778202983],[-162.5667791120381,-2.4004529465002653],[-162.02588966948116,-1.9513969998996936],[-161.4852890804907,-1.5021673747073585],[-160.94491078421234,-1.0528041375863848],[-160.4046882500126,-0.6033473013078798],[-159.86455496851028,-0.1538368408791788],[-159.3244444425299,0.29568729033171426],[-158.78429017801136,0.7451851444739329],[-158.24402567490785,1.1946167630921076],[-157.70358441810563,1.6439421610036407],[-157.16289986839877,2.0931213101732418],[-156.62190545355165,2.5421141235831377],[-156.08053455948308,2.990880439097451],[-155.5387205216057,3.439380003319351],[-154.99639661635507,3.8875724554397437],[-154.45349605294265,4.335417311076425],[-153.9099519653691,4.782873946102823],[-153.36569740473283,5.229901580465787],[-152.82066533187142,5.676459261992012],[-152.27478861037358,6.12250585018316],[-151.728,6.568],[-151.20051838143874,6.98654722383985],[-150.67209217025567,7.404507103526097],[-150.14266384802983,7.8218429706466255],[-149.61217581258083,8.238517939760957],[-149.08057037608376,8.654494896068268],[-148.54778976368706,9.069736483088063],[-148.01377611266795,9.48420509035703],[-147.47847147215978,9.89786284114595],[-146.94181780348697,10.310671580201143],[-146.40375698114548,10.72259286151534],[-145.864230794466,11.133587936133557],[-145.32318095,11.54361774],[-144.77618467975432,11.955833741160362],[-144.22752137475445,12.366988189675002],[-143.67713112153487,12.777040034990707],[-143.12495393978193,13.18594785161179],[-142.57092978926667,13.59366982679802],[-142.0149985778115,14.000163748359691],[-141.4571001703416,14.405386992561844],[-140.89717439907412,14.809296512150471],[-140.33516107489797,15.211848824514721],[-139.771,15.613000000000005],[-139.3870979950182,16.20723205789572],[-139.00087569137685,16.800770528112302],[-138.61223118751505,17.39358408425648],[-138.22106073771883,17.985640731897384],[-137.82725866905412,18.57690777508216],[-137.43071729656157,19.167351781729927],[-137.0313268366778,19.756938547846822],[-136.62897531885218,20.345633060502912],[-136.22354849533386,20.933399459510024],[-135.81492974911217,21.520200997737362],[-135.403,22.105999999999998],[-135.00312645071435,22.668875365985237],[-134.59996071187365,23.23075007885802],[-134.1933895879432,23.7915878544453],[-133.78329743711788,24.35135145990582],[-133.36956608638693,24.91000267312472],[-132.9520747452612,25.46750224063703],[-132.5306999182269,26.02380983402047],[-132.10531531600378,26.578884004696548],[-131.67579176570317,27.132682137078056],[-131.24199712,27.6851604],[-130.80153561458303,28.239099257256548],[-130.35648192516493,28.791611963072878],[-129.90669221039417,29.342649979377196],[-129.45201921419485,29.892163309643735],[-128.9923121701254,30.440100439243917],[-128.52741670597678,30.986408273628978],[-128.05717474894035,31.531032074279274],[-127.5814244317185,32.07391539235678],[-127.10000000000001,32.615],[-126.63858463910947,33.125968364351465],[-126.17177659968368,33.63521622743905],[-125.69942482175136,34.14268931355422],[-125.22137483977606,34.648331679302395],[-124.73746872301032,35.15208565181345],[-124.24754501950244,35.65389176505051],[-123.75143870436905,36.15368869420181],[-123.24898113300893,36.651413188147295],[-122.74,37.147]]}},{"type":"Feature","properties":{"line_id":1000258,"category":"ship_based_oceanographic_sot","line_name":"PX40"},"geometry":{"type":"LineString","coordinates":[[-157.493,21.42],[-158.15349493668458,21.757666506384837],[-158.81709214349416,22.092699380050384],[-159.48383422850137,22.42504114741455],[-160.153762688693,22.75463388964061],[-160.82691784974776,23.08141924963707],[-161.50333880399694,23.405338440169967],[-162.18306334660303,23.726332253130387],[-162.86612791,24.04434107],[-163.51214359961733,24.340697272879527],[-164.1611754175933,24.63430542193629],[-164.813250041737,24.92511489731985],[-165.46839286822177,25.213074799441756],[-166.1266279576684,25.498133961459533],[-166.78797798033372,25.780240962760185],[-167.452464160479,26.059344143467925],[-168.12010622,26.33539162],[-168.83887372032277,26.627838270184604],[-169.5613063969422,26.916653833857918],[-170.28742238172964,27.201773763818856],[-171.01723751223696,27.483133317258677],[-171.75076524891318,27.760667585827736],[-172.48801659223787,28.034311527463665],[-173.22900000000004,28.304],[-173.96605283643652,28.577740377033876],[-174.70692371158523,28.847477204270632],[-175.45161783676375,29.113144566536594],[-176.2001376281073,29.374676517085486],[-176.9524826224501,29.63200711803271],[-177.70864939449356,29.885070482667356],[-178.4686314755801,30.133800819634658],[-179.23241927440347,30.378132478975193],[-180,30.617999999999995]]}},{"type":"Feature","properties":{"line_id":1000258,"category":"ship_based_oceanographic_sot","line_name":"PX40"},"geometry":{"type":"LineString","coordinates":[[180,30.618],[179.2202783643566,30.837856617930292],[178.4370144113426,31.053021668063636],[177.6502396428587,31.263433679537098],[176.85998900134092,31.469031739046745],[176.06630091125513,31.669755548099232],[175.26921731532065,31.865545481447974],[174.46878370510947,32.05634264661654],[173.66504914567395,32.24208894440251],[172.85806629386494,32.422727130247814],[172.04789141001262,32.59820087635218],[171.23458436265656,32.76845483439913],[170.41820862602714,32.93343469875577],[169.59883127,33.09308726999999],[168.83164179655003,33.2439627080671],[168.06184101892433,33.390112169600314],[167.28948978317345,33.53149335818744],[166.51465168941826,33.668064967432365],[165.73739306303753,33.79978672727223],[164.95778292,33.926619450000004],[164.1107657315421,34.05839756750687],[163.26116913567074,34.184348190847494],[162.40909116743578,34.30442620438213],[161.554633276634,34.418588238552516],[160.69790022937988,34.526792733333764],[159.839,34.629],[158.9779862017962,34.72523059028727],[158.11502897218864,34.81538960284914],[157.2502451793623,34.8994432872355],[156.3837543759585,34.97735999063431],[155.51567864539783,35.04911020812082],[154.64614244,35.11466663],[153.84236941247318,35.16959165478281],[153.03756245027543,35.219200586748705],[152.23182403116775,35.26347713721778],[151.4252578492939,35.30240672117784],[150.61796868475614,35.33597647803316],[149.81006227,35.36417529],[149.0015310952339,35.38699764988492],[148.1925963250372,35.404430598053494],[147.38336576666413,35.41646832867013],[146.57394762126066,35.42310682861457],[145.76445034008927,35.42434388332029],[144.95498248,35.42017908],[144.07828353486164,35.40962008445579],[143.20188313627705,35.392728156041194],[142.3259185070508,35.36950989845392],[141.45052618991625,35.33997437598751],[140.5758418365977,35.30413309811802],[139.702,35.262]]}},{"type":"Feature","properties":{"line_id":1000306,"category":"ship_based_oceanographic_sot","line_name":"PX39"},"geometry":{"type":"LineString","coordinates":[[-157.66625136,21.6986296],[-157.2298265514292,22.239470389307975],[-156.79002331767694,22.779137594489],[-156.3467310076361,23.317590092878735],[-155.89983692321678,23.854785767710915],[-155.4492262617499,24.39068146884397],[-154.9947820586978,24.925232972309132],[-154.53638513082498,25.458394938646986],[-154.07391402000002,25.99012087],[-153.6074282427689,26.519988367760032],[-153.136623158846,27.04832441069802],[-152.6613704008848,27.575078831584626],[-152.18153911975034,28.10020012324204],[-151.69699593504117,28.623635389140706],[-151.20760488774593,29.145330292599265],[-150.71322739538206,29.665229004570485],[-150.21372221,30.183274149999995],[-149.6849888354219,30.723533475819195],[-149.150308001452,31.261625791738634],[-148.60950798072315,31.79747937993634],[-148.06241368700995,32.33102038297387],[-147.50884665044853,32.862172727138365],[-146.9486250008374,33.39085804396647],[-146.38156346,33.91699558999999],[-145.8601586423745,34.39267734743823],[-145.33280761671142,34.86612219402604],[-144.79936417943554,35.33726411310938],[-144.2596798579607,35.806035250873165],[-143.71360394293083,36.27236586222756],[-143.16098352971628,36.73618425606673],[-142.60166357,37.19741674],[-142.03569431046537,37.65565905855195],[-141.46271694694138,38.111163894816585],[-140.88257074829687,38.563851335569716],[-140.29509317373942,39.01363924776537],[-139.70011998917659,39.46044322289513],[-139.09748539978426,39.90417652177632],[-138.4870222,40.344750020000006],[-137.8376482292337,40.80353079697485],[-137.17927076795388,41.25862053752573],[-136.51169296361033,41.70990735303233],[-135.83471726026744,42.15727620674807],[-135.14814573018214,42.600608854667264],[-134.45178044,43.03978379],[-133.74564320654622,43.47438450289095],[-133.0293281306484,43.904577285473046],[-132.30264024137017,44.330230728848846],[-131.56538641941071,44.75120999662022],[-130.817375966277,45.167376798145234],[-130.05842122,45.57858937000001],[-129.23682698786686,46.01131414005243],[-128.40236565956752,46.43805952917054],[-127.55482678426051,46.85864063508455],[-126.69400781917466,47.27286811264143],[-125.81971534,47.68054822999999]]}},{"type":"Feature","properties":{"line_id":1000250,"category":"ship_based_oceanographic_sot","line_name":"PX30"},"geometry":{"type":"LineString","coordinates":[[153.55216042,-26.87753641],[154.28305037283175,-26.752388876646528],[155.0123086379384,-26.623502067404964],[155.73990052882226,-26.490905283603997],[156.46579277322388,-26.354628454257735],[157.18995352494716,-26.214702113570446],[157.91235237360945,-26.071157378390808],[158.63296035235507,-25.92402592565382],[159.35174994357592,-25.773339969847374],[160.06869508268576,-25.619132240539344],[160.78377116,-25.461435960000003],[161.54454503326843,-25.28917168021175],[162.30313632131836,-25.113016892467],[163.05952067251283,-24.933013670009704],[163.81367560700596,-24.749204605681545],[164.56558050697302,-24.561632782355602],[165.31521660460956,-24.37034174378593],[166.06256696800673,-24.17537546591138],[166.80761648501306,-23.976778328649992],[167.55035184519383,-23.774595088217353],[168.29076152,-23.568870850000003],[168.92615032553658,-23.266814749633703],[169.55865298610274,-22.962213267272364],[170.18830103298475,-22.655114964045058],[170.81512697854438,-22.34556807383209],[171.43916427056536,-22.033620496864316],[172.06044724781412,-21.71931979409504],[172.6790110968356,-21.402713182317353],[173.29489181,-21.08384753],[173.90824808976453,-20.762568807488293],[174.5189933588041,-20.439122884306517],[175.12716585761058,-20.113555612024506],[175.73280447746657,-19.785912483051348],[176.33594872479833,-19.456238629682044],[176.93663868679968,-19.1245788237077],[177.53491499831938,-18.79097747656486],[178.13081881,-18.45547864]]}},{"type":"Feature","properties":{"line_id":1000253,"category":"ship_based_oceanographic_sot","line_name":"PX34"},"geometry":{"type":"LineString","coordinates":[[151.028,-33.791],[151.74613583290918,-34.11683864798056],[152.46979060455922,-34.438465495608824],[153.1990002263152,-34.75579669174682],[153.93379710892395,-35.06874769585767],[154.67420997262755,-35.37723332180167],[155.42026365436053,-35.68116778535669],[156.17197891253866,-35.980464755565066],[156.92937223,-36.27503741],[157.64748362968083,-36.54779938841122],[158.37064046252345,-36.8162253062706],[159.09884507810253,-37.080241889237584],[159.83209586544808,-37.33977567703886],[160.57038710824094,-37.594753079080824],[161.31370884179495,-37.84510043299919],[162.06204671244586,-38.090744066145795],[162.81538184,-38.33161036],[163.5736044565211,-38.567670051633144],[164.33677285614777,-38.798806713303165],[165.1048538507425,-39.02494730612772],[165.87780922153914,-39.246019130595165],[166.65559560759652,-39.46194990490048],[167.43816440177693,-39.672667845835356],[168.22546165505912,-39.878101752114105],[169.01742799,-40.07818109],[169.8711388329406,-40.28650343214962],[170.7300478339669,-40.488513113499764],[171.59406062289088,-40.684126631881355],[172.46307535449333,-40.87326186081978],[173.33698267151883,-41.05583818323334],[174.2156656888559,-41.23177662671968],[175.099,-41.401]]}},{"type":"Feature","properties":{"line_id":1000235,"category":"ship_based_oceanographic_sot","line_name":"IX28"},"geometry":{"type":"LineString","coordinates":[[147.304,-42.886],[147.18402517221276,-43.53978953247789],[147.06142007565342,-44.19345086675528],[146.93606482088822,-44.846978132572424],[146.8078326923726,-45.500365123181005],[146.6765896446488,-46.15360527031094],[146.54219375389764,-46.80669161689669],[146.4044946201764,-47.45961678732596],[146.2633327151125,-48.112372954944966],[146.11853866918355,-48.764951806521076],[145.96993249198792,-49.41734450332646],[145.81732271808042,-50.069541638463036],[145.66050547,-50.72153319000001],[145.48841811253894,-51.41673040300342],[145.31101630564368,-52.11166785813895],[145.12799751546586,-52.80633066263997],[144.93903670114463,-53.500702804869576],[144.74378417968907,-54.19476704687604],[144.54186324594392,-54.88850480443423],[144.33286751454673,-55.581896012849974],[144.1163579456346,-56.27491897653059],[143.89185951,-56.967550200000005],[143.66918767799123,-57.6296070285307],[143.43824931331395,-58.291258007866965],[143.19851593823898,-58.95247691853294],[142.94941422944342,-59.61323528422766],[142.6903212015561,-60.27350212498984],[142.42055876584715,-60.933243677590816],[142.13938756896027,-61.59242307802034],[141.846,-62.25099999999999],[141.55779502197586,-62.870084977524485],[141.25717882536335,-63.48855626856665],[140.94327137997453,-64.10636968274115],[140.61510948719734,-64.72347676475694],[140.27163689863877,-65.3398242735328],[139.911693024815,-65.95535358425869],[139.534,-66.57]]}}]}
