{"type":"FeatureCollection","features":[{"type":"Feature","geometry":{"type":"LineString","coordinates":[[-79.79253287,25.39419024],[-6.59751395,36.22406549]]},"properties":{"line_id":1000243,"category":"ship_based_oceanographic_sot","line_name":"AX07"}},{"type":"Feature","geometry":{"type":"LineString","coordinates":[[-72.69698106,40.13702796],[-68.26406403,36.12820753],[-63.95204201,31.61631812]]},"properties":{"line_id":1000303,"category":"ship_based_oceanographic_sot","line_name":"AX32"}},{"type":"Feature","geometry":{"type":"LineString","coordinates":[[57.00154162,-20.62692703],[52.2154027,-24.31500204],[47.15056526,-27.84172662],[42.60944898,-29.93534747],[38.36330935,-31.68036999],[32.41869375,-32.85034598],[26.84737924,-33.66906475]]},"properties":{"line_id":1000225,"category":"ship_based_oceanographic_sot","line_name":"IX21"}},{"type":"Feature","geometry":{"type":"LineString","coordinates":[[-157.913,21.25],[-153.37,24.229],[-148.91896365,26.89382815],[-144.57550401,29.24987777],[-140.366,31.307],[-136.319,33.079],[-131.75505937,34.84452967],[-127.001,36.432],[-122.447,37.725]]},"properties":{"line_id":1000255,"category":"ship_based_oceanographic_sot","line_name":"PX37"}},{"type":"Feature","geometry":{"type":"LineString","coordinates":[[-73.78281141,39.6797476],[-70.79722677,30.14482567],[-67.9316198,18.78882642]]},"properties":{"line_id":1000245,"category":"ship_based_oceanographic_sot","line_name":"AX10"}},{"type":"Feature","geometry":{"type":"LineString","coordinates":[[19.68903014,-35.49918078],[11.73485685,-37.56137386],[-0.04910358,-51.11292835],[-0.04910358,-66.13747789]]},"properties":{"line_id":1000215,"category":"ship_based_oceanographic_sot","line_name":"AX25"}},{"type":"Feature","geometry":{"type":"LineString","coordinates":[[179.486,-18.371],[177.65167924,-28.67402071],[175.863,-37.083]]},"properties":{"line_id":1000239,"category":"ship_based_oceanographic_sot","line_name":"PX06"}},{"type":"Feature","geometry":{"type":"LineString","coordinates":[[-74.243,40.534],[-66.176,37.349],[-58.4958485,33.48541182],[-50.927,28.8],[-44.575,24.021],[-38.40664272,18.73068203],[-32.131,12.767],[-26.14838266,6.66305737],[-10.945,-9.375],[-2.83232711,-17.32916514],[3.6940831,-23.28020467],[8.096,-26.987],[13.078,-30.753],[17.836,-33.929]]},"properties":{"line_id":1000244,"category":"ship_based_oceanographic_sot","line_name":"AX08"}},{"type":"Feature","geometry":{"type":"LineString","coordinates":[[-64.86088592,-54.64811648],[-63.65035894,-59.44011537],[-62.20949483,-63.78068581]]},"properties":{"line_id":1000214,"category":"ship_based_oceanographic_sot","line_name":"AX22"}},{"type":"Feature","geometry":{"type":"MultiLineString","coordinates":[[[-157.7,21.146],[-164.87963888,9.7140428],[-175.33738125,-8.34803656],[-179.922,-15.918],[-180,-16.475]],[[180,-16.475],[179.726,-16.475],[178.66,-18.144],[178.59584848,-18.5433072]]]},"properties":{"line_id":1000226,"category":"ship_based_oceanographic_sot","line_name":"PX09"}},{"type":"Feature","geometry":{"type":"MultiLineString","coordinates":[[[174.628,-36.922],[180,-32.234]],[[-180,-32.234],[-176.705,-28.991],[-173.37742782,-25.3942144],[-166.599,-17.137],[-160.614,-8.967],[-146.281,11.673],[-138.763,21.506],[-134.893,26.015],[-130.718,30.413],[-126.749,34.144],[-122.421,37.735]]]},"properties":{"line_id":1000232,"category":"ship_based_oceanographic_sot","line_name":"PX13"}},{"type":"Feature","geometry":{"type":"LineString","coordinates":[[115.461,-31.796],[113.11065718,-26.77356768],[110.718,-21.12],[105.333,-6.721]]},"properties":{"line_id":1000218,"category":"ship_based_oceanographic_sot","line_name":"IX01"}},{"type":"Feature","geometry":{"type":"LineString","coordinates":[[122.462,-8.566],[127.353,10.851],[129.885,20.225],[131.41134942,22.81022654]]},"properties":{"line_id":1000230,"category":"ship_based_oceanographic_sot","line_name":"PX11"}},{"type":"Feature","geometry":{"type":"LineString","coordinates":[[116.956,-6.535],[126.619,-7.976],[135.694,-9.119]]},"properties":{"line_id":1000236,"category":"ship_based_oceanographic_sot","line_name":"PX02"}},{"type":"Feature","geometry":{"type":"LineString","coordinates":[[172.76,-43.337],[172.338,-62.138],[171.709,-73.158],[167.82534069,-75.73904],[163.72,-77.687]]},"properties":{"line_id":1000254,"category":"ship_based_oceanographic_sot","line_name":"PX36"}},{"type":"Feature","geometry":{"type":"LineString","coordinates":[[-41.45624089,-23.35398799],[-34.90641836,-22.0183297],[-28.48954905,-20.42602532]]},"properties":{"line_id":1000300,"category":"ship_based_oceanographic_sot","line_name":"AX97"}},{"type":"Feature","geometry":{"type":"LineString","coordinates":[[113.139,-21.174],[118.2367487,-15.84060962],[123.48,-9.917]]},"properties":{"line_id":1000234,"category":"ship_based_oceanographic_sot","line_name":"IX22"}},{"type":"Feature","geometry":{"type":"MultiLineString","coordinates":[[[179.816,-16.312],[180,-15.919]],[[-180,-15.919],[-179.646,-15.919],[-174.11081088,-11.7181186],[-151.728,6.568],[-145.32318095,11.54361774],[-139.771,15.613],[-135.403,22.106],[-131.24199712,27.6851604],[-127.1,32.615],[-122.74,37.147]]]},"properties":{"line_id":1000252,"category":"ship_based_oceanographic_sot","line_name":"PX31"}},{"type":"Feature","geometry":{"type":"MultiLineString","coordinates":[[[-157.493,21.42],[-162.86612791,24.04434107],[-168.12010622,26.33539162],[-173.229,28.304],[-180,30.618]],[[180,30.618],[169.59883127,33.09308727],[164.95778292,33.92661945],[159.839,34.629],[154.64614244,35.11466663],[149.81006227,35.36417529],[144.95498248,35.42017908],[139.702,35.262]]]},"properties":{"line_id":1000258,"category":"ship_based_oceanographic_sot","line_name":"PX40"}},{"type":"Feature","geometry":{"type":"LineString","coordinates":[[-157.66625136,21.6986296],[-154.07391402,25.99012087],[-150.21372221,30.18327415],[-146.38156346,33.91699559],[-142.60166357,37.19741674],[-138.4870222,40.34475002],[-134.45178044,43.03978379],[-130.05842122,45.57858937],[-125.81971534,47.68054823]]},"properties":{"line_id":1000306,"category":"ship_based_oceanographic_sot","line_name":"PX39"}},{"type":"Feature","geometry":{"type":"LineString","coordinates":[[153.55216042,-26.87753641],[160.78377116,-25.46143596],[168.29076152,-23.56887085],[173.29489181,-21.08384753],[178.13081881,-18.45547864]]},"properties":{"line_id":1000250,"category":"ship_based_oceanographic_sot","line_name":"PX30"}},{"type":"Feature","geometry":{"type":"LineString","coordinates":[[151.028,-33.791],[156.92937223,-36.27503741],[162.81538184,-38.33161036],[169.01742799,-40.07818109],[175.099,-41.401]]},"properties":{"line_id":1000253,"category":"ship_based_oceanographic_sot","line_name":"PX34"}},{"type":"Feature","geometry":{"type":"LineString","coordinates":[[147.304,-42.886],[145.66050547,-50.72153319],[143.89185951,-56.9675502],[141.846,-62.251],[139.534,-66.57]]},"properties":{"line_id":1000235,"category":"ship_based_oceanographic_sot","line_name":"IX28"}}]}
