{"type":"FeatureCollection","features":[{"type":"Feature","geometry":{"type":"Point","coordinates":[12.575,56.087]},"properties":{"ptf_id":1361198,"ptf_ref":"ZME8SSV","category":"soconet","ptf_model":"GENERIC_pCO2","country_name":"NORWAY","country_ship":null,"country_iso_reporting":"NO","country_sensor_provider":null}},{"type":"Feature","geometry":{"type":"Point","coordinates":[2.903,51.241]},"properties":{"ptf_id":1361236,"ptf_ref":"7FBLBJL","category":"soconet","ptf_model":"GENERIC_pCO2","country_name":"BELGIUM","country_ship":"BELGIUM","country_iso_reporting":"BE","country_sensor_provider":null}},{"type":"Feature","geometry":{"type":"Point","coordinates":[-22.42,64.131]},"properties":{"ptf_id":1361201,"ptf_ref":"JJG4PBR","category":"soconet","ptf_model":"GENERIC_pCO2","country_name":"NORWAY","country_ship":null,"country_iso_reporting":"NO","country_sensor_provider":null}},{"type":"Feature","geometry":{"type":"Point","coordinates":[2.905,51.25]},"properties":{"ptf_id":1361238,"ptf_ref":"3VYP3LC","category":"soconet","ptf_model":"GENERIC_pCO2","country_name":"BELGIUM","country_ship":"BELGIUM","country_iso_reporting":"BE","country_sensor_provider":null}},{"type":"Feature","geometry":{"type":"Point","coordinates":[-51.844,64.134]},"properties":{"ptf_id":1361204,"ptf_ref":"DCAEG3G","category":"soconet","ptf_model":"GENERIC_pCO2","country_name":"NORWAY","country_ship":null,"country_iso_reporting":"NO","country_sensor_provider":null}},{"type":"Feature","geometry":{"type":"Point","coordinates":[-22.475,64.128]},"properties":{"ptf_id":1361205,"ptf_ref":"UNSTW2Z","category":"soconet","ptf_model":"GENERIC_pCO2","country_name":"NORWAY","country_ship":null,"country_iso_reporting":"NO","country_sensor_provider":null}},{"type":"Feature","geometry":{"type":"Point","coordinates":[15.282,78.237]},"properties":{"ptf_id":1361280,"ptf_ref":"EFWWBHF","category":"soconet","ptf_model":"GENERIC_pCO2","country_name":"NORWAY","country_ship":"NORWAY","country_iso_reporting":"NO","country_sensor_provider":null}},{"type":"Feature","geometry":{"type":"Point","coordinates":[10.379,56.126]},"properties":{"ptf_id":1361206,"ptf_ref":"THXT37E","category":"soconet","ptf_model":"GENERIC_pCO2","country_name":"NORWAY","country_ship":null,"country_iso_reporting":"NO","country_sensor_provider":null}},{"type":"Feature","geometry":{"type":"Point","coordinates":[-51.844,64.132]},"properties":{"ptf_id":1361210,"ptf_ref":"MRYEJJN","category":"soconet","ptf_model":"GENERIC_pCO2","country_name":"NORWAY","country_ship":null,"country_iso_reporting":"NO","country_sensor_provider":null}},{"type":"Feature","geometry":{"type":"Point","coordinates":[-52.152,64.059]},"properties":{"ptf_id":1361214,"ptf_ref":"EBJFUVX","category":"soconet","ptf_model":"GENERIC_pCO2","country_name":"NORWAY","country_ship":null,"country_iso_reporting":"NO","country_sensor_provider":null}},{"type":"Feature","geometry":{"type":"Point","coordinates":[-22.404,64.142]},"properties":{"ptf_id":1361217,"ptf_ref":"ZFFE37R","category":"soconet","ptf_model":"GENERIC_pCO2","country_name":"NORWAY","country_ship":null,"country_iso_reporting":"NO","country_sensor_provider":null}},{"type":"Feature","geometry":{"type":"Point","coordinates":[-51.831,64.136]},"properties":{"ptf_id":1361218,"ptf_ref":"5PBEQWP","category":"soconet","ptf_model":"GENERIC_pCO2","country_name":"NORWAY","country_ship":null,"country_iso_reporting":"NO","country_sensor_provider":null}},{"type":"Feature","geometry":{"type":"Point","coordinates":[-22.926,63.926]},"properties":{"ptf_id":1361221,"ptf_ref":"VBUS4PS","category":"soconet","ptf_model":"GENERIC_pCO2","country_name":"NORWAY","country_ship":null,"country_iso_reporting":"NO","country_sensor_provider":null}},{"type":"Feature","geometry":{"type":"Point","coordinates":[-2.203,36.441]},"properties":{"ptf_id":1361222,"ptf_ref":"SWWDY8A","category":"soconet","ptf_model":"GENERIC_pCO2","country_name":"SPAIN","country_ship":null,"country_iso_reporting":"ES","country_sensor_provider":null}},{"type":"Feature","geometry":{"type":"Point","coordinates":[2.902,51.247]},"properties":{"ptf_id":1361226,"ptf_ref":"UHHGG5V","category":"soconet","ptf_model":"GENERIC_pCO2","country_name":"BELGIUM","country_ship":"BELGIUM","country_iso_reporting":"BE","country_sensor_provider":null}},{"type":"Feature","geometry":{"type":"Point","coordinates":[2.912,51.246]},"properties":{"ptf_id":1361228,"ptf_ref":"TUQ9UJJ","category":"soconet","ptf_model":"GENERIC_pCO2","country_name":"BELGIUM","country_ship":"BELGIUM","country_iso_reporting":"BE","country_sensor_provider":null}},{"type":"Feature","geometry":{"type":"Point","coordinates":[2.396,51.471]},"properties":{"ptf_id":1361230,"ptf_ref":"CSPGN4P","category":"soconet","ptf_model":"GENERIC_pCO2","country_name":"BELGIUM","country_ship":"BELGIUM","country_iso_reporting":"BE","country_sensor_provider":null}},{"type":"Feature","geometry":{"type":"Point","coordinates":[-56.792947,-56.7265465]},"properties":{"ptf_id":1360437,"ptf_ref":"YJBXRJM","category":"soconet","ptf_model":"GENERIC_pCO2","country_name":"GERMANY","country_ship":"GERMANY","country_iso_reporting":"DE","country_sensor_provider":null}},{"type":"Feature","geometry":{"type":"Point","coordinates":[2.911,51.247]},"properties":{"ptf_id":1361231,"ptf_ref":"VEY3FCZ","category":"soconet","ptf_model":"GENERIC_pCO2","country_name":"BELGIUM","country_ship":"BELGIUM","country_iso_reporting":"BE","country_sensor_provider":null}},{"type":"Feature","geometry":{"type":"Point","coordinates":[151.3553,-33.8337]},"properties":{"ptf_id":1360950,"ptf_ref":"SBZ9WRY","category":"soconet","ptf_model":"GENERIC_pCO2","country_name":"AUSTRALIA","country_ship":"AUSTRALIA","country_iso_reporting":"AU","country_sensor_provider":null}},{"type":"Feature","geometry":{"type":"Point","coordinates":[153.1886,-26.6867]},"properties":{"ptf_id":1360951,"ptf_ref":"XWF64WM","category":"soconet","ptf_model":"GENERIC_pCO2","country_name":"AUSTRALIA","country_ship":"AUSTRALIA","country_iso_reporting":"AU","country_sensor_provider":null}},{"type":"Feature","geometry":{"type":"Point","coordinates":[147.4552,-43.2841]},"properties":{"ptf_id":1360952,"ptf_ref":"NMLHYSG","category":"soconet","ptf_model":"GENERIC_pCO2","country_name":"AUSTRALIA","country_ship":"AUSTRALIA","country_iso_reporting":"AU","country_sensor_provider":null}},{"type":"Feature","geometry":{"type":"Point","coordinates":[147.6023,-43.5519]},"properties":{"ptf_id":1360953,"ptf_ref":"4HFETPB","category":"soconet","ptf_model":"GENERIC_pCO2","country_name":"AUSTRALIA","country_ship":"AUSTRALIA","country_iso_reporting":"AU","country_sensor_provider":null}},{"type":"Feature","geometry":{"type":"Point","coordinates":[147.4593,-43.1256]},"properties":{"ptf_id":1360954,"ptf_ref":"YSXTTRC","category":"soconet","ptf_model":"GENERIC_pCO2","country_name":"AUSTRALIA","country_ship":"AUSTRALIA","country_iso_reporting":"AU","country_sensor_provider":null}},{"type":"Feature","geometry":{"type":"Point","coordinates":[147.4469,-43.0944]},"properties":{"ptf_id":1360955,"ptf_ref":"LXUGPZQ","category":"soconet","ptf_model":"GENERIC_pCO2","country_name":"AUSTRALIA","country_ship":"AUSTRALIA","country_iso_reporting":"AU","country_sensor_provider":null}},{"type":"Feature","geometry":{"type":"Point","coordinates":[147.3764,-42.9806]},"properties":{"ptf_id":1360956,"ptf_ref":"JHKHZNG","category":"soconet","ptf_model":"GENERIC_pCO2","country_name":"AUSTRALIA","country_ship":"AUSTRALIA","country_iso_reporting":"AU","country_sensor_provider":null}},{"type":"Feature","geometry":{"type":"Point","coordinates":[147.3775,-42.99]},"properties":{"ptf_id":1360957,"ptf_ref":"QXPEU4L","category":"soconet","ptf_model":"GENERIC_pCO2","country_name":"AUSTRALIA","country_ship":"AUSTRALIA","country_iso_reporting":"AU","country_sensor_provider":null}},{"type":"Feature","geometry":{"type":"Point","coordinates":[147.373766,-42.967592]},"properties":{"ptf_id":1360958,"ptf_ref":"PDUWWMC","category":"soconet","ptf_model":"GENERIC_pCO2","country_name":"AUSTRALIA","country_ship":null,"country_iso_reporting":"AU","country_sensor_provider":null}},{"type":"Feature","geometry":{"type":"Point","coordinates":[147.075163,-43.388933]},"properties":{"ptf_id":1360959,"ptf_ref":"MMVA6EU","category":"soconet","ptf_model":"GENERIC_pCO2","country_name":"AUSTRALIA","country_ship":null,"country_iso_reporting":"AU","country_sensor_provider":null}},{"type":"Feature","geometry":{"type":"Point","coordinates":[-51.278107,-32.349499]},"properties":{"ptf_id":1360960,"ptf_ref":"GKKG2HN","category":"soconet","ptf_model":"GENERIC_pCO2","country_name":"BRAZIL","country_ship":"BRAZIL","country_iso_reporting":"BR","country_sensor_provider":null}},{"type":"Feature","geometry":{"type":"Point","coordinates":[-12.1567,55.233]},"properties":{"ptf_id":1360961,"ptf_ref":"QKS5N8D","category":"soconet","ptf_model":"GENERIC_pCO2","country_name":"GERMANY","country_ship":"IRELAND","country_iso_reporting":"DE","country_sensor_provider":null}},{"type":"Feature","geometry":{"type":"Point","coordinates":[-9.1773,56.2203]},"properties":{"ptf_id":1360962,"ptf_ref":"TVXZQ5Q","category":"soconet","ptf_model":"GENERIC_pCO2","country_name":"GERMANY","country_ship":"IRELAND","country_iso_reporting":"DE","country_sensor_provider":null}},{"type":"Feature","geometry":{"type":"Point","coordinates":[-8.5206,50.8407]},"properties":{"ptf_id":1360963,"ptf_ref":"PCVQS5M","category":"soconet","ptf_model":"GENERIC_pCO2","country_name":"GERMANY","country_ship":"IRELAND","country_iso_reporting":"DE","country_sensor_provider":null}},{"type":"Feature","geometry":{"type":"Point","coordinates":[-7.8052,55.3284]},"properties":{"ptf_id":1360964,"ptf_ref":"JDR6NSJ","category":"soconet","ptf_model":"GENERIC_pCO2","country_name":"GERMANY","country_ship":"IRELAND","country_iso_reporting":"DE","country_sensor_provider":null}},{"type":"Feature","geometry":{"type":"Point","coordinates":[-11.28,62.971]},"properties":{"ptf_id":1360965,"ptf_ref":"KCGKJ4B","category":"soconet","ptf_model":"GENERIC_pCO2","country_name":"NORWAY","country_ship":null,"country_iso_reporting":"NO","country_sensor_provider":null}},{"type":"Feature","geometry":{"type":"Point","coordinates":[-57.3948,-38.0131]},"properties":{"ptf_id":1360971,"ptf_ref":"XSUKY7C","category":"soconet","ptf_model":"GENERIC_pCO2","country_name":"ARGENTINA","country_ship":"ARGENTINA","country_iso_reporting":"AR","country_sensor_provider":null}},{"type":"Feature","geometry":{"type":"Point","coordinates":[-57.6403,-38.4866]},"properties":{"ptf_id":1360972,"ptf_ref":"UQX3ZYN","category":"soconet","ptf_model":"GENERIC_pCO2","country_name":"ARGENTINA","country_ship":"ARGENTINA","country_iso_reporting":"AR","country_sensor_provider":null}},{"type":"Feature","geometry":{"type":"Point","coordinates":[-57.2851,-37.9975]},"properties":{"ptf_id":1360973,"ptf_ref":"RTDBN2R","category":"soconet","ptf_model":"GENERIC_pCO2","country_name":"ARGENTINA","country_ship":"ARGENTINA","country_iso_reporting":"AR","country_sensor_provider":null}},{"type":"Feature","geometry":{"type":"Point","coordinates":[-57.3853,-37.8609]},"properties":{"ptf_id":1360974,"ptf_ref":"UVFM2VE","category":"soconet","ptf_model":"GENERIC_pCO2","country_name":"ARGENTINA","country_ship":"ARGENTINA","country_iso_reporting":"AR","country_sensor_provider":null}},{"type":"Feature","geometry":{"type":"Point","coordinates":[-57.4652,-38.0852]},"properties":{"ptf_id":1360975,"ptf_ref":"BTLCA8N","category":"soconet","ptf_model":"GENERIC_pCO2","country_name":"ARGENTINA","country_ship":"ARGENTINA","country_iso_reporting":"AR","country_sensor_provider":null}},{"type":"Feature","geometry":{"type":"Point","coordinates":[-57.4984,-37.9936]},"properties":{"ptf_id":1360976,"ptf_ref":"SSS952L","category":"soconet","ptf_model":"GENERIC_pCO2","country_name":"ARGENTINA","country_ship":"ARGENTINA","country_iso_reporting":"AR","country_sensor_provider":null}},{"type":"Feature","geometry":{"type":"Point","coordinates":[-57.1328,-37.8358]},"properties":{"ptf_id":1360977,"ptf_ref":"MURRQHL","category":"soconet","ptf_model":"GENERIC_pCO2","country_name":"ARGENTINA","country_ship":"ARGENTINA","country_iso_reporting":"AR","country_sensor_provider":null}},{"type":"Feature","geometry":{"type":"Point","coordinates":[11.505,54.252]},"properties":{"ptf_id":1360978,"ptf_ref":"UMNJTFW","category":"soconet","ptf_model":"GENERIC_pCO2","country_name":"GERMANY","country_ship":null,"country_iso_reporting":"DE","country_sensor_provider":null}},{"type":"Feature","geometry":{"type":"Point","coordinates":[20.126,57.948]},"properties":{"ptf_id":1360979,"ptf_ref":"RRFDU6B","category":"soconet","ptf_model":"GENERIC_pCO2","country_name":"GERMANY","country_ship":null,"country_iso_reporting":"DE","country_sensor_provider":null}},{"type":"Feature","geometry":{"type":"Point","coordinates":[11.635,54.3]},"properties":{"ptf_id":1360980,"ptf_ref":"MDNNTLU","category":"soconet","ptf_model":"GENERIC_pCO2","country_name":"GERMANY","country_ship":null,"country_iso_reporting":"DE","country_sensor_provider":null}},{"type":"Feature","geometry":{"type":"Point","coordinates":[24.492,59.735]},"properties":{"ptf_id":1360981,"ptf_ref":"HSRU3QY","category":"soconet","ptf_model":"GENERIC_pCO2","country_name":"GERMANY","country_ship":null,"country_iso_reporting":"DE","country_sensor_provider":null}},{"type":"Feature","geometry":{"type":"Point","coordinates":[11.512,54.26]},"properties":{"ptf_id":1360982,"ptf_ref":"QXSZSYN","category":"soconet","ptf_model":"GENERIC_pCO2","country_name":"GERMANY","country_ship":null,"country_iso_reporting":"DE","country_sensor_provider":null}},{"type":"Feature","geometry":{"type":"Point","coordinates":[24.368,59.708]},"properties":{"ptf_id":1360983,"ptf_ref":"ABQT84Y","category":"soconet","ptf_model":"GENERIC_pCO2","country_name":"GERMANY","country_ship":null,"country_iso_reporting":"DE","country_sensor_provider":null}},{"type":"Feature","geometry":{"type":"Point","coordinates":[11.531,54.261]},"properties":{"ptf_id":1360984,"ptf_ref":"FUJZLJV","category":"soconet","ptf_model":"GENERIC_pCO2","country_name":"GERMANY","country_ship":null,"country_iso_reporting":"DE","country_sensor_provider":null}},{"type":"Feature","geometry":{"type":"Point","coordinates":[24.37,59.708]},"properties":{"ptf_id":1360985,"ptf_ref":"ZAVCWAH","category":"soconet","ptf_model":"GENERIC_pCO2","country_name":"GERMANY","country_ship":null,"country_iso_reporting":"DE","country_sensor_provider":null}},{"type":"Feature","geometry":{"type":"Point","coordinates":[11.566,54.301]},"properties":{"ptf_id":1360986,"ptf_ref":"3AQ67CP","category":"soconet","ptf_model":"GENERIC_pCO2","country_name":"GERMANY","country_ship":null,"country_iso_reporting":"DE","country_sensor_provider":null}},{"type":"Feature","geometry":{"type":"Point","coordinates":[-118.073825,33.183102]},"properties":{"ptf_id":1361007,"ptf_ref":"YWYZJVG","category":"soconet","ptf_model":"GENERIC_pCO2","country_name":"JAPAN","country_ship":null,"country_iso_reporting":"JP","country_sensor_provider":null}},{"type":"Feature","geometry":{"type":"Point","coordinates":[137.561635,34.375037]},"properties":{"ptf_id":1361008,"ptf_ref":"YHJQ9MN","category":"soconet","ptf_model":"GENERIC_pCO2","country_name":"JAPAN","country_ship":null,"country_iso_reporting":"JP","country_sensor_provider":null}},{"type":"Feature","geometry":{"type":"Point","coordinates":[-80.118907,6.985029]},"properties":{"ptf_id":1361009,"ptf_ref":"6SMTDUP","category":"soconet","ptf_model":"GENERIC_pCO2","country_name":"JAPAN","country_ship":null,"country_iso_reporting":"JP","country_sensor_provider":null}},{"type":"Feature","geometry":{"type":"Point","coordinates":[137.951779,33.967005]},"properties":{"ptf_id":1361010,"ptf_ref":"YRVM2GE","category":"soconet","ptf_model":"GENERIC_pCO2","country_name":"JAPAN","country_ship":null,"country_iso_reporting":"JP","country_sensor_provider":null}},{"type":"Feature","geometry":{"type":"Point","coordinates":[153.513494,-26.262422]},"properties":{"ptf_id":1361011,"ptf_ref":"2PKZXLP","category":"soconet","ptf_model":"GENERIC_pCO2","country_name":"JAPAN","country_ship":null,"country_iso_reporting":"JP","country_sensor_provider":null}},{"type":"Feature","geometry":{"type":"Point","coordinates":[173.731897,-40.775771]},"properties":{"ptf_id":1361012,"ptf_ref":"PTPT6FR","category":"soconet","ptf_model":"GENERIC_pCO2","country_name":"JAPAN","country_ship":null,"country_iso_reporting":"JP","country_sensor_provider":null}},{"type":"Feature","geometry":{"type":"Point","coordinates":[134.989978,34.043953]},"properties":{"ptf_id":1361013,"ptf_ref":"4CPR3TB","category":"soconet","ptf_model":"GENERIC_pCO2","country_name":"JAPAN","country_ship":null,"country_iso_reporting":"JP","country_sensor_provider":null}},{"type":"Feature","geometry":{"type":"Point","coordinates":[153.542341,-26.340497]},"properties":{"ptf_id":1361014,"ptf_ref":"TNHXM2F","category":"soconet","ptf_model":"GENERIC_pCO2","country_name":"JAPAN","country_ship":null,"country_iso_reporting":"JP","country_sensor_provider":null}},{"type":"Feature","geometry":{"type":"Point","coordinates":[173.547398,-40.931019]},"properties":{"ptf_id":1361015,"ptf_ref":"HQT45SC","category":"soconet","ptf_model":"GENERIC_pCO2","country_name":"JAPAN","country_ship":null,"country_iso_reporting":"JP","country_sensor_provider":null}},{"type":"Feature","geometry":{"type":"Point","coordinates":[134.990778,33.890588]},"properties":{"ptf_id":1361016,"ptf_ref":"4YX2Q8U","category":"soconet","ptf_model":"GENERIC_pCO2","country_name":"JAPAN","country_ship":null,"country_iso_reporting":"JP","country_sensor_provider":null}},{"type":"Feature","geometry":{"type":"Point","coordinates":[153.523731,-26.2389]},"properties":{"ptf_id":1361017,"ptf_ref":"MSEWYYB","category":"soconet","ptf_model":"GENERIC_pCO2","country_name":"JAPAN","country_ship":null,"country_iso_reporting":"JP","country_sensor_provider":null}},{"type":"Feature","geometry":{"type":"Point","coordinates":[175.853449,-41.460545]},"properties":{"ptf_id":1361018,"ptf_ref":"CTWMHKV","category":"soconet","ptf_model":"GENERIC_pCO2","country_name":"JAPAN","country_ship":null,"country_iso_reporting":"JP","country_sensor_provider":null}},{"type":"Feature","geometry":{"type":"Point","coordinates":[142.919102,18.768006]},"properties":{"ptf_id":1361019,"ptf_ref":"PXYHKLH","category":"soconet","ptf_model":"GENERIC_pCO2","country_name":"JAPAN","country_ship":null,"country_iso_reporting":"JP","country_sensor_provider":null}},{"type":"Feature","geometry":{"type":"Point","coordinates":[153.294559,-26.79238]},"properties":{"ptf_id":1361020,"ptf_ref":"2KY7F9D","category":"soconet","ptf_model":"GENERIC_pCO2","country_name":"JAPAN","country_ship":null,"country_iso_reporting":"JP","country_sensor_provider":null}},{"type":"Feature","geometry":{"type":"Point","coordinates":[172.891436,-43.505052]},"properties":{"ptf_id":1361021,"ptf_ref":"7NUTXRS","category":"soconet","ptf_model":"GENERIC_pCO2","country_name":"JAPAN","country_ship":null,"country_iso_reporting":"JP","country_sensor_provider":null}},{"type":"Feature","geometry":{"type":"Point","coordinates":[136.514295,31.077815]},"properties":{"ptf_id":1361022,"ptf_ref":"GJUGP2G","category":"soconet","ptf_model":"GENERIC_pCO2","country_name":"JAPAN","country_ship":null,"country_iso_reporting":"JP","country_sensor_provider":null}},{"type":"Feature","geometry":{"type":"Point","coordinates":[153.299886,-26.768757]},"properties":{"ptf_id":1361023,"ptf_ref":"EVBBTZY","category":"soconet","ptf_model":"GENERIC_pCO2","country_name":"JAPAN","country_ship":null,"country_iso_reporting":"JP","country_sensor_provider":null}},{"type":"Feature","geometry":{"type":"Point","coordinates":[172.994005,-43.491011]},"properties":{"ptf_id":1361024,"ptf_ref":"UBZMT6Y","category":"soconet","ptf_model":"GENERIC_pCO2","country_name":"JAPAN","country_ship":null,"country_iso_reporting":"JP","country_sensor_provider":null}},{"type":"Feature","geometry":{"type":"Point","coordinates":[134.989922,34.121899]},"properties":{"ptf_id":1361025,"ptf_ref":"QFFFBXV","category":"soconet","ptf_model":"GENERIC_pCO2","country_name":"JAPAN","country_ship":null,"country_iso_reporting":"JP","country_sensor_provider":null}},{"type":"Feature","geometry":{"type":"Point","coordinates":[153.284396,-26.45141]},"properties":{"ptf_id":1361026,"ptf_ref":"CSK6WGF","category":"soconet","ptf_model":"GENERIC_pCO2","country_name":"JAPAN","country_ship":null,"country_iso_reporting":"JP","country_sensor_provider":null}},{"type":"Feature","geometry":{"type":"Point","coordinates":[174.821424,-41.451823]},"properties":{"ptf_id":1361027,"ptf_ref":"SMPGU7K","category":"soconet","ptf_model":"GENERIC_pCO2","country_name":"JAPAN","country_ship":null,"country_iso_reporting":"JP","country_sensor_provider":null}},{"type":"Feature","geometry":{"type":"Point","coordinates":[134.984939,34.095948]},"properties":{"ptf_id":1361028,"ptf_ref":"ZZA7FRC","category":"soconet","ptf_model":"GENERIC_pCO2","country_name":"JAPAN","country_ship":null,"country_iso_reporting":"JP","country_sensor_provider":null}},{"type":"Feature","geometry":{"type":"Point","coordinates":[153.252723,-26.639305]},"properties":{"ptf_id":1361029,"ptf_ref":"5NBYW4G","category":"soconet","ptf_model":"GENERIC_pCO2","country_name":"JAPAN","country_ship":null,"country_iso_reporting":"JP","country_sensor_provider":null}},{"type":"Feature","geometry":{"type":"Point","coordinates":[174.966099,-36.605089]},"properties":{"ptf_id":1361030,"ptf_ref":"7FGWWZP","category":"soconet","ptf_model":"GENERIC_pCO2","country_name":"JAPAN","country_ship":null,"country_iso_reporting":"JP","country_sensor_provider":null}},{"type":"Feature","geometry":{"type":"Point","coordinates":[134.983144,33.92285]},"properties":{"ptf_id":1361031,"ptf_ref":"KHK4H5X","category":"soconet","ptf_model":"GENERIC_pCO2","country_name":"JAPAN","country_ship":null,"country_iso_reporting":"JP","country_sensor_provider":null}},{"type":"Feature","geometry":{"type":"Point","coordinates":[175.881774,-43.555896]},"properties":{"ptf_id":1361032,"ptf_ref":"4VGA7LA","category":"soconet","ptf_model":"GENERIC_pCO2","country_name":"NEW ZEALAND","country_ship":"NEW ZEALAND","country_iso_reporting":"NZ","country_sensor_provider":null}},{"type":"Feature","geometry":{"type":"Point","coordinates":[174.786846,-41.268216]},"properties":{"ptf_id":1361033,"ptf_ref":"RDDP9JR","category":"soconet","ptf_model":"GENERIC_pCO2","country_name":"NEW ZEALAND","country_ship":"NEW ZEALAND","country_iso_reporting":"NZ","country_sensor_provider":null}},{"type":"Feature","geometry":{"type":"Point","coordinates":[174.787267,-41.269815]},"properties":{"ptf_id":1361034,"ptf_ref":"NVY9TQT","category":"soconet","ptf_model":"GENERIC_pCO2","country_name":"NEW ZEALAND","country_ship":"NEW ZEALAND","country_iso_reporting":"NZ","country_sensor_provider":null}},{"type":"Feature","geometry":{"type":"Point","coordinates":[174.852828,-41.324862]},"properties":{"ptf_id":1361035,"ptf_ref":"USKHU4M","category":"soconet","ptf_model":"GENERIC_pCO2","country_name":"NEW ZEALAND","country_ship":"NEW ZEALAND","country_iso_reporting":"NZ","country_sensor_provider":null}},{"type":"Feature","geometry":{"type":"Point","coordinates":[174.818585,-41.4121]},"properties":{"ptf_id":1361036,"ptf_ref":"XQR7AWM","category":"soconet","ptf_model":"GENERIC_pCO2","country_name":"NEW ZEALAND","country_ship":"NEW ZEALAND","country_iso_reporting":"NZ","country_sensor_provider":null}},{"type":"Feature","geometry":{"type":"Point","coordinates":[174.786738,-41.434916]},"properties":{"ptf_id":1361037,"ptf_ref":"UJYGWEM","category":"soconet","ptf_model":"GENERIC_pCO2","country_name":"NEW ZEALAND","country_ship":"NEW ZEALAND","country_iso_reporting":"NZ","country_sensor_provider":null}},{"type":"Feature","geometry":{"type":"Point","coordinates":[-80.1727,25.7162]},"properties":{"ptf_id":1361038,"ptf_ref":"KBYBGZA","category":"soconet","ptf_model":"GENERIC_pCO2","country_name":"USA","country_ship":"USA","country_iso_reporting":"US","country_sensor_provider":null}},{"type":"Feature","geometry":{"type":"Point","coordinates":[-80.1873,25.6972]},"properties":{"ptf_id":1361039,"ptf_ref":"VBYMS7S","category":"soconet","ptf_model":"GENERIC_pCO2","country_name":"USA","country_ship":"USA","country_iso_reporting":"US","country_sensor_provider":null}},{"type":"Feature","geometry":{"type":"Point","coordinates":[-80.1694,25.7186]},"properties":{"ptf_id":1361040,"ptf_ref":"QYMYWEJ","category":"soconet","ptf_model":"GENERIC_pCO2","country_name":"USA","country_ship":"USA","country_iso_reporting":"US","country_sensor_provider":null}},{"type":"Feature","geometry":{"type":"Point","coordinates":[-80.1817,25.7726]},"properties":{"ptf_id":1361041,"ptf_ref":"WRE3PPX","category":"soconet","ptf_model":"GENERIC_pCO2","country_name":"USA","country_ship":"USA","country_iso_reporting":"US","country_sensor_provider":null}},{"type":"Feature","geometry":{"type":"Point","coordinates":[-80.1476,25.6525]},"properties":{"ptf_id":1361042,"ptf_ref":"RFSQFEX","category":"soconet","ptf_model":"GENERIC_pCO2","country_name":"USA","country_ship":"USA","country_iso_reporting":"US","country_sensor_provider":null}},{"type":"Feature","geometry":{"type":"Point","coordinates":[-80.184,25.7639]},"properties":{"ptf_id":1361043,"ptf_ref":"4UVYAWC","category":"soconet","ptf_model":"GENERIC_pCO2","country_name":"USA","country_ship":"USA","country_iso_reporting":"US","country_sensor_provider":null}},{"type":"Feature","geometry":{"type":"Point","coordinates":[-80.1843,25.7534]},"properties":{"ptf_id":1361044,"ptf_ref":"DYJXBXN","category":"soconet","ptf_model":"GENERIC_pCO2","country_name":"USA","country_ship":"USA","country_iso_reporting":"US","country_sensor_provider":null}},{"type":"Feature","geometry":{"type":"Point","coordinates":[-80.1845,25.7322]},"properties":{"ptf_id":1361045,"ptf_ref":"EGG95WJ","category":"soconet","ptf_model":"GENERIC_pCO2","country_name":"USA","country_ship":"USA","country_iso_reporting":"US","country_sensor_provider":null}},{"type":"Feature","geometry":{"type":"Point","coordinates":[-80.1844,25.7545]},"properties":{"ptf_id":1361046,"ptf_ref":"9EABTYH","category":"soconet","ptf_model":"GENERIC_pCO2","country_name":"USA","country_ship":"USA","country_iso_reporting":"US","country_sensor_provider":null}},{"type":"Feature","geometry":{"type":"Point","coordinates":[15.4569,78.2667]},"properties":{"ptf_id":1361088,"ptf_ref":"RYLBFAM","category":"soconet","ptf_model":"GENERIC_pCO2","country_name":"USA","country_ship":null,"country_iso_reporting":"US","country_sensor_provider":null}},{"type":"Feature","geometry":{"type":"Point","coordinates":[15.3655,78.2693]},"properties":{"ptf_id":1361089,"ptf_ref":"LSCTTYH","category":"soconet","ptf_model":"GENERIC_pCO2","country_name":"USA","country_ship":null,"country_iso_reporting":"US","country_sensor_provider":null}},{"type":"Feature","geometry":{"type":"Point","coordinates":[15.195,78.2597]},"properties":{"ptf_id":1361090,"ptf_ref":"MKGSSKD","category":"soconet","ptf_model":"GENERIC_pCO2","country_name":"USA","country_ship":null,"country_iso_reporting":"US","country_sensor_provider":null}},{"type":"Feature","geometry":{"type":"Point","coordinates":[15.1021,78.2551]},"properties":{"ptf_id":1361091,"ptf_ref":"8LFX5KT","category":"soconet","ptf_model":"GENERIC_pCO2","country_name":"USA","country_ship":null,"country_iso_reporting":"US","country_sensor_provider":null}},{"type":"Feature","geometry":{"type":"Point","coordinates":[51.524,89.9846]},"properties":{"ptf_id":1361092,"ptf_ref":"FVELVFN","category":"soconet","ptf_model":"GENERIC_pCO2","country_name":"USA","country_ship":null,"country_iso_reporting":"US","country_sensor_provider":null}},{"type":"Feature","geometry":{"type":"Point","coordinates":[-67.2944,-54.9102]},"properties":{"ptf_id":1361093,"ptf_ref":"6CE3P9A","category":"soconet","ptf_model":"GENERIC_pCO2","country_name":"USA","country_ship":null,"country_iso_reporting":"US","country_sensor_provider":null}},{"type":"Feature","geometry":{"type":"Point","coordinates":[-67.317,-54.9116]},"properties":{"ptf_id":1361094,"ptf_ref":"GXSL5ZM","category":"soconet","ptf_model":"GENERIC_pCO2","country_name":"USA","country_ship":null,"country_iso_reporting":"US","country_sensor_provider":null}},{"type":"Feature","geometry":{"type":"Point","coordinates":[-151.8279,57.3782]},"properties":{"ptf_id":1361095,"ptf_ref":"8HVJ52J","category":"soconet","ptf_model":"GENERIC_pCO2","country_name":"USA","country_ship":null,"country_iso_reporting":"US","country_sensor_provider":null}},{"type":"Feature","geometry":{"type":"Point","coordinates":[-166.5253,53.9919]},"properties":{"ptf_id":1361096,"ptf_ref":"VUH8JDV","category":"soconet","ptf_model":"GENERIC_pCO2","country_name":"USA","country_ship":null,"country_iso_reporting":"US","country_sensor_provider":null}},{"type":"Feature","geometry":{"type":"Point","coordinates":[-132.8573,54.6055]},"properties":{"ptf_id":1361097,"ptf_ref":"HRQ5PUT","category":"soconet","ptf_model":"GENERIC_pCO2","country_name":"USA","country_ship":null,"country_iso_reporting":"US","country_sensor_provider":null}},{"type":"Feature","geometry":{"type":"Point","coordinates":[-65.0151,-58.2986]},"properties":{"ptf_id":1361098,"ptf_ref":"5YQWNSQ","category":"soconet","ptf_model":"GENERIC_pCO2","country_name":"USA","country_ship":"USA","country_iso_reporting":"US","country_sensor_provider":null}},{"type":"Feature","geometry":{"type":"Point","coordinates":[172.8789,-71.2565]},"properties":{"ptf_id":1361099,"ptf_ref":"URWEM7M","category":"soconet","ptf_model":"GENERIC_pCO2","country_name":"USA","country_ship":"USA","country_iso_reporting":"US","country_sensor_provider":null}},{"type":"Feature","geometry":{"type":"Point","coordinates":[-63.9451,-58.2328]},"properties":{"ptf_id":1361100,"ptf_ref":"4NBQDNL","category":"soconet","ptf_model":"GENERIC_pCO2","country_name":"USA","country_ship":"USA","country_iso_reporting":"US","country_sensor_provider":null}},{"type":"Feature","geometry":{"type":"Point","coordinates":[-157.8351,21.1758]},"properties":{"ptf_id":1361101,"ptf_ref":"UFSF54P","category":"soconet","ptf_model":"GENERIC_pCO2","country_name":"USA","country_ship":"USA","country_iso_reporting":"US","country_sensor_provider":null}},{"type":"Feature","geometry":{"type":"Point","coordinates":[-157.9725,21.1988]},"properties":{"ptf_id":1361102,"ptf_ref":"KRDTWZN","category":"soconet","ptf_model":"GENERIC_pCO2","country_name":"USA","country_ship":"USA","country_iso_reporting":"US","country_sensor_provider":null}},{"type":"Feature","geometry":{"type":"Point","coordinates":[-157.9213,21.2426]},"properties":{"ptf_id":1361103,"ptf_ref":"HZYQKFA","category":"soconet","ptf_model":"GENERIC_pCO2","country_name":"USA","country_ship":"USA","country_iso_reporting":"US","country_sensor_provider":null}},{"type":"Feature","geometry":{"type":"Point","coordinates":[-149.3515,59.9726]},"properties":{"ptf_id":1361104,"ptf_ref":"YTT5GGW","category":"soconet","ptf_model":"GENERIC_pCO2","country_name":"USA","country_ship":"USA","country_iso_reporting":"US","country_sensor_provider":null}},{"type":"Feature","geometry":{"type":"Point","coordinates":[-149.4077,60.099]},"properties":{"ptf_id":1361105,"ptf_ref":"PKEE8LQ","category":"soconet","ptf_model":"GENERIC_pCO2","country_name":"USA","country_ship":"USA","country_iso_reporting":"US","country_sensor_provider":null}},{"type":"Feature","geometry":{"type":"Point","coordinates":[-149.3583,60.0193]},"properties":{"ptf_id":1361106,"ptf_ref":"VHBTJMZ","category":"soconet","ptf_model":"GENERIC_pCO2","country_name":"USA","country_ship":"USA","country_iso_reporting":"US","country_sensor_provider":null}},{"type":"Feature","geometry":{"type":"Point","coordinates":[-165.8845,64.4165]},"properties":{"ptf_id":1361107,"ptf_ref":"YFVPBNJ","category":"soconet","ptf_model":"GENERIC_pCO2","country_name":"USA","country_ship":"USA","country_iso_reporting":"US","country_sensor_provider":null}},{"type":"Feature","geometry":{"type":"Point","coordinates":[-153.987,58.0944]},"properties":{"ptf_id":1361108,"ptf_ref":"8XLCHEG","category":"soconet","ptf_model":"GENERIC_pCO2","country_name":"USA","country_ship":"USA","country_iso_reporting":"US","country_sensor_provider":null}},{"type":"Feature","geometry":{"type":"Point","coordinates":[-166.4826,53.9109]},"properties":{"ptf_id":1361109,"ptf_ref":"HHK3RLX","category":"soconet","ptf_model":"GENERIC_pCO2","country_name":"USA","country_ship":"USA","country_iso_reporting":"US","country_sensor_provider":null}},{"type":"Feature","geometry":{"type":"Point","coordinates":[-146.3148,-10.8855]},"properties":{"ptf_id":1361110,"ptf_ref":"SCTM6KN","category":"soconet","ptf_model":"GENERIC_pCO2","country_name":"USA","country_ship":"USA","country_iso_reporting":"US","country_sensor_provider":null}},{"type":"Feature","geometry":{"type":"Point","coordinates":[-80.5731,-52.4863]},"properties":{"ptf_id":1361111,"ptf_ref":"5VQPEKP","category":"soconet","ptf_model":"GENERIC_pCO2","country_name":"USA","country_ship":"USA","country_iso_reporting":"US","country_sensor_provider":null}},{"type":"Feature","geometry":{"type":"Point","coordinates":[19.46,70.221]},"properties":{"ptf_id":1361167,"ptf_ref":"6DMVHNC","category":"soconet","ptf_model":"GENERIC_pCO2","country_name":"NORWAY","country_ship":"NORWAY","country_iso_reporting":"NO","country_sensor_provider":null}},{"type":"Feature","geometry":{"type":"Point","coordinates":[20.079,69.959]},"properties":{"ptf_id":1361168,"ptf_ref":"UQMY4CL","category":"soconet","ptf_model":"GENERIC_pCO2","country_name":"NORWAY","country_ship":"NORWAY","country_iso_reporting":"NO","country_sensor_provider":null}},{"type":"Feature","geometry":{"type":"Point","coordinates":[5.182,61.822]},"properties":{"ptf_id":1361169,"ptf_ref":"4DXCH5P","category":"soconet","ptf_model":"GENERIC_pCO2","country_name":"NORWAY","country_ship":"NORWAY","country_iso_reporting":"NO","country_sensor_provider":null}},{"type":"Feature","geometry":{"type":"Point","coordinates":[4.843,60.663]},"properties":{"ptf_id":1361170,"ptf_ref":"TBDXVTJ","category":"soconet","ptf_model":"GENERIC_pCO2","country_name":"NORWAY","country_ship":"NORWAY","country_iso_reporting":"NO","country_sensor_provider":null}},{"type":"Feature","geometry":{"type":"Point","coordinates":[0.646,56.637]},"properties":{"ptf_id":1361171,"ptf_ref":"PNS263J","category":"soconet","ptf_model":"GENERIC_pCO2","country_name":"NORWAY","country_ship":null,"country_iso_reporting":"NO","country_sensor_provider":null}},{"type":"Feature","geometry":{"type":"Point","coordinates":[8.128,62.93]},"properties":{"ptf_id":1361172,"ptf_ref":"KQPCPUV","category":"soconet","ptf_model":"GENERIC_pCO2","country_name":"NORWAY","country_ship":null,"country_iso_reporting":"NO","country_sensor_provider":null}},{"type":"Feature","geometry":{"type":"Point","coordinates":[8.506,63.395]},"properties":{"ptf_id":1361173,"ptf_ref":"LBA3DUD","category":"soconet","ptf_model":"GENERIC_pCO2","country_name":"NORWAY","country_ship":null,"country_iso_reporting":"NO","country_sensor_provider":null}},{"type":"Feature","geometry":{"type":"Point","coordinates":[5.312,60.389]},"properties":{"ptf_id":1361174,"ptf_ref":"8QXPEKY","category":"soconet","ptf_model":"GENERIC_pCO2","country_name":"NORWAY","country_ship":null,"country_iso_reporting":"NO","country_sensor_provider":null}},{"type":"Feature","geometry":{"type":"Point","coordinates":[1.319,57.911]},"properties":{"ptf_id":1361175,"ptf_ref":"XPEZPGU","category":"soconet","ptf_model":"GENERIC_pCO2","country_name":"NORWAY","country_ship":null,"country_iso_reporting":"NO","country_sensor_provider":null}},{"type":"Feature","geometry":{"type":"Point","coordinates":[5.312,60.389]},"properties":{"ptf_id":1361176,"ptf_ref":"KCR4P7N","category":"soconet","ptf_model":"GENERIC_pCO2","country_name":"NORWAY","country_ship":null,"country_iso_reporting":"NO","country_sensor_provider":null}},{"type":"Feature","geometry":{"type":"Point","coordinates":[3.504,58.397]},"properties":{"ptf_id":1361177,"ptf_ref":"PPJLC5Y","category":"soconet","ptf_model":"GENERIC_pCO2","country_name":"NORWAY","country_ship":null,"country_iso_reporting":"NO","country_sensor_provider":null}},{"type":"Feature","geometry":{"type":"Point","coordinates":[6.226,62.478]},"properties":{"ptf_id":1361178,"ptf_ref":"XTAJWVP","category":"soconet","ptf_model":"GENERIC_pCO2","country_name":"NORWAY","country_ship":null,"country_iso_reporting":"NO","country_sensor_provider":null}},{"type":"Feature","geometry":{"type":"Point","coordinates":[5.484,59.926]},"properties":{"ptf_id":1361179,"ptf_ref":"HTP2TKY","category":"soconet","ptf_model":"GENERIC_pCO2","country_name":"NORWAY","country_ship":null,"country_iso_reporting":"NO","country_sensor_provider":null}},{"type":"Feature","geometry":{"type":"Point","coordinates":[14.677,-35.671]},"properties":{"ptf_id":1361180,"ptf_ref":"8WTHDJX","category":"soconet","ptf_model":"GENERIC_pCO2","country_name":"SOUTH AFRICA","country_ship":"SOUTH AFRICA","country_iso_reporting":"ZA","country_sensor_provider":null}},{"type":"Feature","geometry":{"type":"Point","coordinates":[19.912,-35.472]},"properties":{"ptf_id":1361181,"ptf_ref":"FEFDWFF","category":"soconet","ptf_model":"GENERIC_pCO2","country_name":"SOUTH AFRICA","country_ship":"SOUTH AFRICA","country_iso_reporting":"ZA","country_sensor_provider":null}},{"type":"Feature","geometry":{"type":"Point","coordinates":[17.341,-34.517]},"properties":{"ptf_id":1361182,"ptf_ref":"JAPNT3A","category":"soconet","ptf_model":"GENERIC_pCO2","country_name":"SOUTH AFRICA","country_ship":"SOUTH AFRICA","country_iso_reporting":"ZA","country_sensor_provider":null}},{"type":"Feature","geometry":{"type":"Point","coordinates":[17.169,-34.492]},"properties":{"ptf_id":1361183,"ptf_ref":"LKSQ5PA","category":"soconet","ptf_model":"GENERIC_pCO2","country_name":"SOUTH AFRICA","country_ship":"SOUTH AFRICA","country_iso_reporting":"ZA","country_sensor_provider":null}},{"type":"Feature","geometry":{"type":"Point","coordinates":[37.87,-46.872]},"properties":{"ptf_id":1361184,"ptf_ref":"HKHZCJG","category":"soconet","ptf_model":"GENERIC_pCO2","country_name":"SOUTH AFRICA","country_ship":"SOUTH AFRICA","country_iso_reporting":"ZA","country_sensor_provider":null}},{"type":"Feature","geometry":{"type":"Point","coordinates":[-6.05,61.613]},"properties":{"ptf_id":1361187,"ptf_ref":"BCRU8MF","category":"soconet","ptf_model":"GENERIC_pCO2","country_name":"NORWAY","country_ship":null,"country_iso_reporting":"NO","country_sensor_provider":null}},{"type":"Feature","geometry":{"type":"Point","coordinates":[-38.657,60.62]},"properties":{"ptf_id":1361188,"ptf_ref":"NBKXKMC","category":"soconet","ptf_model":"GENERIC_pCO2","country_name":"NORWAY","country_ship":null,"country_iso_reporting":"NO","country_sensor_provider":null}},{"type":"Feature","geometry":{"type":"Point","coordinates":[-22.355,64.14]},"properties":{"ptf_id":1361197,"ptf_ref":"TJFZNEB","category":"soconet","ptf_model":"GENERIC_pCO2","country_name":"NORWAY","country_ship":null,"country_iso_reporting":"NO","country_sensor_provider":null}},{"type":"Feature","geometry":{"type":"Point","coordinates":[-22.514,64.133]},"properties":{"ptf_id":1361199,"ptf_ref":"DWWBVKQ","category":"soconet","ptf_model":"GENERIC_pCO2","country_name":"NORWAY","country_ship":null,"country_iso_reporting":"NO","country_sensor_provider":null}},{"type":"Feature","geometry":{"type":"Point","coordinates":[2.911,51.248]},"properties":{"ptf_id":1361233,"ptf_ref":"AVN7PYG","category":"soconet","ptf_model":"GENERIC_pCO2","country_name":"BELGIUM","country_ship":"BELGIUM","country_iso_reporting":"BE","country_sensor_provider":null}},{"type":"Feature","geometry":{"type":"Point","coordinates":[2.9,51.532]},"properties":{"ptf_id":1361234,"ptf_ref":"HHB77KV","category":"soconet","ptf_model":"GENERIC_pCO2","country_name":"BELGIUM","country_ship":"BELGIUM","country_iso_reporting":"BE","country_sensor_provider":null}},{"type":"Feature","geometry":{"type":"Point","coordinates":[-52,64.094]},"properties":{"ptf_id":1361200,"ptf_ref":"SAYP6NE","category":"soconet","ptf_model":"GENERIC_pCO2","country_name":"NORWAY","country_ship":null,"country_iso_reporting":"NO","country_sensor_provider":null}},{"type":"Feature","geometry":{"type":"Point","coordinates":[2.884,51.287]},"properties":{"ptf_id":1361235,"ptf_ref":"UKVT3RH","category":"soconet","ptf_model":"GENERIC_pCO2","country_name":"BELGIUM","country_ship":"BELGIUM","country_iso_reporting":"BE","country_sensor_provider":null}},{"type":"Feature","geometry":{"type":"Point","coordinates":[2.833,51.366]},"properties":{"ptf_id":1361237,"ptf_ref":"DRCY7JV","category":"soconet","ptf_model":"GENERIC_pCO2","country_name":"BELGIUM","country_ship":"BELGIUM","country_iso_reporting":"BE","country_sensor_provider":null}},{"type":"Feature","geometry":{"type":"Point","coordinates":[-6.761,62.004]},"properties":{"ptf_id":1361202,"ptf_ref":"RHHD6DE","category":"soconet","ptf_model":"GENERIC_pCO2","country_name":"NORWAY","country_ship":null,"country_iso_reporting":"NO","country_sensor_provider":null}},{"type":"Feature","geometry":{"type":"Point","coordinates":[12.42,78.09]},"properties":{"ptf_id":1361277,"ptf_ref":"JXQ6P7S","category":"soconet","ptf_model":"GENERIC_pCO2","country_name":"NORWAY","country_ship":"NORWAY","country_iso_reporting":"NO","country_sensor_provider":null}},{"type":"Feature","geometry":{"type":"Point","coordinates":[-22.361,64.148]},"properties":{"ptf_id":1361203,"ptf_ref":"FNMHJWD","category":"soconet","ptf_model":"GENERIC_pCO2","country_name":"NORWAY","country_ship":null,"country_iso_reporting":"NO","country_sensor_provider":null}},{"type":"Feature","geometry":{"type":"Point","coordinates":[17.819,70.298]},"properties":{"ptf_id":1361278,"ptf_ref":"XENXYEX","category":"soconet","ptf_model":"GENERIC_pCO2","country_name":"NORWAY","country_ship":"NORWAY","country_iso_reporting":"NO","country_sensor_provider":null}},{"type":"Feature","geometry":{"type":"Point","coordinates":[5.028,60.625]},"properties":{"ptf_id":1361279,"ptf_ref":"PJC7UKV","category":"soconet","ptf_model":"GENERIC_pCO2","country_name":"NORWAY","country_ship":"NORWAY","country_iso_reporting":"NO","country_sensor_provider":null}},{"type":"Feature","geometry":{"type":"Point","coordinates":[-22.328,64.155]},"properties":{"ptf_id":1361207,"ptf_ref":"CAHJMVX","category":"soconet","ptf_model":"GENERIC_pCO2","country_name":"NORWAY","country_ship":null,"country_iso_reporting":"NO","country_sensor_provider":null}},{"type":"Feature","geometry":{"type":"Point","coordinates":[19.042,69.704]},"properties":{"ptf_id":1361281,"ptf_ref":"QDG8ENC","category":"soconet","ptf_model":"GENERIC_pCO2","country_name":"NORWAY","country_ship":"NORWAY","country_iso_reporting":"NO","country_sensor_provider":null}},{"type":"Feature","geometry":{"type":"Point","coordinates":[-51.838,64.138]},"properties":{"ptf_id":1361208,"ptf_ref":"TGKBUJV","category":"soconet","ptf_model":"GENERIC_pCO2","country_name":"NORWAY","country_ship":null,"country_iso_reporting":"NO","country_sensor_provider":null}},{"type":"Feature","geometry":{"type":"Point","coordinates":[-22.438,64.128]},"properties":{"ptf_id":1361209,"ptf_ref":"2RP3S4Z","category":"soconet","ptf_model":"GENERIC_pCO2","country_name":"NORWAY","country_ship":null,"country_iso_reporting":"NO","country_sensor_provider":null}},{"type":"Feature","geometry":{"type":"Point","coordinates":[-22.334,64.148]},"properties":{"ptf_id":1361211,"ptf_ref":"XLE775J","category":"soconet","ptf_model":"GENERIC_pCO2","country_name":"NORWAY","country_ship":null,"country_iso_reporting":"NO","country_sensor_provider":null}},{"type":"Feature","geometry":{"type":"Point","coordinates":[8.166,53.776]},"properties":{"ptf_id":1361212,"ptf_ref":"TXY7NND","category":"soconet","ptf_model":"GENERIC_pCO2","country_name":"NORWAY","country_ship":null,"country_iso_reporting":"NO","country_sensor_provider":null}},{"type":"Feature","geometry":{"type":"Point","coordinates":[10.383,56.124]},"properties":{"ptf_id":1361213,"ptf_ref":"SYVZKAH","category":"soconet","ptf_model":"GENERIC_pCO2","country_name":"NORWAY","country_ship":null,"country_iso_reporting":"NO","country_sensor_provider":null}},{"type":"Feature","geometry":{"type":"Point","coordinates":[-22.323,64.134]},"properties":{"ptf_id":1361215,"ptf_ref":"3GVXCBN","category":"soconet","ptf_model":"GENERIC_pCO2","country_name":"NORWAY","country_ship":null,"country_iso_reporting":"NO","country_sensor_provider":null}},{"type":"Feature","geometry":{"type":"Point","coordinates":[10.499,56.093]},"properties":{"ptf_id":1361216,"ptf_ref":"5FPK22M","category":"soconet","ptf_model":"GENERIC_pCO2","country_name":"NORWAY","country_ship":null,"country_iso_reporting":"NO","country_sensor_provider":null}},{"type":"Feature","geometry":{"type":"Point","coordinates":[-22.372,64.131]},"properties":{"ptf_id":1361219,"ptf_ref":"JCNQ2EV","category":"soconet","ptf_model":"GENERIC_pCO2","country_name":"NORWAY","country_ship":null,"country_iso_reporting":"NO","country_sensor_provider":null}},{"type":"Feature","geometry":{"type":"Point","coordinates":[-6.859,61.92]},"properties":{"ptf_id":1361220,"ptf_ref":"ZVKNKPC","category":"soconet","ptf_model":"GENERIC_pCO2","country_name":"NORWAY","country_ship":null,"country_iso_reporting":"NO","country_sensor_provider":null}},{"type":"Feature","geometry":{"type":"Point","coordinates":[2.344341935,53.95861097]},"properties":{"ptf_id":1361223,"ptf_ref":"UHL6VWT","category":"soconet","ptf_model":"GENERIC_pCO2","country_name":"BELGIUM","country_ship":"BELGIUM","country_iso_reporting":"BE","country_sensor_provider":null}},{"type":"Feature","geometry":{"type":"Point","coordinates":[2.91,51.248]},"properties":{"ptf_id":1361224,"ptf_ref":"GCNYBRD","category":"soconet","ptf_model":"GENERIC_pCO2","country_name":"BELGIUM","country_ship":"BELGIUM","country_iso_reporting":"BE","country_sensor_provider":null}},{"type":"Feature","geometry":{"type":"Point","coordinates":[2.899,51.257]},"properties":{"ptf_id":1361225,"ptf_ref":"CQCWXYB","category":"soconet","ptf_model":"GENERIC_pCO2","country_name":"BELGIUM","country_ship":"BELGIUM","country_iso_reporting":"BE","country_sensor_provider":null}},{"type":"Feature","geometry":{"type":"Point","coordinates":[2.906,51.243]},"properties":{"ptf_id":1361227,"ptf_ref":"BVREEXQ","category":"soconet","ptf_model":"GENERIC_pCO2","country_name":"BELGIUM","country_ship":"BELGIUM","country_iso_reporting":"BE","country_sensor_provider":null}},{"type":"Feature","geometry":{"type":"Point","coordinates":[2.913,51.246]},"properties":{"ptf_id":1361229,"ptf_ref":"WSYDE4L","category":"soconet","ptf_model":"GENERIC_pCO2","country_name":"BELGIUM","country_ship":"BELGIUM","country_iso_reporting":"BE","country_sensor_provider":null}},{"type":"Feature","geometry":{"type":"Point","coordinates":[-57.5596,-38.4811]},"properties":{"ptf_id":1357817,"ptf_ref":"WUXHVWD","category":"soconet","ptf_model":"GENERIC_pCO2","country_name":"ARGENTINA","country_ship":"ARGENTINA","country_iso_reporting":"AR","country_sensor_provider":null}},{"type":"Feature","geometry":{"type":"Point","coordinates":[-25.1960317,16.5346805]},"properties":{"ptf_id":1360917,"ptf_ref":"8BNPH5J","category":"soconet","ptf_model":"GENERIC_pCO2","country_name":"GERMANY","country_ship":"GERMANY","country_iso_reporting":"DE","country_sensor_provider":null}},{"type":"Feature","geometry":{"type":"Point","coordinates":[4.7523232,53.4082737]},"properties":{"ptf_id":1360918,"ptf_ref":"LDJN3NN","category":"soconet","ptf_model":"GENERIC_pCO2","country_name":"GERMANY","country_ship":"GERMANY","country_iso_reporting":"DE","country_sensor_provider":null}},{"type":"Feature","geometry":{"type":"Point","coordinates":[18.1689838,71.6190778]},"properties":{"ptf_id":1360919,"ptf_ref":"BUJ768E","category":"soconet","ptf_model":"GENERIC_pCO2","country_name":"GERMANY","country_ship":"GERMANY","country_iso_reporting":"DE","country_sensor_provider":null}},{"type":"Feature","geometry":{"type":"Point","coordinates":[5.4932875,79.1456412]},"properties":{"ptf_id":1360920,"ptf_ref":"XVJWV7F","category":"soconet","ptf_model":"GENERIC_pCO2","country_name":"GERMANY","country_ship":"GERMANY","country_iso_reporting":"DE","country_sensor_provider":null}},{"type":"Feature","geometry":{"type":"Point","coordinates":[-22.18860277,64.24173473]},"properties":{"ptf_id":1360921,"ptf_ref":"YMVE2JE","category":"soconet","ptf_model":"GENERIC_pCO2","country_name":"SPAIN","country_ship":"SPAIN","country_iso_reporting":"ES","country_sensor_provider":null}},{"type":"Feature","geometry":{"type":"Point","coordinates":[-64.7014,32.3866]},"properties":{"ptf_id":1360922,"ptf_ref":"ZKJGJTN","category":"soconet","ptf_model":"GENERIC_pCO2","country_name":"BERMUDA","country_ship":"USA","country_iso_reporting":"BM","country_sensor_provider":null}},{"type":"Feature","geometry":{"type":"Point","coordinates":[-64.5911,32.3453]},"properties":{"ptf_id":1360923,"ptf_ref":"KJFRS7B","category":"soconet","ptf_model":"GENERIC_pCO2","country_name":"BERMUDA","country_ship":"USA","country_iso_reporting":"BM","country_sensor_provider":null}},{"type":"Feature","geometry":{"type":"Point","coordinates":[-64.7147,32.3739]},"properties":{"ptf_id":1360924,"ptf_ref":"DJXP8KW","category":"soconet","ptf_model":"GENERIC_pCO2","country_name":"BERMUDA","country_ship":"USA","country_iso_reporting":"BM","country_sensor_provider":null}},{"type":"Feature","geometry":{"type":"Point","coordinates":[-64.5388,32.4217]},"properties":{"ptf_id":1360925,"ptf_ref":"JLBFLHF","category":"soconet","ptf_model":"GENERIC_pCO2","country_name":"BERMUDA","country_ship":"USA","country_iso_reporting":"BM","country_sensor_provider":null}},{"type":"Feature","geometry":{"type":"Point","coordinates":[-64.5915,32.3099]},"properties":{"ptf_id":1360926,"ptf_ref":"6FYRFXY","category":"soconet","ptf_model":"GENERIC_pCO2","country_name":"BERMUDA","country_ship":"USA","country_iso_reporting":"BM","country_sensor_provider":null}},{"type":"Feature","geometry":{"type":"Point","coordinates":[-64.5905,32.3518]},"properties":{"ptf_id":1360927,"ptf_ref":"WDWYDJU","category":"soconet","ptf_model":"GENERIC_pCO2","country_name":"BERMUDA","country_ship":"USA","country_iso_reporting":"BM","country_sensor_provider":null}},{"type":"Feature","geometry":{"type":"Point","coordinates":[-64.685,32.381]},"properties":{"ptf_id":1360928,"ptf_ref":"RTKEX7P","category":"soconet","ptf_model":"GENERIC_pCO2","country_name":"BERMUDA","country_ship":"USA","country_iso_reporting":"BM","country_sensor_provider":null}},{"type":"Feature","geometry":{"type":"Point","coordinates":[-64.6083,32.3632]},"properties":{"ptf_id":1360929,"ptf_ref":"XUBVPDN","category":"soconet","ptf_model":"GENERIC_pCO2","country_name":"BERMUDA","country_ship":"USA","country_iso_reporting":"BM","country_sensor_provider":null}},{"type":"Feature","geometry":{"type":"Point","coordinates":[-64.7218,32.3661]},"properties":{"ptf_id":1360930,"ptf_ref":"6QGT5RW","category":"soconet","ptf_model":"GENERIC_pCO2","country_name":"BERMUDA","country_ship":"USA","country_iso_reporting":"BM","country_sensor_provider":null}},{"type":"Feature","geometry":{"type":"Point","coordinates":[-64.6023,32.3661]},"properties":{"ptf_id":1360931,"ptf_ref":"GGQYT8T","category":"soconet","ptf_model":"GENERIC_pCO2","country_name":"BERMUDA","country_ship":"USA","country_iso_reporting":"BM","country_sensor_provider":null}},{"type":"Feature","geometry":{"type":"Point","coordinates":[-57.8336,34.8147]},"properties":{"ptf_id":1360932,"ptf_ref":"GUYQCZV","category":"soconet","ptf_model":"GENERIC_pCO2","country_name":"BERMUDA","country_ship":"USA","country_iso_reporting":"BM","country_sensor_provider":null}},{"type":"Feature","geometry":{"type":"Point","coordinates":[-64.5949,32.3787]},"properties":{"ptf_id":1360933,"ptf_ref":"NZLTE6T","category":"soconet","ptf_model":"GENERIC_pCO2","country_name":"BERMUDA","country_ship":"USA","country_iso_reporting":"BM","country_sensor_provider":null}},{"type":"Feature","geometry":{"type":"Point","coordinates":[-64.6017,32.338]},"properties":{"ptf_id":1360934,"ptf_ref":"WQD8W6T","category":"soconet","ptf_model":"GENERIC_pCO2","country_name":"BERMUDA","country_ship":"USA","country_iso_reporting":"BM","country_sensor_provider":null}},{"type":"Feature","geometry":{"type":"Point","coordinates":[-64.5463,32.4535]},"properties":{"ptf_id":1360935,"ptf_ref":"QLFGZYU","category":"soconet","ptf_model":"GENERIC_pCO2","country_name":"BERMUDA","country_ship":"USA","country_iso_reporting":"BM","country_sensor_provider":null}},{"type":"Feature","geometry":{"type":"Point","coordinates":[-64.6296,32.3771]},"properties":{"ptf_id":1360936,"ptf_ref":"7PQXVDM","category":"soconet","ptf_model":"GENERIC_pCO2","country_name":"BERMUDA","country_ship":"USA","country_iso_reporting":"BM","country_sensor_provider":null}},{"type":"Feature","geometry":{"type":"Point","coordinates":[-64.6156,32.3766]},"properties":{"ptf_id":1360937,"ptf_ref":"TVJB3SE","category":"soconet","ptf_model":"GENERIC_pCO2","country_name":"BERMUDA","country_ship":"USA","country_iso_reporting":"BM","country_sensor_provider":null}},{"type":"Feature","geometry":{"type":"Point","coordinates":[-64.6058,32.3861]},"properties":{"ptf_id":1360938,"ptf_ref":"QSTJPCL","category":"soconet","ptf_model":"GENERIC_pCO2","country_name":"BERMUDA","country_ship":"USA","country_iso_reporting":"BM","country_sensor_provider":null}},{"type":"Feature","geometry":{"type":"Point","coordinates":[-64.7853,32.2896]},"properties":{"ptf_id":1360939,"ptf_ref":"EHPQD6S","category":"soconet","ptf_model":"GENERIC_pCO2","country_name":"BERMUDA","country_ship":null,"country_iso_reporting":"BM","country_sensor_provider":null}},{"type":"Feature","geometry":{"type":"Point","coordinates":[-71.0114,38.2275]},"properties":{"ptf_id":1360940,"ptf_ref":"TKYH55P","category":"soconet","ptf_model":"GENERIC_pCO2","country_name":"BERMUDA","country_ship":null,"country_iso_reporting":"BM","country_sensor_provider":null}},{"type":"Feature","geometry":{"type":"Point","coordinates":[-69.1438,37.0797]},"properties":{"ptf_id":1360941,"ptf_ref":"6ETHWEN","category":"soconet","ptf_model":"GENERIC_pCO2","country_name":"BERMUDA","country_ship":null,"country_iso_reporting":"BM","country_sensor_provider":null}},{"type":"Feature","geometry":{"type":"Point","coordinates":[-73.9372,40.4979]},"properties":{"ptf_id":1360942,"ptf_ref":"4RVEYNU","category":"soconet","ptf_model":"GENERIC_pCO2","country_name":"BERMUDA","country_ship":null,"country_iso_reporting":"BM","country_sensor_provider":null}},{"type":"Feature","geometry":{"type":"Point","coordinates":[-64.7343,32.3586]},"properties":{"ptf_id":1360943,"ptf_ref":"MPQD6VT","category":"soconet","ptf_model":"GENERIC_pCO2","country_name":"BERMUDA","country_ship":null,"country_iso_reporting":"BM","country_sensor_provider":null}},{"type":"Feature","geometry":{"type":"Point","coordinates":[-68.9921,37.8657]},"properties":{"ptf_id":1360944,"ptf_ref":"DGJFTCQ","category":"soconet","ptf_model":"GENERIC_pCO2","country_name":"BERMUDA","country_ship":null,"country_iso_reporting":"BM","country_sensor_provider":null}},{"type":"Feature","geometry":{"type":"Point","coordinates":[-73.7185,40.3986]},"properties":{"ptf_id":1360945,"ptf_ref":"LLBZ3XD","category":"soconet","ptf_model":"GENERIC_pCO2","country_name":"BERMUDA","country_ship":null,"country_iso_reporting":"BM","country_sensor_provider":null}},{"type":"Feature","geometry":{"type":"Point","coordinates":[24.377,59.703]},"properties":{"ptf_id":1360987,"ptf_ref":"KPCSSSS","category":"soconet","ptf_model":"GENERIC_pCO2","country_name":"GERMANY","country_ship":null,"country_iso_reporting":"DE","country_sensor_provider":null}},{"type":"Feature","geometry":{"type":"Point","coordinates":[63.14953,-28.84871]},"properties":{"ptf_id":1360988,"ptf_ref":"PNK6C5D","category":"soconet","ptf_model":"GENERIC_pCO2","country_name":"FRANCE","country_ship":"FRANCE","country_iso_reporting":"FR","country_sensor_provider":null}},{"type":"Feature","geometry":{"type":"Point","coordinates":[-44.008,-24.268]},"properties":{"ptf_id":1360989,"ptf_ref":"EVFZS4V","category":"soconet","ptf_model":"GENERIC_pCO2","country_name":"FRANCE","country_ship":null,"country_iso_reporting":"FR","country_sensor_provider":null}},{"type":"Feature","geometry":{"type":"Point","coordinates":[-44.009,-24.268]},"properties":{"ptf_id":1360990,"ptf_ref":"UQU5DSH","category":"soconet","ptf_model":"GENERIC_pCO2","country_name":"FRANCE","country_ship":null,"country_iso_reporting":"FR","country_sensor_provider":null}},{"type":"Feature","geometry":{"type":"Point","coordinates":[3.664,51.965]},"properties":{"ptf_id":1360991,"ptf_ref":"LTX276Z","category":"soconet","ptf_model":"GENERIC_pCO2","country_name":"FRANCE","country_ship":null,"country_iso_reporting":"FR","country_sensor_provider":null}},{"type":"Feature","geometry":{"type":"Point","coordinates":[-23.1855,64.4293]},"properties":{"ptf_id":1360992,"ptf_ref":"VWGURZW","category":"soconet","ptf_model":"GENERIC_pCO2","country_name":"ICELAND","country_ship":"ICELAND","country_iso_reporting":"IS","country_sensor_provider":null}},{"type":"Feature","geometry":{"type":"Point","coordinates":[-27.2184,64.3216]},"properties":{"ptf_id":1360993,"ptf_ref":"UUG7K8Y","category":"soconet","ptf_model":"GENERIC_pCO2","country_name":"ICELAND","country_ship":"ICELAND","country_iso_reporting":"IS","country_sensor_provider":null}},{"type":"Feature","geometry":{"type":"Point","coordinates":[-22.7005,64.2537]},"properties":{"ptf_id":1360994,"ptf_ref":"8BSPTYQ","category":"soconet","ptf_model":"GENERIC_pCO2","country_name":"ICELAND","country_ship":"ICELAND","country_iso_reporting":"IS","country_sensor_provider":null}},{"type":"Feature","geometry":{"type":"Point","coordinates":[174.168056,-40.660384]},"properties":{"ptf_id":1360995,"ptf_ref":"ZPZUKLT","category":"soconet","ptf_model":"GENERIC_pCO2","country_name":"JAPAN","country_ship":null,"country_iso_reporting":"JP","country_sensor_provider":null}},{"type":"Feature","geometry":{"type":"Point","coordinates":[137.067247,34.515578]},"properties":{"ptf_id":1360996,"ptf_ref":"VXGFT8F","category":"soconet","ptf_model":"GENERIC_pCO2","country_name":"JAPAN","country_ship":null,"country_iso_reporting":"JP","country_sensor_provider":null}},{"type":"Feature","geometry":{"type":"Point","coordinates":[172.774678,-39.807341]},"properties":{"ptf_id":1360997,"ptf_ref":"CLTVDRB","category":"soconet","ptf_model":"GENERIC_pCO2","country_name":"JAPAN","country_ship":null,"country_iso_reporting":"JP","country_sensor_provider":null}},{"type":"Feature","geometry":{"type":"Point","coordinates":[137.069033,34.377225]},"properties":{"ptf_id":1360998,"ptf_ref":"2DXCX8N","category":"soconet","ptf_model":"GENERIC_pCO2","country_name":"JAPAN","country_ship":null,"country_iso_reporting":"JP","country_sensor_provider":null}},{"type":"Feature","geometry":{"type":"Point","coordinates":[-122.711657,37.71486]},"properties":{"ptf_id":1360999,"ptf_ref":"3KZ333S","category":"soconet","ptf_model":"GENERIC_pCO2","country_name":"JAPAN","country_ship":null,"country_iso_reporting":"JP","country_sensor_provider":null}},{"type":"Feature","geometry":{"type":"Point","coordinates":[137.183914,34.72605]},"properties":{"ptf_id":1361000,"ptf_ref":"PSKGWQP","category":"soconet","ptf_model":"GENERIC_pCO2","country_name":"JAPAN","country_ship":null,"country_iso_reporting":"JP","country_sensor_provider":null}},{"type":"Feature","geometry":{"type":"Point","coordinates":[-122.73554,37.703769]},"properties":{"ptf_id":1361001,"ptf_ref":"XEBW22U","category":"soconet","ptf_model":"GENERIC_pCO2","country_name":"JAPAN","country_ship":null,"country_iso_reporting":"JP","country_sensor_provider":null}},{"type":"Feature","geometry":{"type":"Point","coordinates":[137.166225,34.740979]},"properties":{"ptf_id":1361002,"ptf_ref":"9QU9GWQ","category":"soconet","ptf_model":"GENERIC_pCO2","country_name":"JAPAN","country_ship":null,"country_iso_reporting":"JP","country_sensor_provider":null}},{"type":"Feature","geometry":{"type":"Point","coordinates":[-124.248494,46.21985]},"properties":{"ptf_id":1361003,"ptf_ref":"SSJNYEQ","category":"soconet","ptf_model":"GENERIC_pCO2","country_name":"JAPAN","country_ship":null,"country_iso_reporting":"JP","country_sensor_provider":null}},{"type":"Feature","geometry":{"type":"Point","coordinates":[137.292058,34.477232]},"properties":{"ptf_id":1361004,"ptf_ref":"HSKZKMC","category":"soconet","ptf_model":"GENERIC_pCO2","country_name":"JAPAN","country_ship":null,"country_iso_reporting":"JP","country_sensor_provider":null}},{"type":"Feature","geometry":{"type":"Point","coordinates":[-84.664383,7.719221]},"properties":{"ptf_id":1361005,"ptf_ref":"WYVWXTS","category":"soconet","ptf_model":"GENERIC_pCO2","country_name":"JAPAN","country_ship":null,"country_iso_reporting":"JP","country_sensor_provider":null}},{"type":"Feature","geometry":{"type":"Point","coordinates":[137.48429,34.50318]},"properties":{"ptf_id":1361006,"ptf_ref":"WJLMYGC","category":"soconet","ptf_model":"GENERIC_pCO2","country_name":"JAPAN","country_ship":null,"country_iso_reporting":"JP","country_sensor_provider":null}},{"type":"Feature","geometry":{"type":"Point","coordinates":[-80.1825,25.7688]},"properties":{"ptf_id":1361047,"ptf_ref":"SUMNWGX","category":"soconet","ptf_model":"GENERIC_pCO2","country_name":"USA","country_ship":"USA","country_iso_reporting":"US","country_sensor_provider":null}},{"type":"Feature","geometry":{"type":"Point","coordinates":[-80.1825,25.7686]},"properties":{"ptf_id":1361048,"ptf_ref":"GWCYLGF","category":"soconet","ptf_model":"GENERIC_pCO2","country_name":"USA","country_ship":"USA","country_iso_reporting":"US","country_sensor_provider":null}},{"type":"Feature","geometry":{"type":"Point","coordinates":[-80.185,25.7268]},"properties":{"ptf_id":1361049,"ptf_ref":"JQDWSBA","category":"soconet","ptf_model":"GENERIC_pCO2","country_name":"USA","country_ship":"USA","country_iso_reporting":"US","country_sensor_provider":null}},{"type":"Feature","geometry":{"type":"Point","coordinates":[-80.1838,25.7455]},"properties":{"ptf_id":1361050,"ptf_ref":"EGDMCSG","category":"soconet","ptf_model":"GENERIC_pCO2","country_name":"USA","country_ship":"USA","country_iso_reporting":"US","country_sensor_provider":null}},{"type":"Feature","geometry":{"type":"Point","coordinates":[-88.9094,30.1449]},"properties":{"ptf_id":1361051,"ptf_ref":"ELYDWFG","category":"soconet","ptf_model":"GENERIC_pCO2","country_name":"USA","country_ship":"USA","country_iso_reporting":"US","country_sensor_provider":null}},{"type":"Feature","geometry":{"type":"Point","coordinates":[-87.5306,27.8663]},"properties":{"ptf_id":1361052,"ptf_ref":"BUDZWNR","category":"soconet","ptf_model":"GENERIC_pCO2","country_name":"USA","country_ship":"USA","country_iso_reporting":"US","country_sensor_provider":null}},{"type":"Feature","geometry":{"type":"Point","coordinates":[-88.536,30.1463]},"properties":{"ptf_id":1361053,"ptf_ref":"6PGZEHK","category":"soconet","ptf_model":"GENERIC_pCO2","country_name":"USA","country_ship":"USA","country_iso_reporting":"US","country_sensor_provider":null}},{"type":"Feature","geometry":{"type":"Point","coordinates":[-83.5413,25.9288]},"properties":{"ptf_id":1361054,"ptf_ref":"6TML7EB","category":"soconet","ptf_model":"GENERIC_pCO2","country_name":"USA","country_ship":"USA","country_iso_reporting":"US","country_sensor_provider":null}},{"type":"Feature","geometry":{"type":"Point","coordinates":[-71.3732,41.4602]},"properties":{"ptf_id":1361055,"ptf_ref":"LHDDNES","category":"soconet","ptf_model":"GENERIC_pCO2","country_name":"USA","country_ship":"USA","country_iso_reporting":"US","country_sensor_provider":null}},{"type":"Feature","geometry":{"type":"Point","coordinates":[-70.1697,42.0406]},"properties":{"ptf_id":1361056,"ptf_ref":"URQF84Q","category":"soconet","ptf_model":"GENERIC_pCO2","country_name":"USA","country_ship":"USA","country_iso_reporting":"US","country_sensor_provider":null}},{"type":"Feature","geometry":{"type":"Point","coordinates":[-71.376,41.4576]},"properties":{"ptf_id":1361057,"ptf_ref":"XTUVQFX","category":"soconet","ptf_model":"GENERIC_pCO2","country_name":"USA","country_ship":"USA","country_iso_reporting":"US","country_sensor_provider":null}},{"type":"Feature","geometry":{"type":"Point","coordinates":[-71.37368,41.462365]},"properties":{"ptf_id":1361058,"ptf_ref":"8LCB8QS","category":"soconet","ptf_model":"GENERIC_pCO2","country_name":"USA","country_ship":"USA","country_iso_reporting":"US","country_sensor_provider":null}},{"type":"Feature","geometry":{"type":"Point","coordinates":[-21.8633,64.156]},"properties":{"ptf_id":1361059,"ptf_ref":"TNZRUHS","category":"soconet","ptf_model":"GENERIC_pCO2","country_name":"USA","country_ship":null,"country_iso_reporting":"US","country_sensor_provider":null}},{"type":"Feature","geometry":{"type":"Point","coordinates":[-21.9878,64.2071]},"properties":{"ptf_id":1361060,"ptf_ref":"DNZMXAT","category":"soconet","ptf_model":"GENERIC_pCO2","country_name":"USA","country_ship":null,"country_iso_reporting":"US","country_sensor_provider":null}},{"type":"Feature","geometry":{"type":"Point","coordinates":[-22.1384,64.243]},"properties":{"ptf_id":1361061,"ptf_ref":"ZGH97VE","category":"soconet","ptf_model":"GENERIC_pCO2","country_name":"USA","country_ship":null,"country_iso_reporting":"US","country_sensor_provider":null}},{"type":"Feature","geometry":{"type":"Point","coordinates":[-22.0193,64.2155]},"properties":{"ptf_id":1361062,"ptf_ref":"CUHBQCE","category":"soconet","ptf_model":"GENERIC_pCO2","country_name":"USA","country_ship":null,"country_iso_reporting":"US","country_sensor_provider":null}},{"type":"Feature","geometry":{"type":"Point","coordinates":[15.6112,78.2448]},"properties":{"ptf_id":1361063,"ptf_ref":"5FFPS8A","category":"soconet","ptf_model":"GENERIC_pCO2","country_name":"USA","country_ship":null,"country_iso_reporting":"US","country_sensor_provider":null}},{"type":"Feature","geometry":{"type":"Point","coordinates":[11.6055,78.0173]},"properties":{"ptf_id":1361064,"ptf_ref":"8GQZLDK","category":"soconet","ptf_model":"GENERIC_pCO2","country_name":"USA","country_ship":null,"country_iso_reporting":"US","country_sensor_provider":null}},{"type":"Feature","geometry":{"type":"Point","coordinates":[15.2844,78.267]},"properties":{"ptf_id":1361065,"ptf_ref":"SDZVPBA","category":"soconet","ptf_model":"GENERIC_pCO2","country_name":"USA","country_ship":null,"country_iso_reporting":"US","country_sensor_provider":null}},{"type":"Feature","geometry":{"type":"Point","coordinates":[15.0991,78.2563]},"properties":{"ptf_id":1361066,"ptf_ref":"YSTPX5F","category":"soconet","ptf_model":"GENERIC_pCO2","country_name":"USA","country_ship":null,"country_iso_reporting":"US","country_sensor_provider":null}},{"type":"Feature","geometry":{"type":"Point","coordinates":[14.6028,78.6629]},"properties":{"ptf_id":1361067,"ptf_ref":"WEMLSGS","category":"soconet","ptf_model":"GENERIC_pCO2","country_name":"USA","country_ship":null,"country_iso_reporting":"US","country_sensor_provider":null}},{"type":"Feature","geometry":{"type":"Point","coordinates":[-22.605,64.3603]},"properties":{"ptf_id":1361068,"ptf_ref":"BXWTPPV","category":"soconet","ptf_model":"GENERIC_pCO2","country_name":"USA","country_ship":null,"country_iso_reporting":"US","country_sensor_provider":null}},{"type":"Feature","geometry":{"type":"Point","coordinates":[15.6165,78.2348]},"properties":{"ptf_id":1361069,"ptf_ref":"TFL33QS","category":"soconet","ptf_model":"GENERIC_pCO2","country_name":"USA","country_ship":null,"country_iso_reporting":"US","country_sensor_provider":null}},{"type":"Feature","geometry":{"type":"Point","coordinates":[14.3281,76.9974]},"properties":{"ptf_id":1361070,"ptf_ref":"HTVPNDJ","category":"soconet","ptf_model":"GENERIC_pCO2","country_name":"USA","country_ship":null,"country_iso_reporting":"US","country_sensor_provider":null}},{"type":"Feature","geometry":{"type":"Point","coordinates":[-23.033,64.4605]},"properties":{"ptf_id":1361071,"ptf_ref":"YQC73YK","category":"soconet","ptf_model":"GENERIC_pCO2","country_name":"USA","country_ship":null,"country_iso_reporting":"US","country_sensor_provider":null}},{"type":"Feature","geometry":{"type":"Point","coordinates":[-163.3463,72.872]},"properties":{"ptf_id":1361072,"ptf_ref":"9NLXLPK","category":"soconet","ptf_model":"GENERIC_pCO2","country_name":"USA","country_ship":null,"country_iso_reporting":"US","country_sensor_provider":null}},{"type":"Feature","geometry":{"type":"Point","coordinates":[15.6207,78.2375]},"properties":{"ptf_id":1361073,"ptf_ref":"CJGJ52P","category":"soconet","ptf_model":"GENERIC_pCO2","country_name":"USA","country_ship":null,"country_iso_reporting":"US","country_sensor_provider":null}},{"type":"Feature","geometry":{"type":"Point","coordinates":[-22.0064,64.2099]},"properties":{"ptf_id":1361074,"ptf_ref":"GVJS9DH","category":"soconet","ptf_model":"GENERIC_pCO2","country_name":"USA","country_ship":null,"country_iso_reporting":"US","country_sensor_provider":null}},{"type":"Feature","geometry":{"type":"Point","coordinates":[18.9921,69.6787]},"properties":{"ptf_id":1361075,"ptf_ref":"QKVYTDN","category":"soconet","ptf_model":"GENERIC_pCO2","country_name":"USA","country_ship":null,"country_iso_reporting":"US","country_sensor_provider":null}},{"type":"Feature","geometry":{"type":"Point","coordinates":[25.1381,70.0955]},"properties":{"ptf_id":1361076,"ptf_ref":"NNT7PZX","category":"soconet","ptf_model":"GENERIC_pCO2","country_name":"USA","country_ship":null,"country_iso_reporting":"US","country_sensor_provider":null}},{"type":"Feature","geometry":{"type":"Point","coordinates":[17.421,68.4277]},"properties":{"ptf_id":1361077,"ptf_ref":"8MNMUEX","category":"soconet","ptf_model":"GENERIC_pCO2","country_name":"USA","country_ship":null,"country_iso_reporting":"US","country_sensor_provider":null}},{"type":"Feature","geometry":{"type":"Point","coordinates":[5.3033,60.3915]},"properties":{"ptf_id":1361078,"ptf_ref":"ESJHF7G","category":"soconet","ptf_model":"GENERIC_pCO2","country_name":"USA","country_ship":null,"country_iso_reporting":"US","country_sensor_provider":null}},{"type":"Feature","geometry":{"type":"Point","coordinates":[-70.8296,46.9659]},"properties":{"ptf_id":1361079,"ptf_ref":"6BBZ8GR","category":"soconet","ptf_model":"GENERIC_pCO2","country_name":"USA","country_ship":null,"country_iso_reporting":"US","country_sensor_provider":null}},{"type":"Feature","geometry":{"type":"Point","coordinates":[-70.5542,47.2586]},"properties":{"ptf_id":1361080,"ptf_ref":"2QLZBPE","category":"soconet","ptf_model":"GENERIC_pCO2","country_name":"USA","country_ship":null,"country_iso_reporting":"US","country_sensor_provider":null}},{"type":"Feature","geometry":{"type":"Point","coordinates":[-70.7485,47.0507]},"properties":{"ptf_id":1361081,"ptf_ref":"2UHM5UY","category":"soconet","ptf_model":"GENERIC_pCO2","country_name":"USA","country_ship":null,"country_iso_reporting":"US","country_sensor_provider":null}},{"type":"Feature","geometry":{"type":"Point","coordinates":[-56.1539,46.794]},"properties":{"ptf_id":1361082,"ptf_ref":"GQPW4AF","category":"soconet","ptf_model":"GENERIC_pCO2","country_name":"USA","country_ship":null,"country_iso_reporting":"US","country_sensor_provider":null}},{"type":"Feature","geometry":{"type":"Point","coordinates":[-22.1328,64.1714]},"properties":{"ptf_id":1361083,"ptf_ref":"AFFRYWP","category":"soconet","ptf_model":"GENERIC_pCO2","country_name":"USA","country_ship":null,"country_iso_reporting":"US","country_sensor_provider":null}},{"type":"Feature","geometry":{"type":"Point","coordinates":[-53.3793,65.0495]},"properties":{"ptf_id":1361084,"ptf_ref":"WVHC4LV","category":"soconet","ptf_model":"GENERIC_pCO2","country_name":"USA","country_ship":null,"country_iso_reporting":"US","country_sensor_provider":null}},{"type":"Feature","geometry":{"type":"Point","coordinates":[-22.0002,64.211]},"properties":{"ptf_id":1361085,"ptf_ref":"NKSYJ8V","category":"soconet","ptf_model":"GENERIC_pCO2","country_name":"USA","country_ship":null,"country_iso_reporting":"US","country_sensor_provider":null}},{"type":"Feature","geometry":{"type":"Point","coordinates":[-21.9905,64.2079]},"properties":{"ptf_id":1361086,"ptf_ref":"PDBEYGS","category":"soconet","ptf_model":"GENERIC_pCO2","country_name":"USA","country_ship":null,"country_iso_reporting":"US","country_sensor_provider":null}},{"type":"Feature","geometry":{"type":"Point","coordinates":[-22.0121,64.2144]},"properties":{"ptf_id":1361087,"ptf_ref":"7GXUBPW","category":"soconet","ptf_model":"GENERIC_pCO2","country_name":"USA","country_ship":null,"country_iso_reporting":"US","country_sensor_provider":null}},{"type":"Feature","geometry":{"type":"Point","coordinates":[2.878,51.278]},"properties":{"ptf_id":1361232,"ptf_ref":"MKRRS9E","category":"soconet","ptf_model":"GENERIC_pCO2","country_name":"BELGIUM","country_ship":"BELGIUM","country_iso_reporting":"BE","country_sensor_provider":null}},{"type":"Feature","geometry":{"type":"Point","coordinates":[-124.1430183,44.59739667]},"properties":{"ptf_id":1361133,"ptf_ref":"VQNXEFH","category":"soconet","ptf_model":"GENERIC_pCO2","country_name":"USA","country_ship":"USA","country_iso_reporting":"US","country_sensor_provider":null}},{"type":"Feature","geometry":{"type":"Point","coordinates":[-123.3497217,37.37498833]},"properties":{"ptf_id":1361134,"ptf_ref":"GSRDJUJ","category":"soconet","ptf_model":"GENERIC_pCO2","country_name":"USA","country_ship":"USA","country_iso_reporting":"US","country_sensor_provider":null}},{"type":"Feature","geometry":{"type":"Point","coordinates":[-124.8812917,47.14424667]},"properties":{"ptf_id":1361135,"ptf_ref":"MKUV2SL","category":"soconet","ptf_model":"GENERIC_pCO2","country_name":"USA","country_ship":"USA","country_iso_reporting":"US","country_sensor_provider":null}},{"type":"Feature","geometry":{"type":"Point","coordinates":[-124.1242733,44.603425]},"properties":{"ptf_id":1361136,"ptf_ref":"UNSNQLL","category":"soconet","ptf_model":"GENERIC_pCO2","country_name":"USA","country_ship":"USA","country_iso_reporting":"US","country_sensor_provider":null}},{"type":"Feature","geometry":{"type":"Point","coordinates":[-125.3263,48.2732]},"properties":{"ptf_id":1361137,"ptf_ref":"ADFSKLU","category":"soconet","ptf_model":"GENERIC_pCO2","country_name":"USA","country_ship":null,"country_iso_reporting":"US","country_sensor_provider":null}},{"type":"Feature","geometry":{"type":"Point","coordinates":[-166.6990517,54.21454833]},"properties":{"ptf_id":1361138,"ptf_ref":"3EWZR7T","category":"soconet","ptf_model":"GENERIC_pCO2","country_name":"USA","country_ship":"USA","country_iso_reporting":"US","country_sensor_provider":null}},{"type":"Feature","geometry":{"type":"Point","coordinates":[-152.40632,57.63529167]},"properties":{"ptf_id":1361139,"ptf_ref":"HRUPSGF","category":"soconet","ptf_model":"GENERIC_pCO2","country_name":"USA","country_ship":"USA","country_iso_reporting":"US","country_sensor_provider":null}},{"type":"Feature","geometry":{"type":"Point","coordinates":[-152.39889,57.729145]},"properties":{"ptf_id":1361140,"ptf_ref":"CQLXXXT","category":"soconet","ptf_model":"GENERIC_pCO2","country_name":"USA","country_ship":"USA","country_iso_reporting":"US","country_sensor_provider":null}},{"type":"Feature","geometry":{"type":"Point","coordinates":[-152.4360767,57.6102]},"properties":{"ptf_id":1361141,"ptf_ref":"8RS3FEV","category":"soconet","ptf_model":"GENERIC_pCO2","country_name":"USA","country_ship":"USA","country_iso_reporting":"US","country_sensor_provider":null}},{"type":"Feature","geometry":{"type":"Point","coordinates":[144.57301,13.47201]},"properties":{"ptf_id":1361142,"ptf_ref":"ZHULJ7G","category":"soconet","ptf_model":"GENERIC_pCO2","country_name":"USA","country_ship":"USA","country_iso_reporting":"US","country_sensor_provider":null}},{"type":"Feature","geometry":{"type":"Point","coordinates":[144.55801,13.48774]},"properties":{"ptf_id":1361143,"ptf_ref":"WZUKUGH","category":"soconet","ptf_model":"GENERIC_pCO2","country_name":"USA","country_ship":"USA","country_iso_reporting":"US","country_sensor_provider":null}},{"type":"Feature","geometry":{"type":"Point","coordinates":[130.34656,21.50258]},"properties":{"ptf_id":1361144,"ptf_ref":"PBLLNGD","category":"soconet","ptf_model":"GENERIC_pCO2","country_name":"USA","country_ship":"USA","country_iso_reporting":"US","country_sensor_provider":null}},{"type":"Feature","geometry":{"type":"Point","coordinates":[112.89554,-24.17138]},"properties":{"ptf_id":1361145,"ptf_ref":"6JUJDNX","category":"soconet","ptf_model":"GENERIC_pCO2","country_name":"USA","country_ship":"USA","country_iso_reporting":"US","country_sensor_provider":null}},{"type":"Feature","geometry":{"type":"Point","coordinates":[91.16025,18.2168]},"properties":{"ptf_id":1361146,"ptf_ref":"CRWLYHS","category":"soconet","ptf_model":"GENERIC_pCO2","country_name":"USA","country_ship":"USA","country_iso_reporting":"US","country_sensor_provider":null}},{"type":"Feature","geometry":{"type":"Point","coordinates":[123.31134,8.96904]},"properties":{"ptf_id":1361147,"ptf_ref":"JCJL7XT","category":"soconet","ptf_model":"GENERIC_pCO2","country_name":"USA","country_ship":"USA","country_iso_reporting":"US","country_sensor_provider":null}},{"type":"Feature","geometry":{"type":"Point","coordinates":[177.7514,-36.2348]},"properties":{"ptf_id":1361148,"ptf_ref":"8EUNKXM","category":"soconet","ptf_model":"GENERIC_pCO2","country_name":"USA","country_ship":null,"country_iso_reporting":"US","country_sensor_provider":null}},{"type":"Feature","geometry":{"type":"Point","coordinates":[-75.1351,36.1896]},"properties":{"ptf_id":1361149,"ptf_ref":"ESFC6TD","category":"soconet","ptf_model":"GENERIC_pCO2","country_name":"USA","country_ship":null,"country_iso_reporting":"US","country_sensor_provider":null}},{"type":"Feature","geometry":{"type":"Point","coordinates":[-79.8193,9.5343]},"properties":{"ptf_id":1361150,"ptf_ref":"5QEGBHD","category":"soconet","ptf_model":"GENERIC_pCO2","country_name":"USA","country_ship":null,"country_iso_reporting":"US","country_sensor_provider":null}},{"type":"Feature","geometry":{"type":"Point","coordinates":[135.2899,34.6869]},"properties":{"ptf_id":1361151,"ptf_ref":"3TDSK5N","category":"soconet","ptf_model":"GENERIC_pCO2","country_name":"USA","country_ship":null,"country_iso_reporting":"US","country_sensor_provider":null}},{"type":"Feature","geometry":{"type":"Point","coordinates":[-87.9751,10.8981]},"properties":{"ptf_id":1361152,"ptf_ref":"EWT74PG","category":"soconet","ptf_model":"GENERIC_pCO2","country_name":"USA","country_ship":null,"country_iso_reporting":"US","country_sensor_provider":null}},{"type":"Feature","geometry":{"type":"Point","coordinates":[3.3296,52.2646]},"properties":{"ptf_id":1361153,"ptf_ref":"6XH4T6D","category":"soconet","ptf_model":"GENERIC_pCO2","country_name":"USA","country_ship":null,"country_iso_reporting":"US","country_sensor_provider":null}},{"type":"Feature","geometry":{"type":"Point","coordinates":[-29.5068,30.0009]},"properties":{"ptf_id":1361154,"ptf_ref":"GUTZDHU","category":"soconet","ptf_model":"GENERIC_pCO2","country_name":"USA","country_ship":null,"country_iso_reporting":"US","country_sensor_provider":null}},{"type":"Feature","geometry":{"type":"Point","coordinates":[-79.3627,10.604]},"properties":{"ptf_id":1361155,"ptf_ref":"WMY5H4L","category":"soconet","ptf_model":"GENERIC_pCO2","country_name":"USA","country_ship":null,"country_iso_reporting":"US","country_sensor_provider":null}},{"type":"Feature","geometry":{"type":"Point","coordinates":[175.7068,-36.363]},"properties":{"ptf_id":1361156,"ptf_ref":"BJQS78F","category":"soconet","ptf_model":"GENERIC_pCO2","country_name":"USA","country_ship":null,"country_iso_reporting":"US","country_sensor_provider":null}},{"type":"Feature","geometry":{"type":"Point","coordinates":[153.1967,-26.9213]},"properties":{"ptf_id":1361157,"ptf_ref":"SEHZK8Y","category":"soconet","ptf_model":"GENERIC_pCO2","country_name":"USA","country_ship":null,"country_iso_reporting":"US","country_sensor_provider":null}},{"type":"Feature","geometry":{"type":"Point","coordinates":[115.6258,-31.9362]},"properties":{"ptf_id":1361158,"ptf_ref":"FXWJCHS","category":"soconet","ptf_model":"GENERIC_pCO2","country_name":"USA","country_ship":null,"country_iso_reporting":"US","country_sensor_provider":null}},{"type":"Feature","geometry":{"type":"Point","coordinates":[-3.597,50.02]},"properties":{"ptf_id":1361159,"ptf_ref":"VJYDZMW","category":"soconet","ptf_model":"GENERIC_pCO2","country_name":"UK","country_ship":"UK","country_iso_reporting":"GB","country_sensor_provider":null}},{"type":"Feature","geometry":{"type":"Point","coordinates":[10.328,58.115]},"properties":{"ptf_id":1361160,"ptf_ref":"9LX7EQP","category":"soconet","ptf_model":"GENERIC_pCO2","country_name":"NORWAY","country_ship":"NORWAY","country_iso_reporting":"NO","country_sensor_provider":null}},{"type":"Feature","geometry":{"type":"Point","coordinates":[5.556,59.78]},"properties":{"ptf_id":1361161,"ptf_ref":"XDF4HDC","category":"soconet","ptf_model":"GENERIC_pCO2","country_name":"NORWAY","country_ship":"NORWAY","country_iso_reporting":"NO","country_sensor_provider":null}},{"type":"Feature","geometry":{"type":"Point","coordinates":[5.327,60.14]},"properties":{"ptf_id":1361162,"ptf_ref":"HXYPM2F","category":"soconet","ptf_model":"GENERIC_pCO2","country_name":"NORWAY","country_ship":"NORWAY","country_iso_reporting":"NO","country_sensor_provider":null}},{"type":"Feature","geometry":{"type":"Point","coordinates":[16.725,70.88]},"properties":{"ptf_id":1361163,"ptf_ref":"LBFSBPS","category":"soconet","ptf_model":"GENERIC_pCO2","country_name":"NORWAY","country_ship":"NORWAY","country_iso_reporting":"NO","country_sensor_provider":null}},{"type":"Feature","geometry":{"type":"Point","coordinates":[5.182,60.382]},"properties":{"ptf_id":1361164,"ptf_ref":"HBSYDZR","category":"soconet","ptf_model":"GENERIC_pCO2","country_name":"NORWAY","country_ship":"NORWAY","country_iso_reporting":"NO","country_sensor_provider":null}},{"type":"Feature","geometry":{"type":"Point","coordinates":[20.27,70.151]},"properties":{"ptf_id":1361165,"ptf_ref":"FRY8CSM","category":"soconet","ptf_model":"GENERIC_pCO2","country_name":"NORWAY","country_ship":"NORWAY","country_iso_reporting":"NO","country_sensor_provider":null}},{"type":"Feature","geometry":{"type":"Point","coordinates":[18.647,69.546]},"properties":{"ptf_id":1361166,"ptf_ref":"WBNGD6U","category":"soconet","ptf_model":"GENERIC_pCO2","country_name":"NORWAY","country_ship":"NORWAY","country_iso_reporting":"NO","country_sensor_provider":null}},{"type":"Feature","geometry":{"type":"Point","coordinates":[-49.726,60.977]},"properties":{"ptf_id":1361189,"ptf_ref":"6AWNM2M","category":"soconet","ptf_model":"GENERIC_pCO2","country_name":"NORWAY","country_ship":null,"country_iso_reporting":"NO","country_sensor_provider":null}},{"type":"Feature","geometry":{"type":"Point","coordinates":[-31.007,62.59]},"properties":{"ptf_id":1361190,"ptf_ref":"XJXBYLV","category":"soconet","ptf_model":"GENERIC_pCO2","country_name":"NORWAY","country_ship":null,"country_iso_reporting":"NO","country_sensor_provider":null}},{"type":"Feature","geometry":{"type":"Point","coordinates":[12.264,56.244]},"properties":{"ptf_id":1361191,"ptf_ref":"3MBJXPJ","category":"soconet","ptf_model":"GENERIC_pCO2","country_name":"NORWAY","country_ship":null,"country_iso_reporting":"NO","country_sensor_provider":null}},{"type":"Feature","geometry":{"type":"Point","coordinates":[-22.325,64.153]},"properties":{"ptf_id":1361192,"ptf_ref":"FXSW8QY","category":"soconet","ptf_model":"GENERIC_pCO2","country_name":"NORWAY","country_ship":null,"country_iso_reporting":"NO","country_sensor_provider":null}},{"type":"Feature","geometry":{"type":"Point","coordinates":[-51.949,64.112]},"properties":{"ptf_id":1361193,"ptf_ref":"LMSN2JC","category":"soconet","ptf_model":"GENERIC_pCO2","country_name":"NORWAY","country_ship":null,"country_iso_reporting":"NO","country_sensor_provider":null}},{"type":"Feature","geometry":{"type":"Point","coordinates":[-22.423,64.128]},"properties":{"ptf_id":1361194,"ptf_ref":"CML55CY","category":"soconet","ptf_model":"GENERIC_pCO2","country_name":"NORWAY","country_ship":null,"country_iso_reporting":"NO","country_sensor_provider":null}},{"type":"Feature","geometry":{"type":"Point","coordinates":[10.378,56.123]},"properties":{"ptf_id":1361195,"ptf_ref":"CXCXTGK","category":"soconet","ptf_model":"GENERIC_pCO2","country_name":"NORWAY","country_ship":null,"country_iso_reporting":"NO","country_sensor_provider":null}},{"type":"Feature","geometry":{"type":"Point","coordinates":[-52.239,63.74]},"properties":{"ptf_id":1361196,"ptf_ref":"MQGEVER","category":"soconet","ptf_model":"GENERIC_pCO2","country_name":"NORWAY","country_ship":null,"country_iso_reporting":"NO","country_sensor_provider":null}}]}
