{"type":"FeatureCollection","features":[{"type":"Feature","geometry":{"type":"Point","coordinates":[-153.3,0.1]},"properties":{"ptf_id":1154429,"ptf_ref":"5100023_047","category":"soconet_moorings","ptf_model":"TAO_REFRESH","country_name":"USA","country_ship":null,"country_iso_reporting":"US","country_sensor_provider":"USA"}},{"type":"Feature","geometry":{"type":"Point","coordinates":[-157.95,22.6667]},"properties":{"ptf_id":1160157,"ptf_ref":"5100400_019","category":"soconet_moorings","ptf_model":"Other Met Moored Buoy","country_name":"USA","country_ship":"USA","country_iso_reporting":"US","country_sensor_provider":"USA"}},{"type":"Feature","geometry":{"type":"Point","coordinates":[-122.5,33.5]},"properties":{"ptf_id":1160237,"ptf_ref":"4801002_016","category":"soconet_moorings","ptf_model":"Other Met Moored Buoy","country_name":"USA","country_ship":null,"country_iso_reporting":"US","country_sensor_provider":"USA"}},{"type":"Feature","geometry":{"type":"Point","coordinates":[-169.7,0.1]},"properties":{"ptf_id":1178917,"ptf_ref":"5100010_043","category":"soconet_moorings","ptf_model":"TAO_REFRESH","country_name":"USA","country_ship":null,"country_iso_reporting":"US","country_sensor_provider":"USA"}},{"type":"Feature","geometry":{"type":"Point","coordinates":[-56.7215,-38.5016]},"properties":{"ptf_id":1357817,"ptf_ref":"WUXHVWD","category":"soconet_moorings","ptf_model":"GENERIC_pCO2","country_name":"ARGENTINA","country_ship":"ARGENTINA","country_iso_reporting":"AR","country_sensor_provider":null}},{"type":"Feature","geometry":{"type":"Point","coordinates":[-53.7886,-44.102]},"properties":{"ptf_id":1360917,"ptf_ref":"8BNPH5J","category":"soconet_moorings","ptf_model":"GENERIC_pCO2","country_name":"GERMANY","country_ship":"GERMANY","country_iso_reporting":"DE","country_sensor_provider":null}},{"type":"Feature","geometry":{"type":"Point","coordinates":[-25.0072,16.8895]},"properties":{"ptf_id":1360918,"ptf_ref":"LDJN3NN","category":"soconet_moorings","ptf_model":"GENERIC_pCO2","country_name":"GERMANY","country_ship":"GERMANY","country_iso_reporting":"DE","country_sensor_provider":null}},{"type":"Feature","geometry":{"type":"Point","coordinates":[2.8932,61.2592]},"properties":{"ptf_id":1360919,"ptf_ref":"BUJ768E","category":"soconet_moorings","ptf_model":"GENERIC_pCO2","country_name":"GERMANY","country_ship":"GERMANY","country_iso_reporting":"DE","country_sensor_provider":null}},{"type":"Feature","geometry":{"type":"Point","coordinates":[15.8516,74.3013]},"properties":{"ptf_id":1360920,"ptf_ref":"XVJWV7F","category":"soconet_moorings","ptf_model":"GENERIC_pCO2","country_name":"GERMANY","country_ship":"GERMANY","country_iso_reporting":"DE","country_sensor_provider":null}},{"type":"Feature","geometry":{"type":"Point","coordinates":[-9.7477,43.3083]},"properties":{"ptf_id":1360921,"ptf_ref":"YMVE2JE","category":"soconet_moorings","ptf_model":"GENERIC_pCO2","country_name":"SPAIN","country_ship":"SPAIN","country_iso_reporting":"ES","country_sensor_provider":null}},{"type":"Feature","geometry":{"type":"Point","coordinates":[-70.8908,41.3381]},"properties":{"ptf_id":1360922,"ptf_ref":"ZKJGJTN","category":"soconet_moorings","ptf_model":"GENERIC_pCO2","country_name":"BERMUDA","country_ship":"USA","country_iso_reporting":"BM","country_sensor_provider":null}},{"type":"Feature","geometry":{"type":"Point","coordinates":[-64.6733,32.3976]},"properties":{"ptf_id":1360923,"ptf_ref":"KJFRS7B","category":"soconet_moorings","ptf_model":"GENERIC_pCO2","country_name":"BERMUDA","country_ship":"USA","country_iso_reporting":"BM","country_sensor_provider":null}},{"type":"Feature","geometry":{"type":"Point","coordinates":[-64.6666,32.393]},"properties":{"ptf_id":1360924,"ptf_ref":"DJXP8KW","category":"soconet_moorings","ptf_model":"GENERIC_pCO2","country_name":"BERMUDA","country_ship":"USA","country_iso_reporting":"BM","country_sensor_provider":null}},{"type":"Feature","geometry":{"type":"Point","coordinates":[-62.5593,29.5571]},"properties":{"ptf_id":1360925,"ptf_ref":"JLBFLHF","category":"soconet_moorings","ptf_model":"GENERIC_pCO2","country_name":"BERMUDA","country_ship":"USA","country_iso_reporting":"BM","country_sensor_provider":null}},{"type":"Feature","geometry":{"type":"Point","coordinates":[-64.637,32.3811]},"properties":{"ptf_id":1360926,"ptf_ref":"6FYRFXY","category":"soconet_moorings","ptf_model":"GENERIC_pCO2","country_name":"BERMUDA","country_ship":"USA","country_iso_reporting":"BM","country_sensor_provider":null}},{"type":"Feature","geometry":{"type":"Point","coordinates":[-64.494,32.1615]},"properties":{"ptf_id":1360927,"ptf_ref":"WDWYDJU","category":"soconet_moorings","ptf_model":"GENERIC_pCO2","country_name":"BERMUDA","country_ship":"USA","country_iso_reporting":"BM","country_sensor_provider":null}},{"type":"Feature","geometry":{"type":"Point","coordinates":[-64.6124,32.3385]},"properties":{"ptf_id":1360928,"ptf_ref":"RTKEX7P","category":"soconet_moorings","ptf_model":"GENERIC_pCO2","country_name":"BERMUDA","country_ship":"USA","country_iso_reporting":"BM","country_sensor_provider":null}},{"type":"Feature","geometry":{"type":"Point","coordinates":[-64.5928,32.3387]},"properties":{"ptf_id":1360929,"ptf_ref":"XUBVPDN","category":"soconet_moorings","ptf_model":"GENERIC_pCO2","country_name":"BERMUDA","country_ship":"USA","country_iso_reporting":"BM","country_sensor_provider":null}},{"type":"Feature","geometry":{"type":"Point","coordinates":[-64.6063,32.2278]},"properties":{"ptf_id":1360930,"ptf_ref":"6QGT5RW","category":"soconet_moorings","ptf_model":"GENERIC_pCO2","country_name":"BERMUDA","country_ship":"USA","country_iso_reporting":"BM","country_sensor_provider":null}},{"type":"Feature","geometry":{"type":"Point","coordinates":[-64.666,32.3919]},"properties":{"ptf_id":1360931,"ptf_ref":"GGQYT8T","category":"soconet_moorings","ptf_model":"GENERIC_pCO2","country_name":"BERMUDA","country_ship":"USA","country_iso_reporting":"BM","country_sensor_provider":null}},{"type":"Feature","geometry":{"type":"Point","coordinates":[-64.6007,32.4064]},"properties":{"ptf_id":1360932,"ptf_ref":"GUYQCZV","category":"soconet_moorings","ptf_model":"GENERIC_pCO2","country_name":"BERMUDA","country_ship":"USA","country_iso_reporting":"BM","country_sensor_provider":null}},{"type":"Feature","geometry":{"type":"Point","coordinates":[-64.6779,32.4]},"properties":{"ptf_id":1360933,"ptf_ref":"NZLTE6T","category":"soconet_moorings","ptf_model":"GENERIC_pCO2","country_name":"BERMUDA","country_ship":"USA","country_iso_reporting":"BM","country_sensor_provider":null}},{"type":"Feature","geometry":{"type":"Point","coordinates":[-64.6768,32.3996]},"properties":{"ptf_id":1360934,"ptf_ref":"WQD8W6T","category":"soconet_moorings","ptf_model":"GENERIC_pCO2","country_name":"BERMUDA","country_ship":"USA","country_iso_reporting":"BM","country_sensor_provider":null}},{"type":"Feature","geometry":{"type":"Point","coordinates":[-64.6097,32.3416]},"properties":{"ptf_id":1360935,"ptf_ref":"QLFGZYU","category":"soconet_moorings","ptf_model":"GENERIC_pCO2","country_name":"BERMUDA","country_ship":"USA","country_iso_reporting":"BM","country_sensor_provider":null}},{"type":"Feature","geometry":{"type":"Point","coordinates":[-64.6779,32.4]},"properties":{"ptf_id":1360936,"ptf_ref":"7PQXVDM","category":"soconet_moorings","ptf_model":"GENERIC_pCO2","country_name":"BERMUDA","country_ship":"USA","country_iso_reporting":"BM","country_sensor_provider":null}},{"type":"Feature","geometry":{"type":"Point","coordinates":[-64.6804,32.3999]},"properties":{"ptf_id":1360937,"ptf_ref":"TVJB3SE","category":"soconet_moorings","ptf_model":"GENERIC_pCO2","country_name":"BERMUDA","country_ship":"USA","country_iso_reporting":"BM","country_sensor_provider":null}},{"type":"Feature","geometry":{"type":"Point","coordinates":[-64.5943,32.3428]},"properties":{"ptf_id":1360938,"ptf_ref":"QSTJPCL","category":"soconet_moorings","ptf_model":"GENERIC_pCO2","country_name":"BERMUDA","country_ship":"USA","country_iso_reporting":"BM","country_sensor_provider":null}},{"type":"Feature","geometry":{"type":"Point","coordinates":[-64.7628,32.3344]},"properties":{"ptf_id":1360939,"ptf_ref":"EHPQD6S","category":"soconet_moorings","ptf_model":"GENERIC_pCO2","country_name":"BERMUDA","country_ship":null,"country_iso_reporting":"BM","country_sensor_provider":null}},{"type":"Feature","geometry":{"type":"Point","coordinates":[-73.9402,40.4968]},"properties":{"ptf_id":1360940,"ptf_ref":"TKYH55P","category":"soconet_moorings","ptf_model":"GENERIC_pCO2","country_name":"BERMUDA","country_ship":null,"country_iso_reporting":"BM","country_sensor_provider":null}},{"type":"Feature","geometry":{"type":"Point","coordinates":[-71.0272,38.2445]},"properties":{"ptf_id":1360941,"ptf_ref":"6ETHWEN","category":"soconet_moorings","ptf_model":"GENERIC_pCO2","country_name":"BERMUDA","country_ship":null,"country_iso_reporting":"BM","country_sensor_provider":null}},{"type":"Feature","geometry":{"type":"Point","coordinates":[-69.1331,37.0761]},"properties":{"ptf_id":1360942,"ptf_ref":"4RVEYNU","category":"soconet_moorings","ptf_model":"GENERIC_pCO2","country_name":"BERMUDA","country_ship":null,"country_iso_reporting":"BM","country_sensor_provider":null}},{"type":"Feature","geometry":{"type":"Point","coordinates":[-74.0243,40.5371]},"properties":{"ptf_id":1360943,"ptf_ref":"MPQD6VT","category":"soconet_moorings","ptf_model":"GENERIC_pCO2","country_name":"BERMUDA","country_ship":null,"country_iso_reporting":"BM","country_sensor_provider":null}},{"type":"Feature","geometry":{"type":"Point","coordinates":[-64.7555,32.3412]},"properties":{"ptf_id":1360944,"ptf_ref":"DGJFTCQ","category":"soconet_moorings","ptf_model":"GENERIC_pCO2","country_name":"BERMUDA","country_ship":null,"country_iso_reporting":"BM","country_sensor_provider":null}},{"type":"Feature","geometry":{"type":"Point","coordinates":[-64.7688,32.3291]},"properties":{"ptf_id":1360945,"ptf_ref":"LLBZ3XD","category":"soconet_moorings","ptf_model":"GENERIC_pCO2","country_name":"BERMUDA","country_ship":null,"country_iso_reporting":"BM","country_sensor_provider":null}},{"type":"Feature","geometry":{"type":"Point","coordinates":[151.9268,-23.4585]},"properties":{"ptf_id":1360946,"ptf_ref":"QZBT3NA","category":"soconet_moorings","ptf_model":"Meteo mooring","country_name":"AUSTRALIA","country_ship":null,"country_iso_reporting":"AU","country_sensor_provider":null}},{"type":"Feature","geometry":{"type":"Point","coordinates":[151.9268,-23.4585]},"properties":{"ptf_id":1360947,"ptf_ref":"JKHGYWX","category":"soconet_moorings","ptf_model":"Meteo mooring","country_name":"AUSTRALIA","country_ship":null,"country_iso_reporting":"AU","country_sensor_provider":null}},{"type":"Feature","geometry":{"type":"Point","coordinates":[136.4493,-35.8439]},"properties":{"ptf_id":1360948,"ptf_ref":"JDTLUPW","category":"soconet_moorings","ptf_model":"Meteo mooring","country_name":"AUSTRALIA","country_ship":null,"country_iso_reporting":"AU","country_sensor_provider":null}},{"type":"Feature","geometry":{"type":"Point","coordinates":[173.2738,-41.2598]},"properties":{"ptf_id":1361022,"ptf_ref":"GJUGP2G","category":"soconet_moorings","ptf_model":"GENERIC_pCO2","country_name":"JAPAN","country_ship":null,"country_iso_reporting":"JP","country_sensor_provider":null}},{"type":"Feature","geometry":{"type":"Point","coordinates":[139.6884,35.4606]},"properties":{"ptf_id":1361023,"ptf_ref":"EVBBTZY","category":"soconet_moorings","ptf_model":"GENERIC_pCO2","country_name":"JAPAN","country_ship":null,"country_iso_reporting":"JP","country_sensor_provider":null}},{"type":"Feature","geometry":{"type":"Point","coordinates":[153.1687,-27.3749]},"properties":{"ptf_id":1361024,"ptf_ref":"UBZMT6Y","category":"soconet_moorings","ptf_model":"GENERIC_pCO2","country_name":"JAPAN","country_ship":null,"country_iso_reporting":"JP","country_sensor_provider":null}},{"type":"Feature","geometry":{"type":"Point","coordinates":[173.2738,-41.2598]},"properties":{"ptf_id":1361025,"ptf_ref":"QFFFBXV","category":"soconet_moorings","ptf_model":"GENERIC_pCO2","country_name":"JAPAN","country_ship":null,"country_iso_reporting":"JP","country_sensor_provider":null}},{"type":"Feature","geometry":{"type":"Point","coordinates":[139.6806,35.4565]},"properties":{"ptf_id":1361026,"ptf_ref":"CSK6WGF","category":"soconet_moorings","ptf_model":"GENERIC_pCO2","country_name":"JAPAN","country_ship":null,"country_iso_reporting":"JP","country_sensor_provider":null}},{"type":"Feature","geometry":{"type":"Point","coordinates":[153.1648,-27.3796]},"properties":{"ptf_id":1361027,"ptf_ref":"SMPGU7K","category":"soconet_moorings","ptf_model":"GENERIC_pCO2","country_name":"JAPAN","country_ship":null,"country_iso_reporting":"JP","country_sensor_provider":null}},{"type":"Feature","geometry":{"type":"Point","coordinates":[173.2737,-41.2598]},"properties":{"ptf_id":1361028,"ptf_ref":"ZZA7FRC","category":"soconet_moorings","ptf_model":"GENERIC_pCO2","country_name":"JAPAN","country_ship":null,"country_iso_reporting":"JP","country_sensor_provider":null}},{"type":"Feature","geometry":{"type":"Point","coordinates":[139.6883,35.4605]},"properties":{"ptf_id":1361029,"ptf_ref":"5NBYW4G","category":"soconet_moorings","ptf_model":"GENERIC_pCO2","country_name":"JAPAN","country_ship":null,"country_iso_reporting":"JP","country_sensor_provider":null}},{"type":"Feature","geometry":{"type":"Point","coordinates":[153.1664,-27.3778]},"properties":{"ptf_id":1361030,"ptf_ref":"7FGWWZP","category":"soconet_moorings","ptf_model":"GENERIC_pCO2","country_name":"JAPAN","country_ship":null,"country_iso_reporting":"JP","country_sensor_provider":null}},{"type":"Feature","geometry":{"type":"Point","coordinates":[174.7697,-36.8416]},"properties":{"ptf_id":1361031,"ptf_ref":"KHK4H5X","category":"soconet_moorings","ptf_model":"GENERIC_pCO2","country_name":"JAPAN","country_ship":null,"country_iso_reporting":"JP","country_sensor_provider":null}},{"type":"Feature","geometry":{"type":"Point","coordinates":[175.5915,-42.4554]},"properties":{"ptf_id":1361032,"ptf_ref":"4VGA7LA","category":"soconet_moorings","ptf_model":"GENERIC_pCO2","country_name":"NEW ZEALAND","country_ship":"NEW ZEALAND","country_iso_reporting":"NZ","country_sensor_provider":null}},{"type":"Feature","geometry":{"type":"Point","coordinates":[174.8284,-41.2774]},"properties":{"ptf_id":1361033,"ptf_ref":"RDDP9JR","category":"soconet_moorings","ptf_model":"GENERIC_pCO2","country_name":"NEW ZEALAND","country_ship":"NEW ZEALAND","country_iso_reporting":"NZ","country_sensor_provider":null}},{"type":"Feature","geometry":{"type":"Point","coordinates":[174.7861,-41.2658]},"properties":{"ptf_id":1361034,"ptf_ref":"NVY9TQT","category":"soconet_moorings","ptf_model":"GENERIC_pCO2","country_name":"NEW ZEALAND","country_ship":"NEW ZEALAND","country_iso_reporting":"NZ","country_sensor_provider":null}},{"type":"Feature","geometry":{"type":"Point","coordinates":[175.9961,-41.3909]},"properties":{"ptf_id":1361035,"ptf_ref":"USKHU4M","category":"soconet_moorings","ptf_model":"GENERIC_pCO2","country_name":"NEW ZEALAND","country_ship":"NEW ZEALAND","country_iso_reporting":"NZ","country_sensor_provider":null}},{"type":"Feature","geometry":{"type":"Point","coordinates":[176.5953,-40.9285]},"properties":{"ptf_id":1361036,"ptf_ref":"XQR7AWM","category":"soconet_moorings","ptf_model":"GENERIC_pCO2","country_name":"NEW ZEALAND","country_ship":"NEW ZEALAND","country_iso_reporting":"NZ","country_sensor_provider":null}},{"type":"Feature","geometry":{"type":"Point","coordinates":[174.9732,-45.2382]},"properties":{"ptf_id":1361037,"ptf_ref":"UJYGWEM","category":"soconet_moorings","ptf_model":"GENERIC_pCO2","country_name":"NEW ZEALAND","country_ship":"NEW ZEALAND","country_iso_reporting":"NZ","country_sensor_provider":null}},{"type":"Feature","geometry":{"type":"Point","coordinates":[-52.193,4.9143]},"properties":{"ptf_id":1361038,"ptf_ref":"KBYBGZA","category":"soconet_moorings","ptf_model":"GENERIC_pCO2","country_name":"USA","country_ship":"USA","country_iso_reporting":"US","country_sensor_provider":null}},{"type":"Feature","geometry":{"type":"Point","coordinates":[-80.1683,25.7693]},"properties":{"ptf_id":1361039,"ptf_ref":"VBYMS7S","category":"soconet_moorings","ptf_model":"GENERIC_pCO2","country_name":"USA","country_ship":"USA","country_iso_reporting":"US","country_sensor_provider":null}},{"type":"Feature","geometry":{"type":"Point","coordinates":[-80.1668,25.7683]},"properties":{"ptf_id":1361040,"ptf_ref":"QYMYWEJ","category":"soconet_moorings","ptf_model":"GENERIC_pCO2","country_name":"USA","country_ship":"USA","country_iso_reporting":"US","country_sensor_provider":null}},{"type":"Feature","geometry":{"type":"Point","coordinates":[-80.1558,25.6534]},"properties":{"ptf_id":1361041,"ptf_ref":"WRE3PPX","category":"soconet_moorings","ptf_model":"GENERIC_pCO2","country_name":"USA","country_ship":"USA","country_iso_reporting":"US","country_sensor_provider":null}},{"type":"Feature","geometry":{"type":"Point","coordinates":[-80.1743,25.6532]},"properties":{"ptf_id":1361042,"ptf_ref":"RFSQFEX","category":"soconet_moorings","ptf_model":"GENERIC_pCO2","country_name":"USA","country_ship":"USA","country_iso_reporting":"US","country_sensor_provider":null}},{"type":"Feature","geometry":{"type":"Point","coordinates":[-80.1638,25.7663]},"properties":{"ptf_id":1361043,"ptf_ref":"4UVYAWC","category":"soconet_moorings","ptf_model":"GENERIC_pCO2","country_name":"USA","country_ship":"USA","country_iso_reporting":"US","country_sensor_provider":null}},{"type":"Feature","geometry":{"type":"Point","coordinates":[-80.1844,25.7622]},"properties":{"ptf_id":1361044,"ptf_ref":"DYJXBXN","category":"soconet_moorings","ptf_model":"GENERIC_pCO2","country_name":"USA","country_ship":"USA","country_iso_reporting":"US","country_sensor_provider":null}},{"type":"Feature","geometry":{"type":"Point","coordinates":[-80.167,25.7682]},"properties":{"ptf_id":1361045,"ptf_ref":"EGG95WJ","category":"soconet_moorings","ptf_model":"GENERIC_pCO2","country_name":"USA","country_ship":"USA","country_iso_reporting":"US","country_sensor_provider":null}},{"type":"Feature","geometry":{"type":"Point","coordinates":[-80.1693,25.7693]},"properties":{"ptf_id":1361046,"ptf_ref":"9EABTYH","category":"soconet_moorings","ptf_model":"GENERIC_pCO2","country_name":"USA","country_ship":"USA","country_iso_reporting":"US","country_sensor_provider":null}},{"type":"Feature","geometry":{"type":"Point","coordinates":[-80.1714,25.77]},"properties":{"ptf_id":1361047,"ptf_ref":"SUMNWGX","category":"soconet_moorings","ptf_model":"GENERIC_pCO2","country_name":"USA","country_ship":"USA","country_iso_reporting":"US","country_sensor_provider":null}},{"type":"Feature","geometry":{"type":"Point","coordinates":[-80.1519,25.765]},"properties":{"ptf_id":1361048,"ptf_ref":"GWCYLGF","category":"soconet_moorings","ptf_model":"GENERIC_pCO2","country_name":"USA","country_ship":"USA","country_iso_reporting":"US","country_sensor_provider":null}},{"type":"Feature","geometry":{"type":"Point","coordinates":[-80.1211,25.7565]},"properties":{"ptf_id":1361049,"ptf_ref":"JQDWSBA","category":"soconet_moorings","ptf_model":"GENERIC_pCO2","country_name":"USA","country_ship":"USA","country_iso_reporting":"US","country_sensor_provider":null}},{"type":"Feature","geometry":{"type":"Point","coordinates":[-80.1649,25.7666]},"properties":{"ptf_id":1361050,"ptf_ref":"EGDMCSG","category":"soconet_moorings","ptf_model":"GENERIC_pCO2","country_name":"USA","country_ship":"USA","country_iso_reporting":"US","country_sensor_provider":null}},{"type":"Feature","geometry":{"type":"Point","coordinates":[-89.2543,28.5545]},"properties":{"ptf_id":1361051,"ptf_ref":"ELYDWFG","category":"soconet_moorings","ptf_model":"GENERIC_pCO2","country_name":"USA","country_ship":"USA","country_iso_reporting":"US","country_sensor_provider":null}},{"type":"Feature","geometry":{"type":"Point","coordinates":[-88.6882,30.1238]},"properties":{"ptf_id":1361052,"ptf_ref":"BUDZWNR","category":"soconet_moorings","ptf_model":"GENERIC_pCO2","country_name":"USA","country_ship":"USA","country_iso_reporting":"US","country_sensor_provider":null}},{"type":"Feature","geometry":{"type":"Point","coordinates":[-88.0108,29.6549]},"properties":{"ptf_id":1361053,"ptf_ref":"6PGZEHK","category":"soconet_moorings","ptf_model":"GENERIC_pCO2","country_name":"USA","country_ship":"USA","country_iso_reporting":"US","country_sensor_provider":null}},{"type":"Feature","geometry":{"type":"Point","coordinates":[-88.1494,29.7902]},"properties":{"ptf_id":1361054,"ptf_ref":"6TML7EB","category":"soconet_moorings","ptf_model":"GENERIC_pCO2","country_name":"USA","country_ship":"USA","country_iso_reporting":"US","country_sensor_provider":null}},{"type":"Feature","geometry":{"type":"Point","coordinates":[-71.4142,41.2516]},"properties":{"ptf_id":1361055,"ptf_ref":"LHDDNES","category":"soconet_moorings","ptf_model":"GENERIC_pCO2","country_name":"USA","country_ship":"USA","country_iso_reporting":"US","country_sensor_provider":null}},{"type":"Feature","geometry":{"type":"Point","coordinates":[-71.415,41.3855]},"properties":{"ptf_id":1361056,"ptf_ref":"URQF84Q","category":"soconet_moorings","ptf_model":"GENERIC_pCO2","country_name":"USA","country_ship":"USA","country_iso_reporting":"US","country_sensor_provider":null}},{"type":"Feature","geometry":{"type":"Point","coordinates":[-71.1025,41.2797]},"properties":{"ptf_id":1361057,"ptf_ref":"XTUVQFX","category":"soconet_moorings","ptf_model":"GENERIC_pCO2","country_name":"USA","country_ship":"USA","country_iso_reporting":"US","country_sensor_provider":null}},{"type":"Feature","geometry":{"type":"Point","coordinates":[-71.2003,41.3165]},"properties":{"ptf_id":1361058,"ptf_ref":"8LCB8QS","category":"soconet_moorings","ptf_model":"GENERIC_pCO2","country_name":"USA","country_ship":"USA","country_iso_reporting":"US","country_sensor_provider":null}},{"type":"Feature","geometry":{"type":"Point","coordinates":[-1.616,49.6469]},"properties":{"ptf_id":1361059,"ptf_ref":"TNZRUHS","category":"soconet_moorings","ptf_model":"GENERIC_pCO2","country_name":"USA","country_ship":null,"country_iso_reporting":"US","country_sensor_provider":null}},{"type":"Feature","geometry":{"type":"Point","coordinates":[-22.9463,64.3677]},"properties":{"ptf_id":1361060,"ptf_ref":"DNZMXAT","category":"soconet_moorings","ptf_model":"GENERIC_pCO2","country_name":"USA","country_ship":null,"country_iso_reporting":"US","country_sensor_provider":null}},{"type":"Feature","geometry":{"type":"Point","coordinates":[-23.3817,64.4305]},"properties":{"ptf_id":1361061,"ptf_ref":"ZGH97VE","category":"soconet_moorings","ptf_model":"GENERIC_pCO2","country_name":"USA","country_ship":null,"country_iso_reporting":"US","country_sensor_provider":null}},{"type":"Feature","geometry":{"type":"Point","coordinates":[-22.8504,64.4141]},"properties":{"ptf_id":1361062,"ptf_ref":"CUHBQCE","category":"soconet_moorings","ptf_model":"GENERIC_pCO2","country_name":"USA","country_ship":null,"country_iso_reporting":"US","country_sensor_provider":null}},{"type":"Feature","geometry":{"type":"Point","coordinates":[-22.2018,64.2427]},"properties":{"ptf_id":1361063,"ptf_ref":"5FFPS8A","category":"soconet_moorings","ptf_model":"GENERIC_pCO2","country_name":"USA","country_ship":null,"country_iso_reporting":"US","country_sensor_provider":null}},{"type":"Feature","geometry":{"type":"Point","coordinates":[15.6209,78.2333]},"properties":{"ptf_id":1361064,"ptf_ref":"8GQZLDK","category":"soconet_moorings","ptf_model":"GENERIC_pCO2","country_name":"USA","country_ship":null,"country_iso_reporting":"US","country_sensor_provider":null}},{"type":"Feature","geometry":{"type":"Point","coordinates":[13.8085,78.1712]},"properties":{"ptf_id":1361065,"ptf_ref":"SDZVPBA","category":"soconet_moorings","ptf_model":"GENERIC_pCO2","country_name":"USA","country_ship":null,"country_iso_reporting":"US","country_sensor_provider":null}},{"type":"Feature","geometry":{"type":"Point","coordinates":[15.6174,78.2336]},"properties":{"ptf_id":1361066,"ptf_ref":"YSTPX5F","category":"soconet_moorings","ptf_model":"GENERIC_pCO2","country_name":"USA","country_ship":null,"country_iso_reporting":"US","country_sensor_provider":null}},{"type":"Feature","geometry":{"type":"Point","coordinates":[15.6227,78.2338]},"properties":{"ptf_id":1361067,"ptf_ref":"WEMLSGS","category":"soconet_moorings","ptf_model":"GENERIC_pCO2","country_name":"USA","country_ship":null,"country_iso_reporting":"US","country_sensor_provider":null}},{"type":"Feature","geometry":{"type":"Point","coordinates":[-22.3672,64.3026]},"properties":{"ptf_id":1361068,"ptf_ref":"BXWTPPV","category":"soconet_moorings","ptf_model":"GENERIC_pCO2","country_name":"USA","country_ship":null,"country_iso_reporting":"US","country_sensor_provider":null}},{"type":"Feature","geometry":{"type":"Point","coordinates":[-24.8347,65.5219]},"properties":{"ptf_id":1361069,"ptf_ref":"TFL33QS","category":"soconet_moorings","ptf_model":"GENERIC_pCO2","country_name":"USA","country_ship":null,"country_iso_reporting":"US","country_sensor_provider":null}},{"type":"Feature","geometry":{"type":"Point","coordinates":[14.8079,78.234]},"properties":{"ptf_id":1361070,"ptf_ref":"HTVPNDJ","category":"soconet_moorings","ptf_model":"GENERIC_pCO2","country_name":"USA","country_ship":null,"country_iso_reporting":"US","country_sensor_provider":null}},{"type":"Feature","geometry":{"type":"Point","coordinates":[14.2239,78.1976]},"properties":{"ptf_id":1361071,"ptf_ref":"YQC73YK","category":"soconet_moorings","ptf_model":"GENERIC_pCO2","country_name":"USA","country_ship":null,"country_iso_reporting":"US","country_sensor_provider":null}},{"type":"Feature","geometry":{"type":"Point","coordinates":[-64.6298,71.6392]},"properties":{"ptf_id":1361072,"ptf_ref":"9NLXLPK","category":"soconet_moorings","ptf_model":"GENERIC_pCO2","country_name":"USA","country_ship":null,"country_iso_reporting":"US","country_sensor_provider":null}},{"type":"Feature","geometry":{"type":"Point","coordinates":[-167.6414,64.7074]},"properties":{"ptf_id":1361073,"ptf_ref":"CJGJ52P","category":"soconet_moorings","ptf_model":"GENERIC_pCO2","country_name":"USA","country_ship":null,"country_iso_reporting":"US","country_sensor_provider":null}},{"type":"Feature","geometry":{"type":"Point","coordinates":[-24.4375,70.7583]},"properties":{"ptf_id":1361074,"ptf_ref":"GVJS9DH","category":"soconet_moorings","ptf_model":"GENERIC_pCO2","country_name":"USA","country_ship":null,"country_iso_reporting":"US","country_sensor_provider":null}},{"type":"Feature","geometry":{"type":"Point","coordinates":[-22.3919,64.3022]},"properties":{"ptf_id":1361075,"ptf_ref":"QKVYTDN","category":"soconet_moorings","ptf_model":"GENERIC_pCO2","country_name":"USA","country_ship":null,"country_iso_reporting":"US","country_sensor_provider":null}},{"type":"Feature","geometry":{"type":"Point","coordinates":[151.897,7.464]},"properties":{"ptf_id":1361117,"ptf_ref":"MSCC8GG","category":"soconet_moorings","ptf_model":"Meteo mooring","country_name":"USA","country_ship":null,"country_iso_reporting":"US","country_sensor_provider":null}},{"type":"Feature","geometry":{"type":"Point","coordinates":[151.897,7.464]},"properties":{"ptf_id":1361118,"ptf_ref":"JXVZDHY","category":"soconet_moorings","ptf_model":"Meteo mooring","country_name":"USA","country_ship":null,"country_iso_reporting":"US","country_sensor_provider":null}},{"type":"Feature","geometry":{"type":"Point","coordinates":[-157.798,21.458]},"properties":{"ptf_id":1361119,"ptf_ref":"BCXFMXR","category":"soconet_moorings","ptf_model":"Meteo mooring","country_name":"USA","country_ship":null,"country_iso_reporting":"US","country_sensor_provider":null}},{"type":"Feature","geometry":{"type":"Point","coordinates":[-80.866,31.4]},"properties":{"ptf_id":1361120,"ptf_ref":"HYR7FMC","category":"soconet_moorings","ptf_model":"Meteo mooring","country_name":"USA","country_ship":null,"country_iso_reporting":"US","country_sensor_provider":null}},{"type":"Feature","geometry":{"type":"Point","coordinates":[-80.867,31.4]},"properties":{"ptf_id":1361121,"ptf_ref":"GLNWFZQ","category":"soconet_moorings","ptf_model":"Meteo mooring","country_name":"USA","country_ship":null,"country_iso_reporting":"US","country_sensor_provider":null}},{"type":"Feature","geometry":{"type":"Point","coordinates":[-157.783,21.48]},"properties":{"ptf_id":1361122,"ptf_ref":"8YMPW8T","category":"soconet_moorings","ptf_model":"Meteo mooring","country_name":"USA","country_ship":null,"country_iso_reporting":"US","country_sensor_provider":null}},{"type":"Feature","geometry":{"type":"Point","coordinates":[144.544,32.386]},"properties":{"ptf_id":1361123,"ptf_ref":"6VW7L7B","category":"soconet_moorings","ptf_model":"Meteo mooring","country_name":"USA","country_ship":null,"country_iso_reporting":"US","country_sensor_provider":null}},{"type":"Feature","geometry":{"type":"Point","coordinates":[144.63,32.264]},"properties":{"ptf_id":1361124,"ptf_ref":"TVG83ZV","category":"soconet_moorings","ptf_model":"Meteo mooring","country_name":"USA","country_ship":null,"country_iso_reporting":"US","country_sensor_provider":null}},{"type":"Feature","geometry":{"type":"Point","coordinates":[-125.49,47.322]},"properties":{"ptf_id":1361125,"ptf_ref":"ETYENVV","category":"soconet_moorings","ptf_model":"Meteo mooring","country_name":"USA","country_ship":null,"country_iso_reporting":"US","country_sensor_provider":null}},{"type":"Feature","geometry":{"type":"Point","coordinates":[-144.89,50.053]},"properties":{"ptf_id":1361126,"ptf_ref":"QTK25KJ","category":"soconet_moorings","ptf_model":"Meteo mooring","country_name":"USA","country_ship":null,"country_iso_reporting":"US","country_sensor_provider":null}},{"type":"Feature","geometry":{"type":"Point","coordinates":[-157.798,21.458]},"properties":{"ptf_id":1361127,"ptf_ref":"8SU48GT","category":"soconet_moorings","ptf_model":"Meteo mooring","country_name":"USA","country_ship":null,"country_iso_reporting":"US","country_sensor_provider":null}},{"type":"Feature","geometry":{"type":"Point","coordinates":[-70.542,43.019]},"properties":{"ptf_id":1361128,"ptf_ref":"7HWDUXZ","category":"soconet_moorings","ptf_model":"Meteo mooring","country_name":"USA","country_ship":null,"country_iso_reporting":"US","country_sensor_provider":null}},{"type":"Feature","geometry":{"type":"Point","coordinates":[-70.543,43.021]},"properties":{"ptf_id":1361129,"ptf_ref":"7JEZ24D","category":"soconet_moorings","ptf_model":"Meteo mooring","country_name":"USA","country_ship":null,"country_iso_reporting":"US","country_sensor_provider":null}},{"type":"Feature","geometry":{"type":"Point","coordinates":[-70.543,43.021]},"properties":{"ptf_id":1361130,"ptf_ref":"TXT22DD","category":"soconet_moorings","ptf_model":"Meteo mooring","country_name":"USA","country_ship":null,"country_iso_reporting":"US","country_sensor_provider":null}},{"type":"Feature","geometry":{"type":"Point","coordinates":[-67.051,17.954]},"properties":{"ptf_id":1361131,"ptf_ref":"BTYZ3YJ","category":"soconet_moorings","ptf_model":"Meteo mooring","country_name":"USA","country_ship":null,"country_iso_reporting":"US","country_sensor_provider":null}},{"type":"Feature","geometry":{"type":"Point","coordinates":[-67.051,17.954]},"properties":{"ptf_id":1361132,"ptf_ref":"7CTV7ZH","category":"soconet_moorings","ptf_model":"Meteo mooring","country_name":"USA","country_ship":null,"country_iso_reporting":"US","country_sensor_provider":null}},{"type":"Feature","geometry":{"type":"Point","coordinates":[-124.1539,44.6211]},"properties":{"ptf_id":1361133,"ptf_ref":"VQNXEFH","category":"soconet_moorings","ptf_model":"GENERIC_pCO2","country_name":"USA","country_ship":"USA","country_iso_reporting":"US","country_sensor_provider":null}},{"type":"Feature","geometry":{"type":"Point","coordinates":[-124.1623,44.5268]},"properties":{"ptf_id":1361134,"ptf_ref":"GSRDJUJ","category":"soconet_moorings","ptf_model":"GENERIC_pCO2","country_name":"USA","country_ship":"USA","country_iso_reporting":"US","country_sensor_provider":null}},{"type":"Feature","geometry":{"type":"Point","coordinates":[-124.1611,44.6378]},"properties":{"ptf_id":1361135,"ptf_ref":"MKUV2SL","category":"soconet_moorings","ptf_model":"GENERIC_pCO2","country_name":"USA","country_ship":"USA","country_iso_reporting":"US","country_sensor_provider":null}},{"type":"Feature","geometry":{"type":"Point","coordinates":[-117.2661,32.6143]},"properties":{"ptf_id":1361136,"ptf_ref":"UNSNQLL","category":"soconet_moorings","ptf_model":"GENERIC_pCO2","country_name":"USA","country_ship":"USA","country_iso_reporting":"US","country_sensor_provider":null}},{"type":"Feature","geometry":{"type":"Point","coordinates":[-156.6185,19.7703]},"properties":{"ptf_id":1361137,"ptf_ref":"ADFSKLU","category":"soconet_moorings","ptf_model":"GENERIC_pCO2","country_name":"USA","country_ship":null,"country_iso_reporting":"US","country_sensor_provider":null}},{"type":"Feature","geometry":{"type":"Point","coordinates":[-154.3132,56.2147]},"properties":{"ptf_id":1361138,"ptf_ref":"3EWZR7T","category":"soconet_moorings","ptf_model":"GENERIC_pCO2","country_name":"USA","country_ship":"USA","country_iso_reporting":"US","country_sensor_provider":null}},{"type":"Feature","geometry":{"type":"Point","coordinates":[-166.4804,53.9381]},"properties":{"ptf_id":1361139,"ptf_ref":"HRUPSGF","category":"soconet_moorings","ptf_model":"GENERIC_pCO2","country_name":"USA","country_ship":"USA","country_iso_reporting":"US","country_sensor_provider":null}},{"type":"Feature","geometry":{"type":"Point","coordinates":[-152.1561,57.4026]},"properties":{"ptf_id":1361140,"ptf_ref":"CQLXXXT","category":"soconet_moorings","ptf_model":"GENERIC_pCO2","country_name":"USA","country_ship":"USA","country_iso_reporting":"US","country_sensor_provider":null}},{"type":"Feature","geometry":{"type":"Point","coordinates":[-153.0658,56.8575]},"properties":{"ptf_id":1361141,"ptf_ref":"8RS3FEV","category":"soconet_moorings","ptf_model":"GENERIC_pCO2","country_name":"USA","country_ship":"USA","country_iso_reporting":"US","country_sensor_provider":null}},{"type":"Feature","geometry":{"type":"Point","coordinates":[134.4788,6.9295]},"properties":{"ptf_id":1361142,"ptf_ref":"ZHULJ7G","category":"soconet_moorings","ptf_model":"GENERIC_pCO2","country_name":"USA","country_ship":"USA","country_iso_reporting":"US","country_sensor_provider":null}},{"type":"Feature","geometry":{"type":"Point","coordinates":[144.4584,13.385]},"properties":{"ptf_id":1361143,"ptf_ref":"WZUKUGH","category":"soconet_moorings","ptf_model":"GENERIC_pCO2","country_name":"USA","country_ship":"USA","country_iso_reporting":"US","country_sensor_provider":null}},{"type":"Feature","geometry":{"type":"Point","coordinates":[144.5895,13.54]},"properties":{"ptf_id":1361144,"ptf_ref":"PBLLNGD","category":"soconet_moorings","ptf_model":"GENERIC_pCO2","country_name":"USA","country_ship":"USA","country_iso_reporting":"US","country_sensor_provider":null}},{"type":"Feature","geometry":{"type":"Point","coordinates":[116.1537,-18.0133]},"properties":{"ptf_id":1361145,"ptf_ref":"6JUJDNX","category":"soconet_moorings","ptf_model":"GENERIC_pCO2","country_name":"USA","country_ship":"USA","country_iso_reporting":"US","country_sensor_provider":null}},{"type":"Feature","geometry":{"type":"Point","coordinates":[105.3351,-30.0879]},"properties":{"ptf_id":1361146,"ptf_ref":"CRWLYHS","category":"soconet_moorings","ptf_model":"GENERIC_pCO2","country_name":"USA","country_ship":"USA","country_iso_reporting":"US","country_sensor_provider":null}},{"type":"Feature","geometry":{"type":"Point","coordinates":[117.1273,7.8236]},"properties":{"ptf_id":1361147,"ptf_ref":"JCJL7XT","category":"soconet_moorings","ptf_model":"GENERIC_pCO2","country_name":"USA","country_ship":"USA","country_iso_reporting":"US","country_sensor_provider":null}},{"type":"Feature","geometry":{"type":"Point","coordinates":[-79.4497,8.1261]},"properties":{"ptf_id":1361148,"ptf_ref":"8EUNKXM","category":"soconet_moorings","ptf_model":"GENERIC_pCO2","country_name":"USA","country_ship":null,"country_iso_reporting":"US","country_sensor_provider":null}},{"type":"Feature","geometry":{"type":"Point","coordinates":[-77.1066,33.2309]},"properties":{"ptf_id":1361149,"ptf_ref":"ESFC6TD","category":"soconet_moorings","ptf_model":"GENERIC_pCO2","country_name":"USA","country_ship":null,"country_iso_reporting":"US","country_sensor_provider":null}},{"type":"Feature","geometry":{"type":"Point","coordinates":[-75.0541,35.699]},"properties":{"ptf_id":1361150,"ptf_ref":"5QEGBHD","category":"soconet_moorings","ptf_model":"GENERIC_pCO2","country_name":"USA","country_ship":null,"country_iso_reporting":"US","country_sensor_provider":null}},{"type":"Feature","geometry":{"type":"Point","coordinates":[-86.6486,3.4505]},"properties":{"ptf_id":1361151,"ptf_ref":"3TDSK5N","category":"soconet_moorings","ptf_model":"GENERIC_pCO2","country_name":"USA","country_ship":null,"country_iso_reporting":"US","country_sensor_provider":null}},{"type":"Feature","geometry":{"type":"Point","coordinates":[-117.156,31.408]},"properties":{"ptf_id":1361152,"ptf_ref":"EWT74PG","category":"soconet_moorings","ptf_model":"GENERIC_pCO2","country_name":"USA","country_ship":null,"country_iso_reporting":"US","country_sensor_provider":null}},{"type":"Feature","geometry":{"type":"Point","coordinates":[-67.1709,36.774]},"properties":{"ptf_id":1361153,"ptf_ref":"6XH4T6D","category":"soconet_moorings","ptf_model":"GENERIC_pCO2","country_name":"USA","country_ship":null,"country_iso_reporting":"US","country_sensor_provider":null}},{"type":"Feature","geometry":{"type":"Point","coordinates":[-13.3658,44.8564]},"properties":{"ptf_id":1361154,"ptf_ref":"GUTZDHU","category":"soconet_moorings","ptf_model":"GENERIC_pCO2","country_name":"USA","country_ship":null,"country_iso_reporting":"US","country_sensor_provider":null}},{"type":"Feature","geometry":{"type":"Point","coordinates":[-79.001,29.3153]},"properties":{"ptf_id":1361155,"ptf_ref":"WMY5H4L","category":"soconet_moorings","ptf_model":"GENERIC_pCO2","country_name":"USA","country_ship":null,"country_iso_reporting":"US","country_sensor_provider":null}},{"type":"Feature","geometry":{"type":"Point","coordinates":[-22.691,64.162]},"properties":{"ptf_id":1361189,"ptf_ref":"6AWNM2M","category":"soconet_moorings","ptf_model":"GENERIC_pCO2","country_name":"NORWAY","country_ship":null,"country_iso_reporting":"NO","country_sensor_provider":null}},{"type":"Feature","geometry":{"type":"Point","coordinates":[-51.951,64.109]},"properties":{"ptf_id":1361190,"ptf_ref":"XJXBYLV","category":"soconet_moorings","ptf_model":"GENERIC_pCO2","country_name":"NORWAY","country_ship":null,"country_iso_reporting":"NO","country_sensor_provider":null}},{"type":"Feature","geometry":{"type":"Point","coordinates":[-22.716,64.156]},"properties":{"ptf_id":1361191,"ptf_ref":"3MBJXPJ","category":"soconet_moorings","ptf_model":"GENERIC_pCO2","country_name":"NORWAY","country_ship":null,"country_iso_reporting":"NO","country_sensor_provider":null}},{"type":"Feature","geometry":{"type":"Point","coordinates":[10.742,56.051]},"properties":{"ptf_id":1361192,"ptf_ref":"FXSW8QY","category":"soconet_moorings","ptf_model":"GENERIC_pCO2","country_name":"NORWAY","country_ship":null,"country_iso_reporting":"NO","country_sensor_provider":null}},{"type":"Feature","geometry":{"type":"Point","coordinates":[-22.874,64.153]},"properties":{"ptf_id":1361193,"ptf_ref":"LMSN2JC","category":"soconet_moorings","ptf_model":"GENERIC_pCO2","country_name":"NORWAY","country_ship":null,"country_iso_reporting":"NO","country_sensor_provider":null}},{"type":"Feature","geometry":{"type":"Point","coordinates":[-52.23,64.039]},"properties":{"ptf_id":1361194,"ptf_ref":"CML55CY","category":"soconet_moorings","ptf_model":"GENERIC_pCO2","country_name":"NORWAY","country_ship":null,"country_iso_reporting":"NO","country_sensor_provider":null}},{"type":"Feature","geometry":{"type":"Point","coordinates":[-22.801,64.153]},"properties":{"ptf_id":1361195,"ptf_ref":"CXCXTGK","category":"soconet_moorings","ptf_model":"GENERIC_pCO2","country_name":"NORWAY","country_ship":null,"country_iso_reporting":"NO","country_sensor_provider":null}},{"type":"Feature","geometry":{"type":"Point","coordinates":[10.756,56.052]},"properties":{"ptf_id":1361196,"ptf_ref":"MQGEVER","category":"soconet_moorings","ptf_model":"GENERIC_pCO2","country_name":"NORWAY","country_ship":null,"country_iso_reporting":"NO","country_sensor_provider":null}},{"type":"Feature","geometry":{"type":"Point","coordinates":[-52.261,63.975]},"properties":{"ptf_id":1361197,"ptf_ref":"TJFZNEB","category":"soconet_moorings","ptf_model":"GENERIC_pCO2","country_name":"NORWAY","country_ship":null,"country_iso_reporting":"NO","country_sensor_provider":null}},{"type":"Feature","geometry":{"type":"Point","coordinates":[-22.881,64.129]},"properties":{"ptf_id":1361198,"ptf_ref":"ZME8SSV","category":"soconet_moorings","ptf_model":"GENERIC_pCO2","country_name":"NORWAY","country_ship":null,"country_iso_reporting":"NO","country_sensor_provider":null}},{"type":"Feature","geometry":{"type":"Point","coordinates":[12.33,56.192]},"properties":{"ptf_id":1361199,"ptf_ref":"DWWBVKQ","category":"soconet_moorings","ptf_model":"GENERIC_pCO2","country_name":"NORWAY","country_ship":null,"country_iso_reporting":"NO","country_sensor_provider":null}},{"type":"Feature","geometry":{"type":"Point","coordinates":[-22.868,64.15]},"properties":{"ptf_id":1361200,"ptf_ref":"SAYP6NE","category":"soconet_moorings","ptf_model":"GENERIC_pCO2","country_name":"NORWAY","country_ship":null,"country_iso_reporting":"NO","country_sensor_provider":null}},{"type":"Feature","geometry":{"type":"Point","coordinates":[-52.266,63.991]},"properties":{"ptf_id":1361201,"ptf_ref":"JJG4PBR","category":"soconet_moorings","ptf_model":"GENERIC_pCO2","country_name":"NORWAY","country_ship":null,"country_iso_reporting":"NO","country_sensor_provider":null}},{"type":"Feature","geometry":{"type":"Point","coordinates":[-22.887,64.129]},"properties":{"ptf_id":1361202,"ptf_ref":"RHHD6DE","category":"soconet_moorings","ptf_model":"GENERIC_pCO2","country_name":"NORWAY","country_ship":null,"country_iso_reporting":"NO","country_sensor_provider":null}},{"type":"Feature","geometry":{"type":"Point","coordinates":[10.605,56.065]},"properties":{"ptf_id":1361203,"ptf_ref":"FNMHJWD","category":"soconet_moorings","ptf_model":"GENERIC_pCO2","country_name":"NORWAY","country_ship":null,"country_iso_reporting":"NO","country_sensor_provider":null}},{"type":"Feature","geometry":{"type":"Point","coordinates":[-22.636,64.163]},"properties":{"ptf_id":1361204,"ptf_ref":"DCAEG3G","category":"soconet_moorings","ptf_model":"GENERIC_pCO2","country_name":"NORWAY","country_ship":null,"country_iso_reporting":"NO","country_sensor_provider":null}},{"type":"Feature","geometry":{"type":"Point","coordinates":[-52.11,64.069]},"properties":{"ptf_id":1361205,"ptf_ref":"UNSTW2Z","category":"soconet_moorings","ptf_model":"GENERIC_pCO2","country_name":"NORWAY","country_ship":null,"country_iso_reporting":"NO","country_sensor_provider":null}},{"type":"Feature","geometry":{"type":"Point","coordinates":[-22.686,64.156]},"properties":{"ptf_id":1361206,"ptf_ref":"THXT37E","category":"soconet_moorings","ptf_model":"GENERIC_pCO2","country_name":"NORWAY","country_ship":null,"country_iso_reporting":"NO","country_sensor_provider":null}},{"type":"Feature","geometry":{"type":"Point","coordinates":[10.57,56.071]},"properties":{"ptf_id":1361207,"ptf_ref":"CAHJMVX","category":"soconet_moorings","ptf_model":"GENERIC_pCO2","country_name":"NORWAY","country_ship":null,"country_iso_reporting":"NO","country_sensor_provider":null}},{"type":"Feature","geometry":{"type":"Point","coordinates":[-22.678,64.159]},"properties":{"ptf_id":1361208,"ptf_ref":"TGKBUJV","category":"soconet_moorings","ptf_model":"GENERIC_pCO2","country_name":"NORWAY","country_ship":null,"country_iso_reporting":"NO","country_sensor_provider":null}},{"type":"Feature","geometry":{"type":"Point","coordinates":[-52.136,64.062]},"properties":{"ptf_id":1361209,"ptf_ref":"2RP3S4Z","category":"soconet_moorings","ptf_model":"GENERIC_pCO2","country_name":"NORWAY","country_ship":null,"country_iso_reporting":"NO","country_sensor_provider":null}},{"type":"Feature","geometry":{"type":"Point","coordinates":[-22.633,64.16]},"properties":{"ptf_id":1361210,"ptf_ref":"MRYEJJN","category":"soconet_moorings","ptf_model":"GENERIC_pCO2","country_name":"NORWAY","country_ship":null,"country_iso_reporting":"NO","country_sensor_provider":null}},{"type":"Feature","geometry":{"type":"Point","coordinates":[-52.108,64.068]},"properties":{"ptf_id":1361211,"ptf_ref":"XLE775J","category":"soconet_moorings","ptf_model":"GENERIC_pCO2","country_name":"NORWAY","country_ship":null,"country_iso_reporting":"NO","country_sensor_provider":null}},{"type":"Feature","geometry":{"type":"Point","coordinates":[-6.787,61.919]},"properties":{"ptf_id":1361212,"ptf_ref":"TXY7NND","category":"soconet_moorings","ptf_model":"GENERIC_pCO2","country_name":"NORWAY","country_ship":null,"country_iso_reporting":"NO","country_sensor_provider":null}},{"type":"Feature","geometry":{"type":"Point","coordinates":[8.296,53.713]},"properties":{"ptf_id":1361213,"ptf_ref":"SYVZKAH","category":"soconet_moorings","ptf_model":"GENERIC_pCO2","country_name":"NORWAY","country_ship":null,"country_iso_reporting":"NO","country_sensor_provider":null}},{"type":"Feature","geometry":{"type":"Point","coordinates":[10.589,56.068]},"properties":{"ptf_id":1361214,"ptf_ref":"EBJFUVX","category":"soconet_moorings","ptf_model":"GENERIC_pCO2","country_name":"NORWAY","country_ship":null,"country_iso_reporting":"NO","country_sensor_provider":null}},{"type":"Feature","geometry":{"type":"Point","coordinates":[-52.096,64.071]},"properties":{"ptf_id":1361215,"ptf_ref":"3GVXCBN","category":"soconet_moorings","ptf_model":"GENERIC_pCO2","country_name":"NORWAY","country_ship":null,"country_iso_reporting":"NO","country_sensor_provider":null}},{"type":"Feature","geometry":{"type":"Point","coordinates":[-22.656,64.155]},"properties":{"ptf_id":1361216,"ptf_ref":"5FPK22M","category":"soconet_moorings","ptf_model":"GENERIC_pCO2","country_name":"NORWAY","country_ship":null,"country_iso_reporting":"NO","country_sensor_provider":null}},{"type":"Feature","geometry":{"type":"Point","coordinates":[10.608,56.066]},"properties":{"ptf_id":1361217,"ptf_ref":"ZFFE37R","category":"soconet_moorings","ptf_model":"GENERIC_pCO2","country_name":"NORWAY","country_ship":null,"country_iso_reporting":"NO","country_sensor_provider":null}},{"type":"Feature","geometry":{"type":"Point","coordinates":[-22.635,64.155]},"properties":{"ptf_id":1361218,"ptf_ref":"5PBEQWP","category":"soconet_moorings","ptf_model":"GENERIC_pCO2","country_name":"NORWAY","country_ship":null,"country_iso_reporting":"NO","country_sensor_provider":null}},{"type":"Feature","geometry":{"type":"Point","coordinates":[-52.129,64.065]},"properties":{"ptf_id":1361219,"ptf_ref":"JCNQ2EV","category":"soconet_moorings","ptf_model":"GENERIC_pCO2","country_name":"NORWAY","country_ship":null,"country_iso_reporting":"NO","country_sensor_provider":null}},{"type":"Feature","geometry":{"type":"Point","coordinates":[-22.796,64.403]},"properties":{"ptf_id":1361220,"ptf_ref":"ZVKNKPC","category":"soconet_moorings","ptf_model":"GENERIC_pCO2","country_name":"NORWAY","country_ship":null,"country_iso_reporting":"NO","country_sensor_provider":null}},{"type":"Feature","geometry":{"type":"Point","coordinates":[3.796,59.32]},"properties":{"ptf_id":1361221,"ptf_ref":"VBUS4PS","category":"soconet_moorings","ptf_model":"GENERIC_pCO2","country_name":"NORWAY","country_ship":null,"country_iso_reporting":"NO","country_sensor_provider":null}},{"type":"Feature","geometry":{"type":"Point","coordinates":[-2.903,36.285]},"properties":{"ptf_id":1361222,"ptf_ref":"SWWDY8A","category":"soconet_moorings","ptf_model":"GENERIC_pCO2","country_name":"SPAIN","country_ship":null,"country_iso_reporting":"ES","country_sensor_provider":null}},{"type":"Feature","geometry":{"type":"Point","coordinates":[-21.7766,64.3384]},"properties":{"ptf_id":1361223,"ptf_ref":"UHL6VWT","category":"soconet_moorings","ptf_model":"GENERIC_pCO2","country_name":"BELGIUM","country_ship":"BELGIUM","country_iso_reporting":"BE","country_sensor_provider":null}},{"type":"Feature","geometry":{"type":"Point","coordinates":[2.899,51.239]},"properties":{"ptf_id":1361224,"ptf_ref":"GCNYBRD","category":"soconet_moorings","ptf_model":"GENERIC_pCO2","country_name":"BELGIUM","country_ship":"BELGIUM","country_iso_reporting":"BE","country_sensor_provider":null}},{"type":"Feature","geometry":{"type":"Point","coordinates":[2.9,51.249]},"properties":{"ptf_id":1361225,"ptf_ref":"CQCWXYB","category":"soconet_moorings","ptf_model":"GENERIC_pCO2","country_name":"BELGIUM","country_ship":"BELGIUM","country_iso_reporting":"BE","country_sensor_provider":null}},{"type":"Feature","geometry":{"type":"Point","coordinates":[2.865,51.256]},"properties":{"ptf_id":1361226,"ptf_ref":"UHHGG5V","category":"soconet_moorings","ptf_model":"GENERIC_pCO2","country_name":"BELGIUM","country_ship":"BELGIUM","country_iso_reporting":"BE","country_sensor_provider":null}},{"type":"Feature","geometry":{"type":"Point","coordinates":[-122.5,33.5]},"properties":{"ptf_id":1117855,"ptf_ref":"4801002_007","category":"soconet_moorings","ptf_model":"Other Met Moored Buoy","country_name":"USA","country_ship":null,"country_iso_reporting":"US","country_sensor_provider":null}},{"type":"Feature","geometry":{"type":"Point","coordinates":[164.8,-8]},"properties":{"ptf_id":1131316,"ptf_ref":"5200007_035","category":"soconet_moorings","ptf_model":"TAO_REFRESH","country_name":"USA","country_ship":null,"country_iso_reporting":"US","country_sensor_provider":"USA"}},{"type":"Feature","geometry":{"type":"Point","coordinates":[148.35,-42.517]},"properties":{"ptf_id":1134277,"ptf_ref":"5500058","category":"soconet_moorings","ptf_model":"TRIAXYS","country_name":"AUSTRALIA","country_ship":null,"country_iso_reporting":"AU","country_sensor_provider":"AUSTRALIA"}},{"type":"Feature","geometry":{"type":"Point","coordinates":[-111.3,1]},"properties":{"ptf_id":1151424,"ptf_ref":"3200323_038","category":"soconet_moorings","ptf_model":"TAO_REFRESH","country_name":"USA","country_ship":null,"country_iso_reporting":"US","country_sensor_provider":"USA"}},{"type":"Feature","geometry":{"type":"Point","coordinates":[-169.7,0.1]},"properties":{"ptf_id":1154106,"ptf_ref":"5100010_042","category":"soconet_moorings","ptf_model":"TAO_REFRESH","country_name":"USA","country_ship":null,"country_iso_reporting":"US","country_sensor_provider":null}},{"type":"Feature","geometry":{"type":"Point","coordinates":[141.2561,-47.1695]},"properties":{"ptf_id":1155069,"ptf_ref":"5800450_013","category":"soconet_moorings","ptf_model":"Other Met Moored Buoy","country_name":"AUSTRALIA","country_ship":null,"country_iso_reporting":"AU","country_sensor_provider":"USA"}},{"type":"Feature","geometry":{"type":"Point","coordinates":[12.0487,-29.1762]},"properties":{"ptf_id":1360437,"ptf_ref":"YJBXRJM","category":"soconet_moorings","ptf_model":"GENERIC_pCO2","country_name":"GERMANY","country_ship":"GERMANY","country_iso_reporting":"DE","country_sensor_provider":null}},{"type":"Feature","geometry":{"type":"Point","coordinates":[136.4518,-35.8461]},"properties":{"ptf_id":1360949,"ptf_ref":"4TPC7RJ","category":"soconet_moorings","ptf_model":"Meteo mooring","country_name":"AUSTRALIA","country_ship":null,"country_iso_reporting":"AU","country_sensor_provider":null}},{"type":"Feature","geometry":{"type":"Point","coordinates":[147.4747,-43.1032]},"properties":{"ptf_id":1360950,"ptf_ref":"SBZ9WRY","category":"soconet_moorings","ptf_model":"GENERIC_pCO2","country_name":"AUSTRALIA","country_ship":"AUSTRALIA","country_iso_reporting":"AU","country_sensor_provider":null}},{"type":"Feature","geometry":{"type":"Point","coordinates":[151.5579,-33.6521]},"properties":{"ptf_id":1360951,"ptf_ref":"XWF64WM","category":"soconet_moorings","ptf_model":"GENERIC_pCO2","country_name":"AUSTRALIA","country_ship":"AUSTRALIA","country_iso_reporting":"AU","country_sensor_provider":null}},{"type":"Feature","geometry":{"type":"Point","coordinates":[147.4562,-43.1049]},"properties":{"ptf_id":1360952,"ptf_ref":"NMLHYSG","category":"soconet_moorings","ptf_model":"GENERIC_pCO2","country_name":"AUSTRALIA","country_ship":"AUSTRALIA","country_iso_reporting":"AU","country_sensor_provider":null}},{"type":"Feature","geometry":{"type":"Point","coordinates":[147.3767,-42.9644]},"properties":{"ptf_id":1360953,"ptf_ref":"4HFETPB","category":"soconet_moorings","ptf_model":"GENERIC_pCO2","country_name":"AUSTRALIA","country_ship":"AUSTRALIA","country_iso_reporting":"AU","country_sensor_provider":null}},{"type":"Feature","geometry":{"type":"Point","coordinates":[147.3815,-43.0111]},"properties":{"ptf_id":1360954,"ptf_ref":"YSXTTRC","category":"soconet_moorings","ptf_model":"GENERIC_pCO2","country_name":"AUSTRALIA","country_ship":"AUSTRALIA","country_iso_reporting":"AU","country_sensor_provider":null}},{"type":"Feature","geometry":{"type":"Point","coordinates":[147.397,-43.0652]},"properties":{"ptf_id":1360955,"ptf_ref":"LXUGPZQ","category":"soconet_moorings","ptf_model":"GENERIC_pCO2","country_name":"AUSTRALIA","country_ship":"AUSTRALIA","country_iso_reporting":"AU","country_sensor_provider":null}},{"type":"Feature","geometry":{"type":"Point","coordinates":[147.3976,-43.5394]},"properties":{"ptf_id":1360956,"ptf_ref":"JHKHZNG","category":"soconet_moorings","ptf_model":"GENERIC_pCO2","country_name":"AUSTRALIA","country_ship":"AUSTRALIA","country_iso_reporting":"AU","country_sensor_provider":null}},{"type":"Feature","geometry":{"type":"Point","coordinates":[147.7398,-43.255]},"properties":{"ptf_id":1360957,"ptf_ref":"QXPEU4L","category":"soconet_moorings","ptf_model":"GENERIC_pCO2","country_name":"AUSTRALIA","country_ship":"AUSTRALIA","country_iso_reporting":"AU","country_sensor_provider":null}},{"type":"Feature","geometry":{"type":"Point","coordinates":[147.4993,-43.4799]},"properties":{"ptf_id":1360958,"ptf_ref":"PDUWWMC","category":"soconet_moorings","ptf_model":"GENERIC_pCO2","country_name":"AUSTRALIA","country_ship":null,"country_iso_reporting":"AU","country_sensor_provider":null}},{"type":"Feature","geometry":{"type":"Point","coordinates":[146.9672,-45.6339]},"properties":{"ptf_id":1360959,"ptf_ref":"MMVA6EU","category":"soconet_moorings","ptf_model":"GENERIC_pCO2","country_name":"AUSTRALIA","country_ship":null,"country_iso_reporting":"AU","country_sensor_provider":null}},{"type":"Feature","geometry":{"type":"Point","coordinates":[-42.8685,-23.4857]},"properties":{"ptf_id":1360960,"ptf_ref":"GKKG2HN","category":"soconet_moorings","ptf_model":"GENERIC_pCO2","country_name":"BRAZIL","country_ship":"BRAZIL","country_iso_reporting":"BR","country_sensor_provider":null}},{"type":"Feature","geometry":{"type":"Point","coordinates":[-11.7899,54.2652]},"properties":{"ptf_id":1360961,"ptf_ref":"QKS5N8D","category":"soconet_moorings","ptf_model":"GENERIC_pCO2","country_name":"GERMANY","country_ship":"IRELAND","country_iso_reporting":"DE","country_sensor_provider":null}},{"type":"Feature","geometry":{"type":"Point","coordinates":[-7.5492,56.5938]},"properties":{"ptf_id":1360962,"ptf_ref":"TVXZQ5Q","category":"soconet_moorings","ptf_model":"GENERIC_pCO2","country_name":"GERMANY","country_ship":"IRELAND","country_iso_reporting":"DE","country_sensor_provider":null}},{"type":"Feature","geometry":{"type":"Point","coordinates":[-6.6999,36.3906]},"properties":{"ptf_id":1360963,"ptf_ref":"PCVQS5M","category":"soconet_moorings","ptf_model":"GENERIC_pCO2","country_name":"GERMANY","country_ship":"IRELAND","country_iso_reporting":"DE","country_sensor_provider":null}},{"type":"Feature","geometry":{"type":"Point","coordinates":[-6.1109,52.5588]},"properties":{"ptf_id":1360964,"ptf_ref":"JDR6NSJ","category":"soconet_moorings","ptf_model":"GENERIC_pCO2","country_name":"GERMANY","country_ship":"IRELAND","country_iso_reporting":"DE","country_sensor_provider":null}},{"type":"Feature","geometry":{"type":"Point","coordinates":[10.615,56.063]},"properties":{"ptf_id":1360965,"ptf_ref":"KCGKJ4B","category":"soconet_moorings","ptf_model":"GENERIC_pCO2","country_name":"NORWAY","country_ship":null,"country_iso_reporting":"NO","country_sensor_provider":null}},{"type":"Feature","geometry":{"type":"Point","coordinates":[-125.222,50.116]},"properties":{"ptf_id":1360966,"ptf_ref":"CBPYCSY","category":"soconet_moorings","ptf_model":"Meteo mooring","country_name":"USA","country_ship":null,"country_iso_reporting":"US","country_sensor_provider":null}},{"type":"Feature","geometry":{"type":"Point","coordinates":[-125.222,50.116]},"properties":{"ptf_id":1360967,"ptf_ref":"7HTFGQR","category":"soconet_moorings","ptf_model":"Meteo mooring","country_name":"USA","country_ship":null,"country_iso_reporting":"US","country_sensor_provider":null}},{"type":"Feature","geometry":{"type":"Point","coordinates":[-127.971,51.651]},"properties":{"ptf_id":1360968,"ptf_ref":"JXXL64B","category":"soconet_moorings","ptf_model":"Meteo mooring","country_name":"USA","country_ship":null,"country_iso_reporting":"US","country_sensor_provider":null}},{"type":"Feature","geometry":{"type":"Point","coordinates":[-127.97,51.651]},"properties":{"ptf_id":1360969,"ptf_ref":"7DQCHFD","category":"soconet_moorings","ptf_model":"Meteo mooring","country_name":"USA","country_ship":null,"country_iso_reporting":"US","country_sensor_provider":null}},{"type":"Feature","geometry":{"type":"Point","coordinates":[-124.899,50.597]},"properties":{"ptf_id":1360970,"ptf_ref":"UNWZX4P","category":"soconet_moorings","ptf_model":"Meteo mooring","country_name":"USA","country_ship":null,"country_iso_reporting":"US","country_sensor_provider":null}},{"type":"Feature","geometry":{"type":"Point","coordinates":[-55.9181,-39.8922]},"properties":{"ptf_id":1360971,"ptf_ref":"XSUKY7C","category":"soconet_moorings","ptf_model":"GENERIC_pCO2","country_name":"ARGENTINA","country_ship":"ARGENTINA","country_iso_reporting":"AR","country_sensor_provider":null}},{"type":"Feature","geometry":{"type":"Point","coordinates":[-57.4209,-38.1451]},"properties":{"ptf_id":1360972,"ptf_ref":"UQX3ZYN","category":"soconet_moorings","ptf_model":"GENERIC_pCO2","country_name":"ARGENTINA","country_ship":"ARGENTINA","country_iso_reporting":"AR","country_sensor_provider":null}},{"type":"Feature","geometry":{"type":"Point","coordinates":[-57.5458,-38.3857]},"properties":{"ptf_id":1360973,"ptf_ref":"RTDBN2R","category":"soconet_moorings","ptf_model":"GENERIC_pCO2","country_name":"ARGENTINA","country_ship":"ARGENTINA","country_iso_reporting":"AR","country_sensor_provider":null}},{"type":"Feature","geometry":{"type":"Point","coordinates":[-57.3831,-37.9389]},"properties":{"ptf_id":1360974,"ptf_ref":"UVFM2VE","category":"soconet_moorings","ptf_model":"GENERIC_pCO2","country_name":"ARGENTINA","country_ship":"ARGENTINA","country_iso_reporting":"AR","country_sensor_provider":null}},{"type":"Feature","geometry":{"type":"Point","coordinates":[-57.4819,-38.1904]},"properties":{"ptf_id":1360975,"ptf_ref":"BTLCA8N","category":"soconet_moorings","ptf_model":"GENERIC_pCO2","country_name":"ARGENTINA","country_ship":"ARGENTINA","country_iso_reporting":"AR","country_sensor_provider":null}},{"type":"Feature","geometry":{"type":"Point","coordinates":[-57.6962,-38.5853]},"properties":{"ptf_id":1360976,"ptf_ref":"SSS952L","category":"soconet_moorings","ptf_model":"GENERIC_pCO2","country_name":"ARGENTINA","country_ship":"ARGENTINA","country_iso_reporting":"AR","country_sensor_provider":null}},{"type":"Feature","geometry":{"type":"Point","coordinates":[-57.6768,-38.3925]},"properties":{"ptf_id":1360977,"ptf_ref":"MURRQHL","category":"soconet_moorings","ptf_model":"GENERIC_pCO2","country_name":"ARGENTINA","country_ship":"ARGENTINA","country_iso_reporting":"AR","country_sensor_provider":null}},{"type":"Feature","geometry":{"type":"Point","coordinates":[24.383,59.816]},"properties":{"ptf_id":1360978,"ptf_ref":"UMNJTFW","category":"soconet_moorings","ptf_model":"GENERIC_pCO2","country_name":"GERMANY","country_ship":null,"country_iso_reporting":"DE","country_sensor_provider":null}},{"type":"Feature","geometry":{"type":"Point","coordinates":[11.596,54.23]},"properties":{"ptf_id":1360979,"ptf_ref":"RRFDU6B","category":"soconet_moorings","ptf_model":"GENERIC_pCO2","country_name":"GERMANY","country_ship":null,"country_iso_reporting":"DE","country_sensor_provider":null}},{"type":"Feature","geometry":{"type":"Point","coordinates":[24.368,59.831]},"properties":{"ptf_id":1360980,"ptf_ref":"MDNNTLU","category":"soconet_moorings","ptf_model":"GENERIC_pCO2","country_name":"GERMANY","country_ship":null,"country_iso_reporting":"DE","country_sensor_provider":null}},{"type":"Feature","geometry":{"type":"Point","coordinates":[11.582,54.228]},"properties":{"ptf_id":1360981,"ptf_ref":"HSRU3QY","category":"soconet_moorings","ptf_model":"GENERIC_pCO2","country_name":"GERMANY","country_ship":null,"country_iso_reporting":"DE","country_sensor_provider":null}},{"type":"Feature","geometry":{"type":"Point","coordinates":[24.202,59.796]},"properties":{"ptf_id":1360982,"ptf_ref":"QXSZSYN","category":"soconet_moorings","ptf_model":"GENERIC_pCO2","country_name":"GERMANY","country_ship":null,"country_iso_reporting":"DE","country_sensor_provider":null}},{"type":"Feature","geometry":{"type":"Point","coordinates":[23.424,59.636]},"properties":{"ptf_id":1360983,"ptf_ref":"ABQT84Y","category":"soconet_moorings","ptf_model":"GENERIC_pCO2","country_name":"GERMANY","country_ship":null,"country_iso_reporting":"DE","country_sensor_provider":null}},{"type":"Feature","geometry":{"type":"Point","coordinates":[24.37,59.785]},"properties":{"ptf_id":1360984,"ptf_ref":"FUJZLJV","category":"soconet_moorings","ptf_model":"GENERIC_pCO2","country_name":"GERMANY","country_ship":null,"country_iso_reporting":"DE","country_sensor_provider":null}},{"type":"Feature","geometry":{"type":"Point","coordinates":[11.584,54.23]},"properties":{"ptf_id":1360985,"ptf_ref":"ZAVCWAH","category":"soconet_moorings","ptf_model":"GENERIC_pCO2","country_name":"GERMANY","country_ship":null,"country_iso_reporting":"DE","country_sensor_provider":null}},{"type":"Feature","geometry":{"type":"Point","coordinates":[11.589,54.231]},"properties":{"ptf_id":1360986,"ptf_ref":"3AQ67CP","category":"soconet_moorings","ptf_model":"GENERIC_pCO2","country_name":"GERMANY","country_ship":null,"country_iso_reporting":"DE","country_sensor_provider":null}},{"type":"Feature","geometry":{"type":"Point","coordinates":[24.364,59.776]},"properties":{"ptf_id":1360987,"ptf_ref":"KPCSSSS","category":"soconet_moorings","ptf_model":"GENERIC_pCO2","country_name":"GERMANY","country_ship":null,"country_iso_reporting":"DE","country_sensor_provider":null}},{"type":"Feature","geometry":{"type":"Point","coordinates":[55.0492,-21.5481]},"properties":{"ptf_id":1360988,"ptf_ref":"PNK6C5D","category":"soconet_moorings","ptf_model":"GENERIC_pCO2","country_name":"FRANCE","country_ship":"FRANCE","country_iso_reporting":"FR","country_sensor_provider":null}},{"type":"Feature","geometry":{"type":"Point","coordinates":[3.302,51.408]},"properties":{"ptf_id":1360989,"ptf_ref":"EVFZS4V","category":"soconet_moorings","ptf_model":"GENERIC_pCO2","country_name":"FRANCE","country_ship":null,"country_iso_reporting":"FR","country_sensor_provider":null}},{"type":"Feature","geometry":{"type":"Point","coordinates":[2.764,51.401]},"properties":{"ptf_id":1360990,"ptf_ref":"UQU5DSH","category":"soconet_moorings","ptf_model":"GENERIC_pCO2","country_name":"FRANCE","country_ship":null,"country_iso_reporting":"FR","country_sensor_provider":null}},{"type":"Feature","geometry":{"type":"Point","coordinates":[-21.821,14.625]},"properties":{"ptf_id":1360991,"ptf_ref":"LTX276Z","category":"soconet_moorings","ptf_model":"GENERIC_pCO2","country_name":"FRANCE","country_ship":null,"country_iso_reporting":"FR","country_sensor_provider":null}},{"type":"Feature","geometry":{"type":"Point","coordinates":[-7.5713,67.768]},"properties":{"ptf_id":1360992,"ptf_ref":"VWGURZW","category":"soconet_moorings","ptf_model":"GENERIC_pCO2","country_name":"ICELAND","country_ship":"ICELAND","country_iso_reporting":"IS","country_sensor_provider":null}},{"type":"Feature","geometry":{"type":"Point","coordinates":[-24.2995,64.7013]},"properties":{"ptf_id":1360993,"ptf_ref":"UUG7K8Y","category":"soconet_moorings","ptf_model":"GENERIC_pCO2","country_name":"ICELAND","country_ship":"ICELAND","country_iso_reporting":"IS","country_sensor_provider":null}},{"type":"Feature","geometry":{"type":"Point","coordinates":[-22.542,64.1878]},"properties":{"ptf_id":1360994,"ptf_ref":"8BSPTYQ","category":"soconet_moorings","ptf_model":"GENERIC_pCO2","country_name":"ICELAND","country_ship":"ICELAND","country_iso_reporting":"IS","country_sensor_provider":null}},{"type":"Feature","geometry":{"type":"Point","coordinates":[137.7368,34.4837]},"properties":{"ptf_id":1360995,"ptf_ref":"ZPZUKLT","category":"soconet_moorings","ptf_model":"GENERIC_pCO2","country_name":"JAPAN","country_ship":null,"country_iso_reporting":"JP","country_sensor_provider":null}},{"type":"Feature","geometry":{"type":"Point","coordinates":[172.9282,-39.1208]},"properties":{"ptf_id":1360996,"ptf_ref":"VXGFT8F","category":"soconet_moorings","ptf_model":"GENERIC_pCO2","country_name":"JAPAN","country_ship":null,"country_iso_reporting":"JP","country_sensor_provider":null}},{"type":"Feature","geometry":{"type":"Point","coordinates":[136.8525,35.0447]},"properties":{"ptf_id":1360997,"ptf_ref":"CLTVDRB","category":"soconet_moorings","ptf_model":"GENERIC_pCO2","country_name":"JAPAN","country_ship":null,"country_iso_reporting":"JP","country_sensor_provider":null}},{"type":"Feature","geometry":{"type":"Point","coordinates":[171.7183,-38.05]},"properties":{"ptf_id":1360998,"ptf_ref":"2DXCX8N","category":"soconet_moorings","ptf_model":"GENERIC_pCO2","country_name":"JAPAN","country_ship":null,"country_iso_reporting":"JP","country_sensor_provider":null}},{"type":"Feature","geometry":{"type":"Point","coordinates":[137.3013,34.7194]},"properties":{"ptf_id":1360999,"ptf_ref":"3KZ333S","category":"soconet_moorings","ptf_model":"GENERIC_pCO2","country_name":"JAPAN","country_ship":null,"country_iso_reporting":"JP","country_sensor_provider":null}},{"type":"Feature","geometry":{"type":"Point","coordinates":[-118.219,33.7735]},"properties":{"ptf_id":1361000,"ptf_ref":"PSKGWQP","category":"soconet_moorings","ptf_model":"GENERIC_pCO2","country_name":"JAPAN","country_ship":null,"country_iso_reporting":"JP","country_sensor_provider":null}},{"type":"Feature","geometry":{"type":"Point","coordinates":[137.3013,34.7193]},"properties":{"ptf_id":1361001,"ptf_ref":"XEBW22U","category":"soconet_moorings","ptf_model":"GENERIC_pCO2","country_name":"JAPAN","country_ship":null,"country_iso_reporting":"JP","country_sensor_provider":null}},{"type":"Feature","geometry":{"type":"Point","coordinates":[-118.219,33.7735]},"properties":{"ptf_id":1361002,"ptf_ref":"9QU9GWQ","category":"soconet_moorings","ptf_model":"GENERIC_pCO2","country_name":"JAPAN","country_ship":null,"country_iso_reporting":"JP","country_sensor_provider":null}},{"type":"Feature","geometry":{"type":"Point","coordinates":[137.3012,34.722]},"properties":{"ptf_id":1361003,"ptf_ref":"SSJNYEQ","category":"soconet_moorings","ptf_model":"GENERIC_pCO2","country_name":"JAPAN","country_ship":null,"country_iso_reporting":"JP","country_sensor_provider":null}},{"type":"Feature","geometry":{"type":"Point","coordinates":[-122.9211,49.1864]},"properties":{"ptf_id":1361004,"ptf_ref":"HSKZKMC","category":"soconet_moorings","ptf_model":"GENERIC_pCO2","country_name":"JAPAN","country_ship":null,"country_iso_reporting":"JP","country_sensor_provider":null}},{"type":"Feature","geometry":{"type":"Point","coordinates":[137.3013,34.7244]},"properties":{"ptf_id":1361005,"ptf_ref":"WYVWXTS","category":"soconet_moorings","ptf_model":"GENERIC_pCO2","country_name":"JAPAN","country_ship":null,"country_iso_reporting":"JP","country_sensor_provider":null}},{"type":"Feature","geometry":{"type":"Point","coordinates":[-74.1346,40.6905]},"properties":{"ptf_id":1361006,"ptf_ref":"WJLMYGC","category":"soconet_moorings","ptf_model":"GENERIC_pCO2","country_name":"JAPAN","country_ship":null,"country_iso_reporting":"JP","country_sensor_provider":null}},{"type":"Feature","geometry":{"type":"Point","coordinates":[139.5092,34.2704]},"properties":{"ptf_id":1361007,"ptf_ref":"YWYZJVG","category":"soconet_moorings","ptf_model":"GENERIC_pCO2","country_name":"JAPAN","country_ship":null,"country_iso_reporting":"JP","country_sensor_provider":null}},{"type":"Feature","geometry":{"type":"Point","coordinates":[-122.1358,38.0409]},"properties":{"ptf_id":1361008,"ptf_ref":"YHJQ9MN","category":"soconet_moorings","ptf_model":"GENERIC_pCO2","country_name":"JAPAN","country_ship":null,"country_iso_reporting":"JP","country_sensor_provider":null}},{"type":"Feature","geometry":{"type":"Point","coordinates":[138.1568,34.2831]},"properties":{"ptf_id":1361009,"ptf_ref":"6SMTDUP","category":"soconet_moorings","ptf_model":"GENERIC_pCO2","country_name":"JAPAN","country_ship":null,"country_iso_reporting":"JP","country_sensor_provider":null}},{"type":"Feature","geometry":{"type":"Point","coordinates":[-74.1346,40.6905]},"properties":{"ptf_id":1361010,"ptf_ref":"YRVM2GE","category":"soconet_moorings","ptf_model":"GENERIC_pCO2","country_name":"JAPAN","country_ship":null,"country_iso_reporting":"JP","country_sensor_provider":null}},{"type":"Feature","geometry":{"type":"Point","coordinates":[139.6884,35.4606]},"properties":{"ptf_id":1361011,"ptf_ref":"2PKZXLP","category":"soconet_moorings","ptf_model":"GENERIC_pCO2","country_name":"JAPAN","country_ship":null,"country_iso_reporting":"JP","country_sensor_provider":null}},{"type":"Feature","geometry":{"type":"Point","coordinates":[153.1629,-27.3816]},"properties":{"ptf_id":1361012,"ptf_ref":"PTPT6FR","category":"soconet_moorings","ptf_model":"GENERIC_pCO2","country_name":"JAPAN","country_ship":null,"country_iso_reporting":"JP","country_sensor_provider":null}},{"type":"Feature","geometry":{"type":"Point","coordinates":[173.2738,-41.2598]},"properties":{"ptf_id":1361013,"ptf_ref":"4CPR3TB","category":"soconet_moorings","ptf_model":"GENERIC_pCO2","country_name":"JAPAN","country_ship":null,"country_iso_reporting":"JP","country_sensor_provider":null}},{"type":"Feature","geometry":{"type":"Point","coordinates":[139.6884,35.4606]},"properties":{"ptf_id":1361014,"ptf_ref":"TNHXM2F","category":"soconet_moorings","ptf_model":"GENERIC_pCO2","country_name":"JAPAN","country_ship":null,"country_iso_reporting":"JP","country_sensor_provider":null}},{"type":"Feature","geometry":{"type":"Point","coordinates":[153.1676,-27.3764]},"properties":{"ptf_id":1361015,"ptf_ref":"HQT45SC","category":"soconet_moorings","ptf_model":"GENERIC_pCO2","country_name":"JAPAN","country_ship":null,"country_iso_reporting":"JP","country_sensor_provider":null}},{"type":"Feature","geometry":{"type":"Point","coordinates":[173.2738,-41.2598]},"properties":{"ptf_id":1361016,"ptf_ref":"4YX2Q8U","category":"soconet_moorings","ptf_model":"GENERIC_pCO2","country_name":"JAPAN","country_ship":null,"country_iso_reporting":"JP","country_sensor_provider":null}},{"type":"Feature","geometry":{"type":"Point","coordinates":[139.6884,35.4606]},"properties":{"ptf_id":1361017,"ptf_ref":"MSEWYYB","category":"soconet_moorings","ptf_model":"GENERIC_pCO2","country_name":"JAPAN","country_ship":null,"country_iso_reporting":"JP","country_sensor_provider":null}},{"type":"Feature","geometry":{"type":"Point","coordinates":[153.1648,-27.3796]},"properties":{"ptf_id":1361018,"ptf_ref":"CTWMHKV","category":"soconet_moorings","ptf_model":"GENERIC_pCO2","country_name":"JAPAN","country_ship":null,"country_iso_reporting":"JP","country_sensor_provider":null}},{"type":"Feature","geometry":{"type":"Point","coordinates":[173.2738,-41.2598]},"properties":{"ptf_id":1361019,"ptf_ref":"PXYHKLH","category":"soconet_moorings","ptf_model":"GENERIC_pCO2","country_name":"JAPAN","country_ship":null,"country_iso_reporting":"JP","country_sensor_provider":null}},{"type":"Feature","geometry":{"type":"Point","coordinates":[139.6835,35.4694]},"properties":{"ptf_id":1361020,"ptf_ref":"2KY7F9D","category":"soconet_moorings","ptf_model":"GENERIC_pCO2","country_name":"JAPAN","country_ship":null,"country_iso_reporting":"JP","country_sensor_provider":null}},{"type":"Feature","geometry":{"type":"Point","coordinates":[153.1648,-27.3796]},"properties":{"ptf_id":1361021,"ptf_ref":"7NUTXRS","category":"soconet_moorings","ptf_model":"GENERIC_pCO2","country_name":"JAPAN","country_ship":null,"country_iso_reporting":"JP","country_sensor_provider":null}},{"type":"Feature","geometry":{"type":"Point","coordinates":[19.6271,69.8335]},"properties":{"ptf_id":1361076,"ptf_ref":"NNT7PZX","category":"soconet_moorings","ptf_model":"GENERIC_pCO2","country_name":"USA","country_ship":null,"country_iso_reporting":"US","country_sensor_provider":null}},{"type":"Feature","geometry":{"type":"Point","coordinates":[25.1074,70.0885]},"properties":{"ptf_id":1361077,"ptf_ref":"8MNMUEX","category":"soconet_moorings","ptf_model":"GENERIC_pCO2","country_name":"USA","country_ship":null,"country_iso_reporting":"US","country_sensor_provider":null}},{"type":"Feature","geometry":{"type":"Point","coordinates":[16.8474,68.433]},"properties":{"ptf_id":1361078,"ptf_ref":"ESJHF7G","category":"soconet_moorings","ptf_model":"GENERIC_pCO2","country_name":"USA","country_ship":null,"country_iso_reporting":"US","country_sensor_provider":null}},{"type":"Feature","geometry":{"type":"Point","coordinates":[-64.0706,48.8928]},"properties":{"ptf_id":1361079,"ptf_ref":"6BBZ8GR","category":"soconet_moorings","ptf_model":"GENERIC_pCO2","country_name":"USA","country_ship":null,"country_iso_reporting":"US","country_sensor_provider":null}},{"type":"Feature","geometry":{"type":"Point","coordinates":[-65.635,50.0215]},"properties":{"ptf_id":1361080,"ptf_ref":"2QLZBPE","category":"soconet_moorings","ptf_model":"GENERIC_pCO2","country_name":"USA","country_ship":null,"country_iso_reporting":"US","country_sensor_provider":null}},{"type":"Feature","geometry":{"type":"Point","coordinates":[-71.2189,46.7955]},"properties":{"ptf_id":1361081,"ptf_ref":"2UHM5UY","category":"soconet_moorings","ptf_model":"GENERIC_pCO2","country_name":"USA","country_ship":null,"country_iso_reporting":"US","country_sensor_provider":null}},{"type":"Feature","geometry":{"type":"Point","coordinates":[-71.2189,46.7955]},"properties":{"ptf_id":1361082,"ptf_ref":"GQPW4AF","category":"soconet_moorings","ptf_model":"GENERIC_pCO2","country_name":"USA","country_ship":null,"country_iso_reporting":"US","country_sensor_provider":null}},{"type":"Feature","geometry":{"type":"Point","coordinates":[-56.1539,46.7939]},"properties":{"ptf_id":1361083,"ptf_ref":"AFFRYWP","category":"soconet_moorings","ptf_model":"GENERIC_pCO2","country_name":"USA","country_ship":null,"country_iso_reporting":"US","country_sensor_provider":null}},{"type":"Feature","geometry":{"type":"Point","coordinates":[-22.2635,64.2715]},"properties":{"ptf_id":1361084,"ptf_ref":"WVHC4LV","category":"soconet_moorings","ptf_model":"GENERIC_pCO2","country_name":"USA","country_ship":null,"country_iso_reporting":"US","country_sensor_provider":null}},{"type":"Feature","geometry":{"type":"Point","coordinates":[-22.2443,64.2461]},"properties":{"ptf_id":1361085,"ptf_ref":"NKSYJ8V","category":"soconet_moorings","ptf_model":"GENERIC_pCO2","country_name":"USA","country_ship":null,"country_iso_reporting":"US","country_sensor_provider":null}},{"type":"Feature","geometry":{"type":"Point","coordinates":[-22.245,64.274]},"properties":{"ptf_id":1361086,"ptf_ref":"PDBEYGS","category":"soconet_moorings","ptf_model":"GENERIC_pCO2","country_name":"USA","country_ship":null,"country_iso_reporting":"US","country_sensor_provider":null}},{"type":"Feature","geometry":{"type":"Point","coordinates":[-22.2737,64.2804]},"properties":{"ptf_id":1361087,"ptf_ref":"7GXUBPW","category":"soconet_moorings","ptf_model":"GENERIC_pCO2","country_name":"USA","country_ship":null,"country_iso_reporting":"US","country_sensor_provider":null}},{"type":"Feature","geometry":{"type":"Point","coordinates":[-22.2706,64.2813]},"properties":{"ptf_id":1361088,"ptf_ref":"RYLBFAM","category":"soconet_moorings","ptf_model":"GENERIC_pCO2","country_name":"USA","country_ship":null,"country_iso_reporting":"US","country_sensor_provider":null}},{"type":"Feature","geometry":{"type":"Point","coordinates":[15.6209,78.2325]},"properties":{"ptf_id":1361089,"ptf_ref":"LSCTTYH","category":"soconet_moorings","ptf_model":"GENERIC_pCO2","country_name":"USA","country_ship":null,"country_iso_reporting":"US","country_sensor_provider":null}},{"type":"Feature","geometry":{"type":"Point","coordinates":[15.619,78.2333]},"properties":{"ptf_id":1361090,"ptf_ref":"MKGSSKD","category":"soconet_moorings","ptf_model":"GENERIC_pCO2","country_name":"USA","country_ship":null,"country_iso_reporting":"US","country_sensor_provider":null}},{"type":"Feature","geometry":{"type":"Point","coordinates":[15.1658,78.262]},"properties":{"ptf_id":1361091,"ptf_ref":"8LFX5KT","category":"soconet_moorings","ptf_model":"GENERIC_pCO2","country_name":"USA","country_ship":null,"country_iso_reporting":"US","country_sensor_provider":null}},{"type":"Feature","geometry":{"type":"Point","coordinates":[15.6217,78.2366]},"properties":{"ptf_id":1361092,"ptf_ref":"FVELVFN","category":"soconet_moorings","ptf_model":"GENERIC_pCO2","country_name":"USA","country_ship":null,"country_iso_reporting":"US","country_sensor_provider":null}},{"type":"Feature","geometry":{"type":"Point","coordinates":[-67.7135,-54.8997]},"properties":{"ptf_id":1361093,"ptf_ref":"6CE3P9A","category":"soconet_moorings","ptf_model":"GENERIC_pCO2","country_name":"USA","country_ship":null,"country_iso_reporting":"US","country_sensor_provider":null}},{"type":"Feature","geometry":{"type":"Point","coordinates":[-68.2953,-54.8112]},"properties":{"ptf_id":1361094,"ptf_ref":"GXSL5ZM","category":"soconet_moorings","ptf_model":"GENERIC_pCO2","country_name":"USA","country_ship":null,"country_iso_reporting":"US","country_sensor_provider":null}},{"type":"Feature","geometry":{"type":"Point","coordinates":[-166.5852,54.5321]},"properties":{"ptf_id":1361095,"ptf_ref":"8HVJ52J","category":"soconet_moorings","ptf_model":"GENERIC_pCO2","country_name":"USA","country_ship":null,"country_iso_reporting":"US","country_sensor_provider":null}},{"type":"Feature","geometry":{"type":"Point","coordinates":[-155.4461,54.8501]},"properties":{"ptf_id":1361096,"ptf_ref":"VUH8JDV","category":"soconet_moorings","ptf_model":"GENERIC_pCO2","country_name":"USA","country_ship":null,"country_iso_reporting":"US","country_sensor_provider":null}},{"type":"Feature","geometry":{"type":"Point","coordinates":[-165.1106,54.3317]},"properties":{"ptf_id":1361097,"ptf_ref":"HRQ5PUT","category":"soconet_moorings","ptf_model":"GENERIC_pCO2","country_name":"USA","country_ship":null,"country_iso_reporting":"US","country_sensor_provider":null}},{"type":"Feature","geometry":{"type":"Point","coordinates":[-174.7605,-47.6353]},"properties":{"ptf_id":1361098,"ptf_ref":"5YQWNSQ","category":"soconet_moorings","ptf_model":"GENERIC_pCO2","country_name":"USA","country_ship":"USA","country_iso_reporting":"US","country_sensor_provider":null}},{"type":"Feature","geometry":{"type":"Point","coordinates":[173.7127,-54.6862]},"properties":{"ptf_id":1361099,"ptf_ref":"URWEM7M","category":"soconet_moorings","ptf_model":"GENERIC_pCO2","country_name":"USA","country_ship":"USA","country_iso_reporting":"US","country_sensor_provider":null}},{"type":"Feature","geometry":{"type":"Point","coordinates":[-175.7547,-49.688]},"properties":{"ptf_id":1361100,"ptf_ref":"4NBQDNL","category":"soconet_moorings","ptf_model":"GENERIC_pCO2","country_name":"USA","country_ship":"USA","country_iso_reporting":"US","country_sensor_provider":null}},{"type":"Feature","geometry":{"type":"Point","coordinates":[-157.7463,21.154]},"properties":{"ptf_id":1361101,"ptf_ref":"UFSF54P","category":"soconet_moorings","ptf_model":"GENERIC_pCO2","country_name":"USA","country_ship":"USA","country_iso_reporting":"US","country_sensor_provider":null}},{"type":"Feature","geometry":{"type":"Point","coordinates":[-158.247,21.9084]},"properties":{"ptf_id":1361102,"ptf_ref":"KRDTWZN","category":"soconet_moorings","ptf_model":"GENERIC_pCO2","country_name":"USA","country_ship":"USA","country_iso_reporting":"US","country_sensor_provider":null}},{"type":"Feature","geometry":{"type":"Point","coordinates":[-157.928,21.2469]},"properties":{"ptf_id":1361103,"ptf_ref":"HZYQKFA","category":"soconet_moorings","ptf_model":"GENERIC_pCO2","country_name":"USA","country_ship":"USA","country_iso_reporting":"US","country_sensor_provider":null}},{"type":"Feature","geometry":{"type":"Point","coordinates":[-149.3575,60.0188]},"properties":{"ptf_id":1361104,"ptf_ref":"YTT5GGW","category":"soconet_moorings","ptf_model":"GENERIC_pCO2","country_name":"USA","country_ship":"USA","country_iso_reporting":"US","country_sensor_provider":null}},{"type":"Feature","geometry":{"type":"Point","coordinates":[-147.003,59.5785]},"properties":{"ptf_id":1361105,"ptf_ref":"PKEE8LQ","category":"soconet_moorings","ptf_model":"GENERIC_pCO2","country_name":"USA","country_ship":"USA","country_iso_reporting":"US","country_sensor_provider":null}},{"type":"Feature","geometry":{"type":"Point","coordinates":[-149.3589,60.02]},"properties":{"ptf_id":1361106,"ptf_ref":"VHBTJMZ","category":"soconet_moorings","ptf_model":"GENERIC_pCO2","country_name":"USA","country_ship":"USA","country_iso_reporting":"US","country_sensor_provider":null}},{"type":"Feature","geometry":{"type":"Point","coordinates":[-167.828,65.1257]},"properties":{"ptf_id":1361107,"ptf_ref":"YFVPBNJ","category":"soconet_moorings","ptf_model":"GENERIC_pCO2","country_name":"USA","country_ship":"USA","country_iso_reporting":"US","country_sensor_provider":null}},{"type":"Feature","geometry":{"type":"Point","coordinates":[-165.7991,64.0799]},"properties":{"ptf_id":1361108,"ptf_ref":"8XLCHEG","category":"soconet_moorings","ptf_model":"GENERIC_pCO2","country_name":"USA","country_ship":"USA","country_iso_reporting":"US","country_sensor_provider":null}},{"type":"Feature","geometry":{"type":"Point","coordinates":[-149.4102,60.0986]},"properties":{"ptf_id":1361109,"ptf_ref":"HHK3RLX","category":"soconet_moorings","ptf_model":"GENERIC_pCO2","country_name":"USA","country_ship":"USA","country_iso_reporting":"US","country_sensor_provider":null}},{"type":"Feature","geometry":{"type":"Point","coordinates":[-157.4987,20.7018]},"properties":{"ptf_id":1361110,"ptf_ref":"SCTM6KN","category":"soconet_moorings","ptf_model":"GENERIC_pCO2","country_name":"USA","country_ship":"USA","country_iso_reporting":"US","country_sensor_provider":null}},{"type":"Feature","geometry":{"type":"Point","coordinates":[-139.7127,-28.9403]},"properties":{"ptf_id":1361111,"ptf_ref":"5VQPEKP","category":"soconet_moorings","ptf_model":"GENERIC_pCO2","country_name":"USA","country_ship":"USA","country_iso_reporting":"US","country_sensor_provider":null}},{"type":"Feature","geometry":{"type":"Point","coordinates":[89.046,15.036]},"properties":{"ptf_id":1361112,"ptf_ref":"4FUPH9N","category":"soconet_moorings","ptf_model":"Meteo mooring","country_name":"USA","country_ship":null,"country_iso_reporting":"US","country_sensor_provider":null}},{"type":"Feature","geometry":{"type":"Point","coordinates":[-124.53,43.299]},"properties":{"ptf_id":1361113,"ptf_ref":"6CTUDNR","category":"soconet_moorings","ptf_model":"Meteo mooring","country_name":"USA","country_ship":null,"country_iso_reporting":"US","country_sensor_provider":null}},{"type":"Feature","geometry":{"type":"Point","coordinates":[-124.534,43.299]},"properties":{"ptf_id":1361114,"ptf_ref":"GSMRJHH","category":"soconet_moorings","ptf_model":"Meteo mooring","country_name":"USA","country_ship":null,"country_iso_reporting":"US","country_sensor_provider":null}},{"type":"Feature","geometry":{"type":"Point","coordinates":[-80.618,24.898]},"properties":{"ptf_id":1361115,"ptf_ref":"XTQ8EBT","category":"soconet_moorings","ptf_model":"Meteo mooring","country_name":"USA","country_ship":null,"country_iso_reporting":"US","country_sensor_provider":null}},{"type":"Feature","geometry":{"type":"Point","coordinates":[-80.618,24.898]},"properties":{"ptf_id":1361116,"ptf_ref":"FMU7XDQ","category":"soconet_moorings","ptf_model":"Meteo mooring","country_name":"USA","country_ship":null,"country_iso_reporting":"US","country_sensor_provider":null}},{"type":"Feature","geometry":{"type":"Point","coordinates":[-141.8782,-22.4552]},"properties":{"ptf_id":1361156,"ptf_ref":"BJQS78F","category":"soconet_moorings","ptf_model":"GENERIC_pCO2","country_name":"USA","country_ship":null,"country_iso_reporting":"US","country_sensor_provider":null}},{"type":"Feature","geometry":{"type":"Point","coordinates":[172.3984,-34.0727]},"properties":{"ptf_id":1361157,"ptf_ref":"SEHZK8Y","category":"soconet_moorings","ptf_model":"GENERIC_pCO2","country_name":"USA","country_ship":null,"country_iso_reporting":"US","country_sensor_provider":null}},{"type":"Feature","geometry":{"type":"Point","coordinates":[130.385,-37.2202]},"properties":{"ptf_id":1361158,"ptf_ref":"FXWJCHS","category":"soconet_moorings","ptf_model":"GENERIC_pCO2","country_name":"USA","country_ship":null,"country_iso_reporting":"US","country_sensor_provider":null}},{"type":"Feature","geometry":{"type":"Point","coordinates":[-3.858,49.963]},"properties":{"ptf_id":1361159,"ptf_ref":"VJYDZMW","category":"soconet_moorings","ptf_model":"GENERIC_pCO2","country_name":"UK","country_ship":"UK","country_iso_reporting":"GB","country_sensor_provider":null}},{"type":"Feature","geometry":{"type":"Point","coordinates":[4.95,60.14]},"properties":{"ptf_id":1361160,"ptf_ref":"9LX7EQP","category":"soconet_moorings","ptf_model":"GENERIC_pCO2","country_name":"NORWAY","country_ship":"NORWAY","country_iso_reporting":"NO","country_sensor_provider":null}},{"type":"Feature","geometry":{"type":"Point","coordinates":[4.667,56.868]},"properties":{"ptf_id":1361161,"ptf_ref":"XDF4HDC","category":"soconet_moorings","ptf_model":"GENERIC_pCO2","country_name":"NORWAY","country_ship":"NORWAY","country_iso_reporting":"NO","country_sensor_provider":null}},{"type":"Feature","geometry":{"type":"Point","coordinates":[4.969,60.509]},"properties":{"ptf_id":1361162,"ptf_ref":"HXYPM2F","category":"soconet_moorings","ptf_model":"GENERIC_pCO2","country_name":"NORWAY","country_ship":"NORWAY","country_iso_reporting":"NO","country_sensor_provider":null}},{"type":"Feature","geometry":{"type":"Point","coordinates":[5.03,61.119]},"properties":{"ptf_id":1361163,"ptf_ref":"LBFSBPS","category":"soconet_moorings","ptf_model":"GENERIC_pCO2","country_name":"NORWAY","country_ship":"NORWAY","country_iso_reporting":"NO","country_sensor_provider":null}},{"type":"Feature","geometry":{"type":"Point","coordinates":[5.167,60.223]},"properties":{"ptf_id":1361164,"ptf_ref":"HBSYDZR","category":"soconet_moorings","ptf_model":"GENERIC_pCO2","country_name":"NORWAY","country_ship":"NORWAY","country_iso_reporting":"NO","country_sensor_provider":null}},{"type":"Feature","geometry":{"type":"Point","coordinates":[26.357,71.209]},"properties":{"ptf_id":1361165,"ptf_ref":"FRY8CSM","category":"soconet_moorings","ptf_model":"GENERIC_pCO2","country_name":"NORWAY","country_ship":"NORWAY","country_iso_reporting":"NO","country_sensor_provider":null}},{"type":"Feature","geometry":{"type":"Point","coordinates":[4.948,60.536]},"properties":{"ptf_id":1361166,"ptf_ref":"WBNGD6U","category":"soconet_moorings","ptf_model":"GENERIC_pCO2","country_name":"NORWAY","country_ship":"NORWAY","country_iso_reporting":"NO","country_sensor_provider":null}},{"type":"Feature","geometry":{"type":"Point","coordinates":[18.51,69.533]},"properties":{"ptf_id":1361167,"ptf_ref":"6DMVHNC","category":"soconet_moorings","ptf_model":"GENERIC_pCO2","country_name":"NORWAY","country_ship":"NORWAY","country_iso_reporting":"NO","country_sensor_provider":null}},{"type":"Feature","geometry":{"type":"Point","coordinates":[21.505,70.062]},"properties":{"ptf_id":1361168,"ptf_ref":"UQMY4CL","category":"soconet_moorings","ptf_model":"GENERIC_pCO2","country_name":"NORWAY","country_ship":"NORWAY","country_iso_reporting":"NO","country_sensor_provider":null}},{"type":"Feature","geometry":{"type":"Point","coordinates":[19.528,69.814]},"properties":{"ptf_id":1361169,"ptf_ref":"4DXCH5P","category":"soconet_moorings","ptf_model":"GENERIC_pCO2","country_name":"NORWAY","country_ship":"NORWAY","country_iso_reporting":"NO","country_sensor_provider":null}},{"type":"Feature","geometry":{"type":"Point","coordinates":[4.539,60.78]},"properties":{"ptf_id":1361170,"ptf_ref":"TBDXVTJ","category":"soconet_moorings","ptf_model":"GENERIC_pCO2","country_name":"NORWAY","country_ship":"NORWAY","country_iso_reporting":"NO","country_sensor_provider":null}},{"type":"Feature","geometry":{"type":"Point","coordinates":[5.308,60.39]},"properties":{"ptf_id":1361171,"ptf_ref":"PNS263J","category":"soconet_moorings","ptf_model":"GENERIC_pCO2","country_name":"NORWAY","country_ship":null,"country_iso_reporting":"NO","country_sensor_provider":null}},{"type":"Feature","geometry":{"type":"Point","coordinates":[2.121,56.374]},"properties":{"ptf_id":1361172,"ptf_ref":"KQPCPUV","category":"soconet_moorings","ptf_model":"GENERIC_pCO2","country_name":"NORWAY","country_ship":null,"country_iso_reporting":"NO","country_sensor_provider":null}},{"type":"Feature","geometry":{"type":"Point","coordinates":[7.839,63.021]},"properties":{"ptf_id":1361173,"ptf_ref":"LBA3DUD","category":"soconet_moorings","ptf_model":"GENERIC_pCO2","country_name":"NORWAY","country_ship":null,"country_iso_reporting":"NO","country_sensor_provider":null}},{"type":"Feature","geometry":{"type":"Point","coordinates":[5.586,58.919]},"properties":{"ptf_id":1361174,"ptf_ref":"8QXPEKY","category":"soconet_moorings","ptf_model":"GENERIC_pCO2","country_name":"NORWAY","country_ship":null,"country_iso_reporting":"NO","country_sensor_provider":null}},{"type":"Feature","geometry":{"type":"Point","coordinates":[7.795,63.135]},"properties":{"ptf_id":1361175,"ptf_ref":"XPEZPGU","category":"soconet_moorings","ptf_model":"GENERIC_pCO2","country_name":"NORWAY","country_ship":null,"country_iso_reporting":"NO","country_sensor_provider":null}},{"type":"Feature","geometry":{"type":"Point","coordinates":[6.686,62.852]},"properties":{"ptf_id":1361176,"ptf_ref":"KCR4P7N","category":"soconet_moorings","ptf_model":"GENERIC_pCO2","country_name":"NORWAY","country_ship":null,"country_iso_reporting":"NO","country_sensor_provider":null}},{"type":"Feature","geometry":{"type":"Point","coordinates":[5.312,60.389]},"properties":{"ptf_id":1361177,"ptf_ref":"PPJLC5Y","category":"soconet_moorings","ptf_model":"GENERIC_pCO2","country_name":"NORWAY","country_ship":null,"country_iso_reporting":"NO","country_sensor_provider":null}},{"type":"Feature","geometry":{"type":"Point","coordinates":[5.089,62.194]},"properties":{"ptf_id":1361178,"ptf_ref":"XTAJWVP","category":"soconet_moorings","ptf_model":"GENERIC_pCO2","country_name":"NORWAY","country_ship":null,"country_iso_reporting":"NO","country_sensor_provider":null}},{"type":"Feature","geometry":{"type":"Point","coordinates":[6.226,62.478]},"properties":{"ptf_id":1361179,"ptf_ref":"HTP2TKY","category":"soconet_moorings","ptf_model":"GENERIC_pCO2","country_name":"NORWAY","country_ship":null,"country_iso_reporting":"NO","country_sensor_provider":null}},{"type":"Feature","geometry":{"type":"Point","coordinates":[9.935,-41.153]},"properties":{"ptf_id":1361180,"ptf_ref":"8WTHDJX","category":"soconet_moorings","ptf_model":"GENERIC_pCO2","country_name":"SOUTH AFRICA","country_ship":"SOUTH AFRICA","country_iso_reporting":"ZA","country_sensor_provider":null}},{"type":"Feature","geometry":{"type":"Point","coordinates":[0.009,-63.539]},"properties":{"ptf_id":1361181,"ptf_ref":"FEFDWFF","category":"soconet_moorings","ptf_model":"GENERIC_pCO2","country_name":"SOUTH AFRICA","country_ship":"SOUTH AFRICA","country_iso_reporting":"ZA","country_sensor_provider":null}},{"type":"Feature","geometry":{"type":"Point","coordinates":[16.503,-35.988]},"properties":{"ptf_id":1361182,"ptf_ref":"JAPNT3A","category":"soconet_moorings","ptf_model":"GENERIC_pCO2","country_name":"SOUTH AFRICA","country_ship":"SOUTH AFRICA","country_iso_reporting":"ZA","country_sensor_provider":null}},{"type":"Feature","geometry":{"type":"Point","coordinates":[18.148,-34.044]},"properties":{"ptf_id":1361183,"ptf_ref":"LKSQ5PA","category":"soconet_moorings","ptf_model":"GENERIC_pCO2","country_name":"SOUTH AFRICA","country_ship":"SOUTH AFRICA","country_iso_reporting":"ZA","country_sensor_provider":null}},{"type":"Feature","geometry":{"type":"Point","coordinates":[18.66,-34.634]},"properties":{"ptf_id":1361184,"ptf_ref":"HKHZCJG","category":"soconet_moorings","ptf_model":"GENERIC_pCO2","country_name":"SOUTH AFRICA","country_ship":"SOUTH AFRICA","country_iso_reporting":"ZA","country_sensor_provider":null}},{"type":"Feature","geometry":{"type":"Point","coordinates":[-149.348,59.909]},"properties":{"ptf_id":1361185,"ptf_ref":"JXFNPVN","category":"soconet_moorings","ptf_model":"Meteo mooring","country_name":"USA","country_ship":null,"country_iso_reporting":"US","country_sensor_provider":null}},{"type":"Feature","geometry":{"type":"Point","coordinates":[-164.055,56.876]},"properties":{"ptf_id":1361186,"ptf_ref":"RKP89BN","category":"soconet_moorings","ptf_model":"Meteo mooring","country_name":"USA","country_ship":null,"country_iso_reporting":"US","country_sensor_provider":null}},{"type":"Feature","geometry":{"type":"Point","coordinates":[-19.636,63.222]},"properties":{"ptf_id":1361187,"ptf_ref":"BCRU8MF","category":"soconet_moorings","ptf_model":"GENERIC_pCO2","country_name":"NORWAY","country_ship":null,"country_iso_reporting":"NO","country_sensor_provider":null}},{"type":"Feature","geometry":{"type":"Point","coordinates":[-7.611,62.578]},"properties":{"ptf_id":1361188,"ptf_ref":"NBKXKMC","category":"soconet_moorings","ptf_model":"GENERIC_pCO2","country_name":"NORWAY","country_ship":null,"country_iso_reporting":"NO","country_sensor_provider":null}},{"type":"Feature","geometry":{"type":"Point","coordinates":[2.908,51.249]},"properties":{"ptf_id":1361227,"ptf_ref":"BVREEXQ","category":"soconet_moorings","ptf_model":"GENERIC_pCO2","country_name":"BELGIUM","country_ship":"BELGIUM","country_iso_reporting":"BE","country_sensor_provider":null}},{"type":"Feature","geometry":{"type":"Point","coordinates":[2.898,51.239]},"properties":{"ptf_id":1361228,"ptf_ref":"TUQ9UJJ","category":"soconet_moorings","ptf_model":"GENERIC_pCO2","country_name":"BELGIUM","country_ship":"BELGIUM","country_iso_reporting":"BE","country_sensor_provider":null}},{"type":"Feature","geometry":{"type":"Point","coordinates":[2.9,51.25]},"properties":{"ptf_id":1361229,"ptf_ref":"WSYDE4L","category":"soconet_moorings","ptf_model":"GENERIC_pCO2","country_name":"BELGIUM","country_ship":"BELGIUM","country_iso_reporting":"BE","country_sensor_provider":null}},{"type":"Feature","geometry":{"type":"Point","coordinates":[2.901,51.256]},"properties":{"ptf_id":1361230,"ptf_ref":"CSPGN4P","category":"soconet_moorings","ptf_model":"GENERIC_pCO2","country_name":"BELGIUM","country_ship":"BELGIUM","country_iso_reporting":"BE","country_sensor_provider":null}},{"type":"Feature","geometry":{"type":"Point","coordinates":[2.891,51.264]},"properties":{"ptf_id":1361231,"ptf_ref":"VEY3FCZ","category":"soconet_moorings","ptf_model":"GENERIC_pCO2","country_name":"BELGIUM","country_ship":"BELGIUM","country_iso_reporting":"BE","country_sensor_provider":null}},{"type":"Feature","geometry":{"type":"Point","coordinates":[2.871,51.26]},"properties":{"ptf_id":1361232,"ptf_ref":"MKRRS9E","category":"soconet_moorings","ptf_model":"GENERIC_pCO2","country_name":"BELGIUM","country_ship":"BELGIUM","country_iso_reporting":"BE","country_sensor_provider":null}},{"type":"Feature","geometry":{"type":"Point","coordinates":[2.872,51.287]},"properties":{"ptf_id":1361233,"ptf_ref":"AVN7PYG","category":"soconet_moorings","ptf_model":"GENERIC_pCO2","country_name":"BELGIUM","country_ship":"BELGIUM","country_iso_reporting":"BE","country_sensor_provider":null}},{"type":"Feature","geometry":{"type":"Point","coordinates":[2.891,51.265]},"properties":{"ptf_id":1361234,"ptf_ref":"HHB77KV","category":"soconet_moorings","ptf_model":"GENERIC_pCO2","country_name":"BELGIUM","country_ship":"BELGIUM","country_iso_reporting":"BE","country_sensor_provider":null}},{"type":"Feature","geometry":{"type":"Point","coordinates":[2.889,51.252]},"properties":{"ptf_id":1361235,"ptf_ref":"UKVT3RH","category":"soconet_moorings","ptf_model":"GENERIC_pCO2","country_name":"BELGIUM","country_ship":"BELGIUM","country_iso_reporting":"BE","country_sensor_provider":null}},{"type":"Feature","geometry":{"type":"Point","coordinates":[2.894,51.262]},"properties":{"ptf_id":1361236,"ptf_ref":"7FBLBJL","category":"soconet_moorings","ptf_model":"GENERIC_pCO2","country_name":"BELGIUM","country_ship":"BELGIUM","country_iso_reporting":"BE","country_sensor_provider":null}},{"type":"Feature","geometry":{"type":"Point","coordinates":[2.833,51.264]},"properties":{"ptf_id":1361237,"ptf_ref":"DRCY7JV","category":"soconet_moorings","ptf_model":"GENERIC_pCO2","country_name":"BELGIUM","country_ship":"BELGIUM","country_iso_reporting":"BE","country_sensor_provider":null}},{"type":"Feature","geometry":{"type":"Point","coordinates":[2.876,51.284]},"properties":{"ptf_id":1361238,"ptf_ref":"3VYP3LC","category":"soconet_moorings","ptf_model":"GENERIC_pCO2","country_name":"BELGIUM","country_ship":"BELGIUM","country_iso_reporting":"BE","country_sensor_provider":null}},{"type":"Feature","geometry":{"type":"Point","coordinates":[18.708,72.235]},"properties":{"ptf_id":1361277,"ptf_ref":"JXQ6P7S","category":"soconet_moorings","ptf_model":"GENERIC_pCO2","country_name":"NORWAY","country_ship":"NORWAY","country_iso_reporting":"NO","country_sensor_provider":null}},{"type":"Feature","geometry":{"type":"Point","coordinates":[13.067,77.903]},"properties":{"ptf_id":1361278,"ptf_ref":"XENXYEX","category":"soconet_moorings","ptf_model":"GENERIC_pCO2","country_name":"NORWAY","country_ship":"NORWAY","country_iso_reporting":"NO","country_sensor_provider":null}},{"type":"Feature","geometry":{"type":"Point","coordinates":[7.703,68.894]},"properties":{"ptf_id":1361279,"ptf_ref":"PJC7UKV","category":"soconet_moorings","ptf_model":"GENERIC_pCO2","country_name":"NORWAY","country_ship":"NORWAY","country_iso_reporting":"NO","country_sensor_provider":null}},{"type":"Feature","geometry":{"type":"Point","coordinates":[11.071,80.001]},"properties":{"ptf_id":1361280,"ptf_ref":"EFWWBHF","category":"soconet_moorings","ptf_model":"GENERIC_pCO2","country_name":"NORWAY","country_ship":"NORWAY","country_iso_reporting":"NO","country_sensor_provider":null}},{"type":"Feature","geometry":{"type":"Point","coordinates":[14.307,78.195]},"properties":{"ptf_id":1361281,"ptf_ref":"QDG8ENC","category":"soconet_moorings","ptf_model":"GENERIC_pCO2","country_name":"NORWAY","country_ship":"NORWAY","country_iso_reporting":"NO","country_sensor_provider":null}}]}
