{"type":"FeatureCollection","features":[{"type":"Feature","geometry":{"type":"Point","coordinates":[132.348,20.782]},"properties":{"ptf_id":1004863,"ptf_ref":"5200404","category":"tsunami_buoys","ptf_model":"DART","country_name":"USA","country_ship":null,"country_sensor_provider":null}},{"type":"Feature","geometry":{"type":"Point","coordinates":[145.592,4.052]},"properties":{"ptf_id":1004862,"ptf_ref":"5200403","category":"tsunami_buoys","ptf_model":"DART","country_name":"USA","country_ship":null,"country_sensor_provider":null}},{"type":"Feature","geometry":{"type":"Point","coordinates":[-156.585,19.591]},"properties":{"ptf_id":1004778,"ptf_ref":"5100407","category":"tsunami_buoys","ptf_model":"DART","country_name":"USA","country_ship":null,"country_sensor_provider":null}},{"type":"Feature","geometry":{"type":"Point","coordinates":[-93.5,-7.397]},"properties":{"ptf_id":1004619,"ptf_ref":"3200413","category":"tsunami_buoys","ptf_model":"DART","country_name":"USA","country_ship":null,"country_sensor_provider":null}},{"type":"Feature","geometry":{"type":"Point","coordinates":[178.604,-36.1]},"properties":{"ptf_id":1153444,"ptf_ref":"5501004","category":"tsunami_buoys","ptf_model":"DART_4G","country_name":"NEW ZEALAND","country_ship":null,"country_sensor_provider":null}},{"type":"Feature","geometry":{"type":"Point","coordinates":[-179.797,-38.2]},"properties":{"ptf_id":1128609,"ptf_ref":"5401000","category":"tsunami_buoys","ptf_model":"DART_II","country_name":"NEW ZEALAND","country_ship":null,"country_sensor_provider":null}},{"type":"Feature","geometry":{"type":"Point","coordinates":[171.847,50.183]},"properties":{"ptf_id":1004480,"ptf_ref":"2100415","category":"tsunami_buoys","ptf_model":"DART","country_name":"USA","country_ship":null,"country_sensor_provider":null}},{"type":"Feature","geometry":{"type":"Point","coordinates":[-139.95,52.98]},"properties":{"ptf_id":1129197,"ptf_ref":"4600415","category":"tsunami_buoys","ptf_model":"DART_II","country_name":"USA","country_ship":null,"country_sensor_provider":null}},{"type":"Feature","geometry":{"type":"Point","coordinates":[88.792,6.255]},"properties":{"ptf_id":1004541,"ptf_ref":"2300227","category":"tsunami_buoys","ptf_model":"DART","country_name":"INDIA","country_ship":null,"country_sensor_provider":null}},{"type":"Feature","geometry":{"type":"Point","coordinates":[148.769,38.688]},"properties":{"ptf_id":1004482,"ptf_ref":"2100418","category":"tsunami_buoys","ptf_model":"DART","country_name":"USA","country_ship":null,"country_sensor_provider":null}},{"type":"Feature","geometry":{"type":"Point","coordinates":[135.022,28.891]},"properties":{"ptf_id":1129199,"ptf_ref":"2100420","category":"tsunami_buoys","ptf_model":"DART_II","country_name":"USA","country_ship":null,"country_sensor_provider":null}},{"type":"Feature","geometry":{"type":"Point","coordinates":[-173.402,-23.352]},"properties":{"ptf_id":1131649,"ptf_ref":"5401003","category":"tsunami_buoys","ptf_model":"DART_4G","country_name":"NEW ZEALAND","country_ship":null,"country_sensor_provider":null}},{"type":"Feature","geometry":{"type":"Point","coordinates":[-152.483,53.726]},"properties":{"ptf_id":1129198,"ptf_ref":"4600414","category":"tsunami_buoys","ptf_model":"DART_II","country_name":"USA","country_ship":null,"country_sensor_provider":null}},{"type":"Feature","geometry":{"type":"Point","coordinates":[152.117,30.515]},"properties":{"ptf_id":1004478,"ptf_ref":"2100413","category":"tsunami_buoys","ptf_model":"DART","country_name":"USA","country_ship":null,"country_sensor_provider":null}},{"type":"Feature","geometry":{"type":"Point","coordinates":[-143.786,57.635]},"properties":{"ptf_id":1004737,"ptf_ref":"4600410","category":"tsunami_buoys","ptf_model":"DART","country_name":"USA","country_ship":null,"country_sensor_provider":null}},{"type":"Feature","geometry":{"type":"Point","coordinates":[-63.906,23.409]},"properties":{"ptf_id":1004648,"ptf_ref":"4100421","category":"tsunami_buoys","ptf_model":"DART","country_name":"USA","country_ship":null,"country_sensor_provider":null}},{"type":"Feature","geometry":{"type":"Point","coordinates":[155.771,19.261]},"properties":{"ptf_id":1004860,"ptf_ref":"5200401","category":"tsunami_buoys","ptf_model":"DART","country_name":"USA","country_ship":null,"country_sensor_provider":null}},{"type":"Feature","geometry":{"type":"Point","coordinates":[-156.943,52.65]},"properties":{"ptf_id":1004732,"ptf_ref":"4600403","category":"tsunami_buoys","ptf_model":"DART","country_name":"USA","country_ship":null,"country_sensor_provider":null}},{"type":"Feature","geometry":{"type":"Point","coordinates":[-75.2,-35.783]},"properties":{"ptf_id":1153321,"ptf_ref":"3400420_001","category":"tsunami_buoys","ptf_model":"DART_4G","country_name":"CHILE","country_ship":null,"country_sensor_provider":null}},{"type":"Feature","geometry":{"type":"Point","coordinates":[-177.708,-36.049]},"properties":{"ptf_id":1128610,"ptf_ref":"5401001","category":"tsunami_buoys","ptf_model":"DART_4G","country_name":"NEW ZEALAND","country_ship":null,"country_sensor_provider":null}},{"type":"Feature","geometry":{"type":"Point","coordinates":[-90.841,4.999]},"properties":{"ptf_id":1004617,"ptf_ref":"3200411","category":"tsunami_buoys","ptf_model":"DART","country_name":"USA","country_ship":null,"country_sensor_provider":null}},{"type":"Feature","geometry":{"type":"Point","coordinates":[-67.325,23.49]},"properties":{"ptf_id":1004647,"ptf_ref":"4100420","category":"tsunami_buoys","ptf_model":"DART","country_name":"USA","country_ship":null,"country_sensor_provider":null}},{"type":"Feature","geometry":{"type":"Point","coordinates":[117.989,-15.021]},"properties":{"ptf_id":1004937,"ptf_ref":"5600003","category":"tsunami_buoys","ptf_model":"DART","country_name":"AUSTRALIA","country_ship":null,"country_sensor_provider":null}},{"type":"Feature","geometry":{"type":"Point","coordinates":[-169.888,49.668]},"properties":{"ptf_id":1004735,"ptf_ref":"4600408","category":"tsunami_buoys","ptf_model":"DART","country_name":"USA","country_ship":null,"country_sensor_provider":null}},{"type":"Feature","geometry":{"type":"Point","coordinates":[158.5,-15.8]},"properties":{"ptf_id":1004965,"ptf_ref":"5500012","category":"tsunami_buoys","ptf_model":"DART","country_name":"AUSTRALIA","country_ship":null,"country_sensor_provider":null}},{"type":"Feature","geometry":{"type":"Point","coordinates":[169.499,-24.309]},"properties":{"ptf_id":1153446,"ptf_ref":"5501006","category":"tsunami_buoys","ptf_model":"DART_4G","country_name":"NEW ZEALAND","country_ship":null,"country_sensor_provider":null}},{"type":"Feature","geometry":{"type":"Point","coordinates":[-106.996,16.069]},"properties":{"ptf_id":1004699,"ptf_ref":"4300412","category":"tsunami_buoys","ptf_model":"DART","country_name":"USA","country_ship":null,"country_sensor_provider":null}},{"type":"Feature","geometry":{"type":"Point","coordinates":[-127.021,39.349]},"properties":{"ptf_id":1004738,"ptf_ref":"4600411","category":"tsunami_buoys","ptf_model":"DART","country_name":"USA","country_ship":null,"country_sensor_provider":null}},{"type":"Feature","geometry":{"type":"Point","coordinates":[-164.02,51.068]},"properties":{"ptf_id":1004731,"ptf_ref":"4600402","category":"tsunami_buoys","ptf_model":"DART","country_name":"USA","country_ship":null,"country_sensor_provider":null}},{"type":"Feature","geometry":{"type":"Point","coordinates":[166.782,-19.31]},"properties":{"ptf_id":1153447,"ptf_ref":"5501007","category":"tsunami_buoys","ptf_model":"DART_4G","country_name":"NEW ZEALAND","country_ship":null,"country_sensor_provider":null}},{"type":"Feature","geometry":{"type":"Point","coordinates":[178.263,48.948]},"properties":{"ptf_id":1004479,"ptf_ref":"2100414","category":"tsunami_buoys","ptf_model":"DART","country_name":"USA","country_ship":null,"country_sensor_provider":null}},{"type":"Feature","geometry":{"type":"Point","coordinates":[-73.983,-26.743]},"properties":{"ptf_id":1004616,"ptf_ref":"3200402","category":"tsunami_buoys","ptf_model":"DART","country_name":"CHILE","country_ship":null,"country_sensor_provider":null}},{"type":"Feature","geometry":{"type":"Point","coordinates":[89.483,17.333]},"properties":{"ptf_id":1153594,"ptf_ref":"2300223_001","category":"tsunami_buoys","ptf_model":"DART_II","country_name":"INDIA","country_ship":null,"country_sensor_provider":null}},{"type":"Feature","geometry":{"type":"Point","coordinates":[176.911,-43.371]},"properties":{"ptf_id":1128608,"ptf_ref":"5501002","category":"tsunami_buoys","ptf_model":"DART_II","country_name":"NEW ZEALAND","country_ship":null,"country_sensor_provider":null}},{"type":"Feature","geometry":{"type":"Point","coordinates":[-134.395,49.901]},"properties":{"ptf_id":1129176,"ptf_ref":"4600416","category":"tsunami_buoys","ptf_model":"DART_II","country_name":"USA","country_ship":null,"country_sensor_provider":null}},{"type":"Feature","geometry":{"type":"Point","coordinates":[-174.227,47.999]},"properties":{"ptf_id":1004740,"ptf_ref":"4600413","category":"tsunami_buoys","ptf_model":"DART","country_name":"USA","country_ship":null,"country_sensor_provider":null}},{"type":"Feature","geometry":{"type":"Point","coordinates":[-175.012,-29.683]},"properties":{"ptf_id":1128611,"ptf_ref":"5401002","category":"tsunami_buoys","ptf_model":"DART_4G","country_name":"NEW ZEALAND","country_ship":null,"country_sensor_provider":null}},{"type":"Feature","geometry":{"type":"Point","coordinates":[163.505,48.058]},"properties":{"ptf_id":1004481,"ptf_ref":"2100416","category":"tsunami_buoys","ptf_model":"DART","country_name":"USA","country_ship":null,"country_sensor_provider":null}},{"type":"Feature","geometry":{"type":"Point","coordinates":[132.184,12.985]},"properties":{"ptf_id":1004864,"ptf_ref":"5200405","category":"tsunami_buoys","ptf_model":"DART","country_name":"USA","country_ship":null,"country_sensor_provider":null}},{"type":"Feature","geometry":{"type":"Point","coordinates":[-128.775,45.855]},"properties":{"ptf_id":1004733,"ptf_ref":"4600404","category":"tsunami_buoys","ptf_model":"DART","country_name":"USA","country_ship":null,"country_sensor_provider":null}},{"type":"Feature","geometry":{"type":"Point","coordinates":[-148.515,55.3]},"properties":{"ptf_id":1004736,"ptf_ref":"4600409","category":"tsunami_buoys","ptf_model":"DART","country_name":"USA","country_ship":null,"country_sensor_provider":null}},{"type":"Feature","geometry":{"type":"Point","coordinates":[160.562,-46.922]},"properties":{"ptf_id":1004966,"ptf_ref":"5500015","category":"tsunami_buoys","ptf_model":"DART","country_name":"AUSTRALIA","country_ship":null,"country_sensor_provider":null}},{"type":"Feature","geometry":{"type":"Point","coordinates":[-171.191,-16.889]},"properties":{"ptf_id":1131651,"ptf_ref":"5401005","category":"tsunami_buoys","ptf_model":"DART_4G","country_name":"NEW ZEALAND","country_ship":null,"country_sensor_provider":null}},{"type":"Feature","geometry":{"type":"Point","coordinates":[155.736,44.455]},"properties":{"ptf_id":1004483,"ptf_ref":"2100419","category":"tsunami_buoys","ptf_model":"DART","country_name":"USA","country_ship":null,"country_sensor_provider":null}},{"type":"Feature","geometry":{"type":"Point","coordinates":[-171.863,-20.088]},"properties":{"ptf_id":1131650,"ptf_ref":"5401004","category":"tsunami_buoys","ptf_model":"DART_4G","country_name":"NEW ZEALAND","country_ship":null,"country_sensor_provider":null}},{"type":"Feature","geometry":{"type":"Point","coordinates":[153.537,-14.715]},"properties":{"ptf_id":1004967,"ptf_ref":"5500023","category":"tsunami_buoys","ptf_model":"DART","country_name":"AUSTRALIA","country_ship":null,"country_sensor_provider":null}},{"type":"Feature","geometry":{"type":"Point","coordinates":[163.955,-26.667]},"properties":{"ptf_id":1153445,"ptf_ref":"5501005","category":"tsunami_buoys","ptf_model":"DART","country_name":"NEW ZEALAND","country_ship":null,"country_sensor_provider":null}},{"type":"Feature","geometry":{"type":"Point","coordinates":[88.537,8.905]},"properties":{"ptf_id":1004543,"ptf_ref":"2300401","category":"tsunami_buoys","ptf_model":"DART","country_name":"THAILAND","country_ship":null,"country_sensor_provider":null}}]}
